Name,Address,Longitude,Latitude,id,Qualification
Professional Locksmiths Association Of Nigeria - Plan,"Banex Plaza, National Secretariat, Itire, 57 Ikorodu Rd, Mushin, Lagos, Nigeria, Ikorodu, Lagos State",3.50296926498413,6.61790800094605,597b4841-b41b-401d-986b-36470885aa5d,7
GT LOCKSMITH KEY DUPLICATING PROGRAMMER FOB BATTERIES & CAR DIAGNOSTIC SERVICES,"Block 13/14, Igbo-Efon, Lekki - Epe Expy, Lekki Penninsula II 105102, Lagos, Nigeria, Lagos, Lagos State 105102",3.41171717643738,6.44905376434326,09467a82-71d1-4f2e-82cc-b6b81977ad2c,9
Major Locksmith Nigeria Limited,"Kiosk, Tafawa Balewa Square Complex, Race Course, 14 Tafawa Balewa Rd, Lagos Island 102273, Lagos, Nigeria, Lagos, Lagos State",3.40112161636353,6.44524621963501,183186bf-afda-4e73-9d9f-72b2d6a09649,3
Phymocool Car AC Repair & Installation,"29 Balogun St, Yaba 100001, Lagos, Nigeria, Lagos, Lagos State",3.3770444393158,6.53415775299072,2ba1856d-184e-42bb-a67b-92c6a991fe3a,2
OFTECH,"162 Borno Way, Lagos, Lagos",3.37642598152161,6.50048208236694,bdcba56a-6f72-4262-9039-4112876a22c5,3
COOL PLUS,"Sura Shopping Complex Simpson Street, LAGOS, Lagos 101223",3.40425992012024,6.45446300506592,afb54dac-e211-426e-b7a9-1fe5e4c4da2b,8
"Technoton Ltd: Air Conditioning Contractor in Lagos, Nigeria - HVAC Sales, Repairs, Maintenance","5 Adeola Odeku St, Victoria Island, Lagos 106104, Lagos, Nigeria, Lagos, Lagos State",3.41379451751709,6.43061780929565,f755c74b-9565-4017-afa0-2f796baa9011,9
Autopholex technical car air conditioner,"down down PGH, Ebute-metta Oyingbo, Ondo St, Lagos Mainland 101223, Lagos, Nigeria, Lagos, Lagos State",3.38461327552795,6.48527765274048,442de8b1-fc23-4752-9c3c-fe1fa0d74aff,4
"Technoton Ltd: Air Conditioning Contractor in Lagos, Nigeria - HVAC Sales, Repairs, Maintenance","9, Ademola Street, Off Awolowo Rd, Ikoyi 101233, Lagos, Nigeria, Lagos, Lagos State",3.4172043800354,6.44188499450684,159dd78e-d127-4830-a7b5-cc93cc77a0c8,5
Satek Nigeria Limited,"8 10 Ilupeju Bye Pass, Lagos, Lagos State",3.35647988319397,6.54422998428345,c4b6a29c-9672-43ad-83de-c546e5acb353,5
ABENCO TECHNICAL SERVICES,"104c Itire Road Obele, LAGOS",3.33543920516968,6.51103830337524,2e20eae6-71f3-46ff-911e-01e72a8b1a48,8
Toptech Engineering Limited,"9, Oguntona Crescent, Gbagada, Lagos 23401",3.37480688095093,6.55007600784302,a853a2a4-d3e6-459e-95dd-921d2ea8be9f,9
CA CONSULTANTS LIMITED,"Uba House 57 Marina, LAGOS",3.38296318054199,6.4552788734436,64939a24-d53b-46a5-a917-5fd3f4f5ea2e,4
RCN NETWORKS LIMITED,"12C, Oko-Awo Close, Lagos, Lagos",3.42771601676941,6.42859506607056,f20994cf-4081-4db2-ac2e-68988c40ff04,4
Lubaz Tech | AC Repair in Ikorodu Lagos | Car AC Repair,"Block 5 plot 18 Zainab Ajoke Street, Alogba St, Ikorodu, Lagos 104101",3.48760795593262,6.59183692932129,88db0129-7c53-4d22-820e-437c7cb0ee7a,4
MECEL ASSOCIATES NIGERIA LIMITED,"70, Modupe Johnson Crescent, Lagos, Lagos",3.35904693603516,6.49230813980103,d301cd7d-9c34-4016-82f3-9ba4db89e1de,2
ATLAS COPCO NIGERIA LIMITED,"Plot 110/114 Apapa-Oshodi Expressway, Isolo, Lagos, Lagos State 101241",3.31834888458252,6.4646258354187,903c9dd3-d54d-445a-bc79-5f011c136f8c,8
CURTIS ENERGY COMPANY LIMITED,"81 Obafemi Awolowo Way, Lagos, Ogun 105102",3.34044003486633,6.59678316116333,eeda6f37-1021-4446-aea6-3ac413af6019,4
TECHNOTON ENGINEERING & TECHNICAL SERVICES,"9 Ademola Street, Lagos, Ogun 101233",3.35885095596313,6.49814605712891,ad1a1aab-59d9-495a-aadb-971ebc602ad5,9
STAR COMPRESSORS SPARES LTD,"Ademola Ogunsola Street, Lagos, Ogun 101281",3.31623506546021,6.66191005706787,7bd00237-fcb7-4fd4-9c5d-ed9040fd3463,7
MUSTARD ENERGY LTD,"27A Oyinkan Abayomi Drive, Lagos, Lagos",3.45084691047668,6.44413614273071,dab2711f-ee99-4bc7-ba24-a5e384d863cb,2
NEW ENERGY SERViCES COMPANY LIMITED,"292H Ajose Adeogun Street, Lagos, Lagos",3.43755698204041,6.43089008331299,ab50bb6d-57c1-46dd-a11f-4660f812616e,6
Wilkriss Nigeria Limitied,"18B, Grace Anjous Drive, LAGOS, Lagos",3.4579598903656,6.44146490097046,e52a622b-22da-4351-846e-23bb28ca9661,7
UNITED TECHNICAL & ALLIED SERVICES,"110/114, Oshodi-Apapa Expressway, Lagos, Lagos",3.34267997741699,6.55629014968872,79025295-6176-41fe-a315-cf3397e9b146,7
BEAMCO,"3, Solomon Agbontan (Aerodrome), LAGOS, Lagos",3.37686896324158,6.6344780921936,7f0a4f47-d040-4129-8ca2-10d4e0f9d7ca,4
FORMEX INTEGRATED SERVICES LTD,"Ikorodu Road, Mile12, Lagos",3.39541840553284,6.6093430519104,a841827d-8877-40af-a2e2-e9f1528d449e,1
John West International Limited,"51 Opebi Road, Ikeja, Lagos State",3.35536289215088,6.59552478790283,e060ae37-4ef7-4278-b207-0824a0f04c41,1
GAS AIR,"Plot 5A General Aviation and Industrial Estate, LAGOS",3.32502198219299,6.47267818450928,4da4ce57-5692-421d-b675-0f16645dd7b4,5
Air Solution Nigeria Limited,"Ilupeju Road, Lagos, Lagos State",3.35634994506836,6.53881072998047,c0bdc4c2-5b9f-47bd-ac70-90b23aa8575b,7
Mandilas Group Ltd,"Mandilas House, 96/102 Broad Street, Lagos, Lagos",3.38811993598938,6.45445013046265,4b199c8e-ef94-43a7-b01d-40d730e92ba0,9
A-LINE ARCHERS CONSTRUCTION LIMITED,"No.127 Herbert Macaulay Way, Lagos, Lagos",3.37732791900635,6.50257110595703,9db623ed-c5ca-4b7b-85ad-e9f7d3e13d98,3
Mizbeach Limited,"56 Allen Avenue, Lagos, Ogun",3.35213994979858,6.60143995285034,e47a4a5e-b414-4061-8121-c3c127d5b215,8
FAKBIRDS SERVICES LIMITED,"No. 64 Toyin Street, Lagos, Ogun",3.34757399559021,6.59632301330566,05235113-76fa-4791-a465-7956ccd5391f,7
BLUE OCEAN,"23 Ladipo Oluwole Street, LAGOS, Lagos",3.29446792602539,6.54662418365479,da296310-0a6d-4067-902c-7fe900af6c6c,7
JMT,"26 Buhari Street, Lagos, Lagos",3.35125303268433,6.53615999221802,f22adf1a-edfc-42d0-89b4-9717dbfe9d7b,8
Starshield Technical Services | AC / DC Rewinding | Home appliances repair such as: washing machine/ microwave/ pumps,"3 kehinde jimoh street unity Estate, Lagos, Ogun 111115",3.41519808769226,6.72013711929321,4cce042a-a415-403a-98b6-2fc7aabe1c48,9
ELPINA ASSOCIATES LIMITED,"18B, Creek Road, Lagos, Lagos",3.37811493873596,6.44153499603272,ccaaf5bd-cc07-4851-b8d9-c46975e97048,7
ELIZENO ENGINEERING NIGERIA LIMITED,"19, Adetola Lane, Lagos, Ogun",3.37093591690063,6.53390121459961,946089a1-b277-4596-a7b5-fac5511e3be5,4
TECHNOTIME LIMITED,"404 Road, Lagos, Lagos",3.28478598594666,6.47780990600586,ded7643c-c49e-4f26-9ae8-73b9e647b53b,2
ANOINTED BLESSED ENG.CO.LTD,"Taiwo Close, Lagos, Ogun",3.32812905311584,6.66617012023926,ffd83b1f-fc42-401f-baad-dee1c5e70bef,8
interior decoration,"95,owutu isawo road agric ikorodu lagos, lagos state 23401",3.50483083724976,6.62370443344116,fc1fba81-d41a-45c5-a99d-51874c33a160,7
ART WALL INTERIOR DECOR,"Ikorodu Road, Ikorodu, Lagos",3.49453663825989,6.62415981292725,c43bac29-388d-4a57-99c0-b6442d2683db,1
HomeWorth Interiors,"Lekki, Lagos,23401, Lagos, Lagos",3.54764938354492,6.44812536239624,35415146-3a8d-42e5-84ab-4a46c7017501,1
RABSON INTENSIVE FURNITURE & INTERIOR DECORATION,"70 Ireshe Road, Ikorodu, Lagos",3.50521159172058,6.61085891723633,4a038112-542c-4a5a-94ed-841c8eae22a6,7
BASIL INTERIOR DECORATION ENTERPRISE,"Ayangburen Road, Ikorodu, Lagos",3.50175714492798,6.61421155929565,59f18aed-739c-492a-9414-5fd2f89bbf53,5
HASSMIMS VOGUE INTERIORS AND DECORATIONS,"Owolowo Street, Ikorodu, Lagos",3.50437879562378,6.61320638656616,677387a1-3b65-4ba7-a995-674cdd4c14d2,1
Maven School of Interior Decoration and Design,"2A Oladipo Soyebo Cl, Omole Phase 1, Ikeja, Nigeria, Lagos, Lagos State",3.37524032592773,6.63281059265137,dd7a3d25-e110-40b9-aa87-8f71ba324809,6
G-Tec Furniture And Interior Decor Ltd,"Matt Plaza, Langbasa Rd, Aja 106104, Lagos, Nigeria, Lagos, Lagos State",3.5841372013092,6.50028467178345,bf4764df-24ee-4d1f-a5c2-46216277d0d8,6
HILLS INTERIOR DECOR,"32 Orishigun Street, Orishigun, Lagos",3.39005327224731,6.60138368606567,17598790-d32c-4dc2-a450-40fe7ae090cf,8
Abilink Interiors,"No 36, Ijaiye Road, Opposite LG Showroom, Caterpillar Bus Stop, Ogba Ikeja, Lagos NATIONWIDE DELIVERY AVAILABLE, Lagos, Lagos, Lagos",3.33952951431274,6.63117218017578,2962bbfd-4143-44c3-a4fa-527cae3208b9,9
BURNVIEW INTERIOR DECOR,Lr No 209/928/2 Lagos Lane,3.36482071876526,6.59561538696289,285c63bd-806d-4179-b647-b82776f01d9c,4
Aso Oge Fabrics and interior decor,"31 aladelola street ikosi ketu, Lagos, Lagos, Ogun",3.38103079795837,6.60442399978638,1c30ce58-9e2e-46a5-8bbc-0d5c3cb46055,3
13 INTERIOR & DÃCOR,"8 Ola Ayinde St, Opebi 101233, Ikeja, Nigeria, Ikeja, Lagos State",3.3472638130188,6.59414911270142,d4b3ad4e-08fe-435b-9016-a6319045a6e8,6
JANGRAMZ GLOBAL PROPERTIES & INTERIOR DECOR,"Ikota Shopping Complex Victoria Garden City, Lekki",3.55616617202759,6.46436500549316,ef9a55c1-f735-451e-84f9-3ce3eb19bbe7,8
DARING INTERIOR DECOR,"Yaya Abatan Street, LAGOS, Lagos",3.34054064750671,6.63607788085938,079c6521-bc5f-4ff2-91a6-f6cb83dd8357,10
BARRACK INTERIOR DECOR,"3 Ajogbedun Street, Zone 4, Ibadan",3.33431100845337,6.64290428161621,e3c6f50a-ed0b-4d34-bb7c-5f23dd897f35,5
Doxology Interior DÃ©cor,"Lagos, Lagos, Ogun",3.33422994613647,6.62360000610352,3c595c94-0e43-46d7-8847-39b88f9e9674,7
Sky world interior decor and Lightings,"105 Obafemi Awolowo Way, beside mobile filling station. Airport Hotel, Ikeja, 100271, Lagos, Nigeria, Lagos, Lagos State",3.34949851036072,6.60747194290161,280af0b5-17d3-46f7-8577-a7f766175686,6
DIAMOND INTERIOR AND EXTERIOR DECOR,"14 Poboyejo Estate, Ikorodu, Lagos",3.3764488697052,6.50293779373169,b5114e13-ec02-49c8-82cc-d9e1a8860a6e,4
JP interior desinger,"Lagos, Lagos",3.37134003639221,6.50946998596191,5adb2767-5664-4965-97a0-c51b2f798b9d,10
"Maven School of Interior Design and Decoration Palmgroove,Yaba.","19 APATA STREET,PALMGROOVE/ONIPANU,YABA LAGOS., Lagos, Lagos State +02",3.3859589099884,6.53320503234863,61a2c505-db83-46c0-88e1-0c8b36a97c62,1
Chemhap interiors,"7 kokoro abu road, gbadamosi house, ikorodu, Lagos,23401, Lagos, Lagos",3.39582920074463,6.45300769805908,d63fd5e0-0fba-41a4-8b8b-64d22b8e874d,1
pop interior nd exterior decoration,"28 benco street Aboru Iyana Ipaja, Lagos, Lagos +123",3.39831185340881,6.45318365097046,0fe892a3-17ba-4489-a8fd-ad8c56b8b4d2,3
Interior Decoration,"Shop No. E3, Mouque Plaza, 10 Ojuelegba Rd, Yaba, Lagos, Nigeria, Lagos, Lagos State",3.36217474937439,6.51029205322266,85ee6762-5184-4cdd-804d-d7874ec5b44f,3
COUPLES & KIDS INTERIOR DECOR,"5 Adedeji Close, LAGOS, Lagos",3.45656991004944,6.44256782531738,c5641495-bb3f-4cad-8b5d-b72e85d5716a,3
GOD'S PLAN INTERIOR DECOR,"Ibrahim Taiwo Estate Pompamari Low Cost. 119 Ojuelegba Road, LAGOS, Lagos",3.36316990852356,6.51009178161621,55e0a188-4478-4944-ba0d-de607672b779,3
Ola_interior_decor_store,"Moyosore Aboderin Shopping Mall, Oyetayo St, Mafoluku Oshodi 100261, Lagos, Nigeria, Lagos, Lagos State",3.34618854522705,6.56286668777466,b42d764d-15b0-47a3-8b75-9ba9e3400274,9
PERFECT TOUCH INTERIOR & EXTERIOR DECOR,"Oshorun Heritage Estate Tony Idowu Close, Idowu, Lagos",3.48028707504272,6.45458984375,67521910-969d-4824-b644-6d353a4cb189,7
Omotuns interior decoration,"house 4 onitiri estate, ojodu abiodun road, Lagos, Lagos 2341",3.39582920074463,6.45300769805908,2efc5451-5e14-45fb-bc6b-9a0dfc96628f,2
PINGO INTERIOR DECOR LTD,"Muri Okunola Street, Muri",3.4423189163208,6.43485927581787,ff66d213-cfd7-4cd1-9c64-c246e811f551,3
Real1 Interior Decorations,"31, Abeokuta Express way, Cement Bus stop, Dopemu., Lagos,2341, Lagos, Ogun",3.33045673370361,6.60425615310669,cdeb0520-1ac9-40f8-84fe-830e08545482,5
MOPEL Interior,"Gowon Estate, Lagos,+234, Lagos, Lagos",3.34870576858521,6.55915307998657,5c87fac0-c658-40d5-940a-86e1d263bcc3,4
Exquisite Designs & Decor | Interior Design Firm in Lagos,"Off Murtala Mohammed Int'l, 13 Fowora Close, Airport Rd, Ajao Estate, Lagos, Nigeria, Lagos, Lagos State",3.33718991279602,6.58997964859009,8c16d170-e58d-4cbf-8085-38ee84f8796d,9
B&T Interior Design,"GOLDRIM PLAZA, 1/3, MOKUOLU JUNCTION, Yaya Abatan Rd, Ogba, Lagos, Lagos, Ogun 101323",3.34325194358826,6.64394903182983,6e64236a-c123-48d3-ab0f-ef5c0dc82736,8
Soledoge Interior Design And Decoration Academy (Sidda),"27, Amore Street, Off Toyin Street, Off Allen Avenue, Ikeja, Lagos, Lagos 23401",3.35182309150696,6.60209846496582,861740f7-6b35-46e7-bc41-450e0117d802,4
O7Furniture - Corian Furniture Design and Interior Decoration,"1 Morenikeji St, Allen 100271, Ikeja, Lagos, Nigeria, Lagos, Lagos State 110105",3.39216017723084,6.54755926132202,7c32f8f6-53df-48ad-8935-dc50ebf9a11a,4
CVL Interior decoration,"3, John Olugbo Street,off Obafemi Awolowo way,Ikeja, 300001, Ikeja, Nigeria, Ikeja, Lagos State",3.35592460632324,6.61253976821899,61152ffe-b818-4a21-b02b-c907ab4cd22e,3
BUSDAM INTERIOR DECORATION CONCEPTS,"Ayinke Street, Bariga, Lagos",3.38502621650696,6.54311323165894,9e1abc95-bcce-49f8-a848-7855043deb64,1
Akinbamiro Interior Decoration,"13 Adedoyin St, Ketu 300001, Lagos, Nigeria, Lagos, Lagos State",3.3464457988739,6.63677310943604,63c701b6-7554-46dc-a888-c238eee44cf4,4
Unique Masters Interior & Exterior Decor,"26 Ajayi Road, Aguda, Ogba, LGA, Ifako-Ijaiye, Ikeja 100001, Lagos, Nigeria, Lagos, Lagos State",3.34431576728821,6.64600610733032,a6b3a98d-ab69-43e9-8fe7-d8194bc4aa77,5
101 INTERIOR DECORATIONS,"15 Abiodun Adeyemi Street, Ojodu-Berger, Lagos",3.33351707458496,6.63469982147217,1a3f33bd-bff6-465b-b1c8-d70a401108cb,9
Decor & Rainbow,"2 Opebi Road, Lagos",3.3653576374054,6.58457660675049,dda757c4-71d3-420a-8cb4-6846b5fbaa41,7
SAMMYSAM INTERIOR AND EXTERIOR DECOR,"Adeyemo Complex Adebayo Street, Adeyemo, Ekiti",3.3644711971283,6.64814329147339,945dcd85-e198-496e-9cea-68995df8505b,2
Agathas Interior,"Local Government Area, 200 Awolowo Rd, Ikoyi 101233, Lagos, Nigeria, Lagos, Lagos State 101233",3.41779541969299,6.44205951690674,75b576aa-e24e-4dd4-b870-2da6bbaf09ca,2
KIMDEC MULTIVENTURES & INTERIOR DECOR,"6 Kadiri Street, Jibowu",3.31723141670227,6.61546421051025,5813ab35-498e-4e45-94cd-ed762c9f28bf,9
NAOJOE DISTINCT INTERIOR & EXTERIOR DECORATION,"20 Oshodi Road, Oshodi/Isolo, Lagos",3.41076040267944,6.4561972618103,632601d7-db82-4fdd-81b3-8ec46cd4ab80,4
Guidelines Home Decor Interior,"58a Ondo St, Ebute Metta 100001, Lagos, Nigeria, Lagos, Lagos State 100001",3.38845872879028,6.48209285736084,d66f70b6-d625-4344-a40a-04f6846eccba,8
Exotic Interiors,"17 Olayiwola Street,Off Charity Road,Abule Egba ,Lagos, Lagos, Lagos, Lagos",3.39582991600037,6.45306015014648,459e8649-9e5a-4c4a-8816-5c196d1df761,6
Anyibest interior decor,"YABA TEJUOSHO MARKET shopping Yaba, Lagos 100011, Lagos, Nigeria, Lagos, Lagos State",3.3817834854126,6.49078226089478,5b95a845-cace-4031-a9f8-d4f43353d8e8,5
Shekinah Dynamics Interior & Exterior Decor.,"Block A2 - 11, Suite 311, Sura Shopping Complex Simpson Street,, Lagos Island, Lagos state 234",3.40379166603088,6.45512771606445,1afea1b9-66e7-4470-9d12-bfac016e0df8,1
HNK Interiors,"16B, Admiralty Way, Lekki Phase 1, Lagos",3.45507097244263,6.44027185440064,2f87d1d5-acf5-41d5-9ec6-13004f1a0049,10
Alluring Interior Designs and Deco,"Lagos, +234",3.39417958259583,6.4550576210022,d058b8a4-12ab-4d34-a77d-078c6aaeb2bf,8
crystal interior decorations ltd,"house 8 , plot 4 Tanwa Abudu Close, U turn Bus Stop. Abule, Lagos, Ogun 234",3.37842011451721,6.51279735565186,a67a1891-ad3b-4dc6-a7d4-157d4269f7be,8
"Full house interior decoration..... Painting, wallpaper, pop, screeding","local government, 46 Ososa Ave, Bariga 102216, Lagos, Nigeria, Lagos, Lagos State",3.39507007598877,6.53860235214233,2d8d9b11-4892-4d89-ae3a-a72200f6f136,4
CoZy Beddings and Interior Decoration,"15 Olakunle Ajibade St, Ojota 110001, Lagos, Nigeria, Lagos, Lagos State",3.36916279792786,6.51003503799439,e75a2d7c-3321-4374-9243-d7c911991dc8,4
HOME MATE INTERIOR DESIGN DECORATION,"106 Adeniji Adele Road, LAGOS, Lagos",3.39308762550354,6.45943307876587,fbec573e-655a-4394-88ba-d885dff1b2d2,3
TEEJAY INTERIOR HOME DECOR,"65 A Ojuelegba Road, LAGOS, Lagos",3.3701434135437,6.50908899307251,ce5e6628-e3d0-4d1c-93ee-afb4c9c3c283,4
KAZLEM INTERIOR DECOR,"72 OLORUNSOGO STREET, Mushin, Lagos",3.37188243865967,6.53865718841553,f59ed84d-cd50-4b39-9589-314e017e2276,5
KENSUZ HOME INTERIOR AND EXTERIOR DECORATION ENTERPRISES,"Harmony Estate No. 1 Kensuzzanne Drive, Iba, Lagos",3.39624810218811,6.45092153549194,47ce83db-ddfc-4d67-bd9f-8bbab5dc01b4,10
SHINETEX INTERIOR DECORATION,"3Rd Extension, Akerele",3.35309672355652,6.50590991973877,bd5233de-8c32-4ed8-b90b-9c57370dd8e1,5
VINTAGE DELUXE INTERIORS & DECORATION LIMITED,"No. 35 Tejusho Street, Yaba",3.36922192573547,6.5052056312561,6b1a3862-07ae-457c-afc5-3a82371d1182,3
CREATIVE INTERIOR DECORATIONS,"Mushin Road, Ikate, Lagos",3.3404688835144,6.51262474060059,a0686e2d-daf7-422a-9964-a461b641328c,5
Valentine interiors decorations,"127 olo drive by corner bus stop Ojo Alaba, Lagos, Nigeria, Lagos, Lagos State",3.32447910308838,6.4643874168396,f001f7c4-2ece-49fa-be52-8660ca303466,9
Olaâs Interior Decor Store,"29, Oronna Street Oshodi Isolo, Lagos",3.34327387809753,6.5604133605957,e2849c5d-9cc5-45e5-8266-3937d35481f0,1
Querida Living Interiors,"Gbagada, Lagos, Lagos, Ogun",3.39289045333862,6.54290914535523,1aa6044f-779b-4525-ac71-3d43b43602cf,10
CHIVIN MULTISERVE INTERIOR DECORATIONS ENTERPRISES,"Ayilara Street, LAGOS, Lagos",3.36259841918945,6.5129189491272,438b4cab-16d7-402d-9171-9ce544218c6c,6
CLINJEF INTERIOR DECORATION,"45 Olorunshogo Street, Mushin, Lagos",3.35511875152588,6.52897787094116,7a441701-b66c-4d41-9502-ca7ea44b57d0,1
SUPREME EXTERIOR AND INTERIOR DECORATION,"Chris Madueke Street, Lekki",3.46237635612488,6.44066762924194,ed9a3710-d9e2-471d-9dae-93606bbc59c0,10
Antholyd Lighting and Interior Decoration,"22 The Providence St, Lekki Phase 1, Lagos 101233, Lagos, Nigeria, Lagos, Lagos State",3.46078205108643,6.43187093734741,9178a021-95d6-4e27-80f3-ce6241c628c8,7
OLAOBA INTERIOR AND FASHION DECORATION,"Olaomoju Abimbola Eluyera Elujide Phase 1, Abimbola",3.47246146202087,6.4450888633728,ac18905a-ee12-4ae7-8fc8-c92ab6573db1,9
Chuvie Decor Branch,"Barbeach Tower Block 5, Victoria Island, LAGOS, Lagos",3.43954348564148,6.4285740852356,6c45e19b-efa3-4937-a700-fce6db2539a4,5
Titemi home dÃ©cor and interiors,"Lekki, Lagos, Lagos",3.47471356391907,6.43194007873535,608265b2-dd2c-4872-8800-0f6c8164c17b,6
BORNWEALTHY FURNITURES AND INTERIOR DECORATION,"5 Dele Amuda Street, Lekki, Lagos",3.49737882614136,6.427978515625,09dd2ef4-00af-4ed2-a233-8a0adb8c9059,6
Mufty interior Decorations Global Ltd,"Lagos road epe, Lagos, Nigeria, Lagos, Lagos State",3.5425431728363,6.44630670547485,c681f0ef-a4a7-4b8a-83b5-985946621ba0,2
BLUCREST FURNITURE & INTERIOR DECORATION LIMITED,"Demex Mart. Lekki-Epe Expressway, Km 35, Epe, Lagos",3.54093027114868,6.44245958328247,1555a6d9-b507-4217-ae28-52c450babaea,5
TUNEX INTERIOR DECORATIONS,"Lekki Epe Expressway, Epe, Lagos",3.65264225006104,6.46909523010254,81dfd391-8247-4e0c-bef3-c5e08b334412,7
Mide interior decor,"54, coast street ebute meta lagos, Lagos, Lagos +234",3.39582920074463,6.45300769805908,419f58c9-7200-4ae6-b2d0-18661edfb0d5,1
MORFIT INTERIOR DECOR & FURNITURE LTD,"Klm 35, Lekki Epe Expressway, Ibeju",3.72619104385376,6.47299766540527,058e4264-1ff7-4da1-b638-73b677deca29,10
Interior Decoration,"5, st saviour street okota Lagos., Lagos, Lagos 23401",3.33232831954956,6.62383604049683,86fd29ef-5baa-4d14-8dcd-6c61175f749c,5
Hupducon Interiors,"Lagos, Lagos",3.39582991600037,6.45306015014648,b2b74684-864b-46be-a108-15db5566f575,7
Stalite Realtor & Interior & Exterior Decor,"Private Address in Lagos, Lagos",3.39580011367798,6.45310020446777,6686ad82-e83a-4a44-a9c1-864882fef274,1
Adore Interiors,"64, Ijaiye Road, Ogba, Ikeja, Lagos,23401, Lagos, Lagos",3.34842824935913,6.63520526885986,0e3297d0-7df5-418d-8b24-7db16afe7149,5
Qdlexy interiors decoration,"Private Address in Lagos, Lagos",3.39580011367798,6.45310020446777,bf11a0b8-7f79-4921-87bf-db5993438943,7
halfkast interior deco,"Private Address in Lagos, Lagos",3.39580011367798,6.45310020446777,3a24ece1-c577-4472-a39a-c15e6230fdc7,3
MIKE_C INTERIOR DECORATION NIGERIA,"Ikorodu Road, Fadeyi, Lagos",3.40299129486084,6.60385274887085,2eebfb9d-4583-4d22-8ccb-eb4c6a810585,9
ZUNACCI INTERIOR DECOR AND HOME ACCESSORIES,"Ebun Street, Abule-Oja, Lagos",3.3118007183075,6.62308073043823,a95cfdbf-7458-4ea5-bba7-a2e88c9baf9a,9
DIVINE IMPACT INTERIOR DECORATION VENTURES,"Badagry Expressway, Badagry, Lagos",3.1770350933075,6.4802131652832,cb2c4e9e-4089-4b60-bc24-7cbd0de5083e,8
Interior Designer,"Private Address in Lagos, Lagos",3.33038997650147,6.60501480102539,0861ba38-592c-4948-b8a1-e89b8fff9e45,5
Dammy - Land Furniture & Interior Decoration,"Along ado odo road owode yewa Ogun state, Owode, Ogun State",2.9833300113678,6.69999980926514,5cd98030-0680-4da6-9005-b9c846ceacce,8
dexotic interior decor,"blk8, flat10, agege lane dophin estate, Lagos, Lagos 234",3.27866697311401,6.57885408401489,282644ff-c554-40f1-bbfa-eee449cf9f33,7
Home Interior Decorations,"Shop 32 Water bustop, Ipaja road Alimosho, Ipaja 100278, Lagos, Nigeria, Lagos, Lagos State",3.29791593551636,6.61389255523682,e0cddf28-a9b3-45e3-8801-c18ea9433944,1
PICK YOUR EXCELLENCE FURNITURES AND INTERIOR DECOR,"2 Alhaja Pupayemi Street, Ijebu Ode, Ogun",3.26855659484863,6.54900360107422,6f81616c-324a-4755-ad97-e4bb2d35c660,1
KUNMICK INTERIOR DECOR,"20 Duduyemi Street, Egbeda, Lagos",3.2881805896759,6.59525775909424,85fb48df-4675-4af8-8871-f82d7b037795,3
ISTAJ INTERIOR DECORATIONS,"No. 16 Ogun koya Street, Yaba",3.34074091911316,6.56372880935669,85cb8fe9-9ee0-41d5-bd19-5c98fbc2b871,2
ABIDOLU FURNITURE & INTERIOR DECOR,"Fajumobi Street, Egbeda, Oyo",3.29691410064697,6.60455799102783,c16680ea-e82f-4bce-857c-071eca72df77,3
COMFORTBEDDINGS AND INTERIOR DECORATION,"4 Harrison Solaja Street, Ago, Lagos",3.30443978309631,6.51224946975708,7fd64587-b6b7-475d-8568-d7182d610030,1
HYBEZAT INTERIOR DECORATIONS,"Idimu Road, Egbeda, Lagos",3.28451561927795,6.58538055419922,b56e8d2c-8f75-4160-9572-5f0c0af49cd4,6
Decor Lounge Interiors,"21B Adebisi Ogunniyi Crescent, Lekki, Eti-Osa LGA, Lagos State., Lekki 23401",4.09999990463257,6.41669988632202,5a7f0eb2-75f1-4f46-b9e4-cb95971a2a01,9
OMD Art & Interior,"Plot 1 Ajikatu Mogaji, Oro House, off Oke Ira-Nla bus stop, Ajah Lagos., Lekki,+2348136075877",4.09999990463257,6.41666984558106,1a15c076-d3fc-4746-8e09-14693a8657b6,10
BAKEM INTERIOR DECOR & SUPPLIES,"Pearls Estate Abisoye Jaiyeola Street, Lekki",4.11813640594482,6.50656652450562,9ddfbc4e-be98-4121-bef8-77b33bc009f2,6
OLWILLS TOUCH INTERIOR DECOR,ALAKUKO +234,4.15774440765381,6.74192476272583,4aa1053f-1db1-4f7e-a372-a33879b09456,4
XP Barbers,"1 Victoria St, Ojota 105102, Lagos, Nigeria, Lagos, Lagos State 23401",3.39193987846375,6.50381326675415,b6959ec3-39be-463f-a0b6-6e0581702822,10
Frontrow Barber's,"103,Apapa Road, Ebute-Metta, Lagos, Lagos",3.37474012374878,6.4817156791687,1c542433-e2f2-4e8a-9161-948a889b3d16,10
Dare Barber Shop,"H6, MABOREJE MARKET, Lagos Island, Lagos, Nigeria, Lagos, Lagos State",3.38030076026917,6.53293609619141,c56725a2-5e4e-4b29-9ba1-606f4d19831d,1
Captain Barbing Salon,"11 Ajose St, Surulere 101241, Lagos, Nigeria, Lagos, Lagos State",3.38848400115967,6.49014616012573,4baed96b-6e29-44e2-ab47-b987181569a8,5
HairbyTomiee,"Olanrewaju St, Bariga 102216, Lagos, Nigeria, Lagos, Lagos State",3.39155983924866,6.53301239013672,37eeaf5d-2626-4f4d-8bb9-5c841ce8b544,9
Ismail Hair Salon,"14 Anuoluwapo St, Alimosho 102213, Lagos, Nigeria, Lagos, Lagos State",3.37696957588196,6.53211688995361,a651adce-c304-4002-895d-8b1cf899a162,10
Abiodun barber shop,"291 Herbert Macaulay Way, Yaba 101245, Lagos, Nigeria, Lagos, Lagos State",3.3774905204773,6.50165510177612,40958440-229d-4eb6-a7c4-b42c6fca72df,4
Ozone Barbers,"34 Moore Rd, Yaba 101245, Lagos, Nigeria, Lagos, Lagos State",3.37768411636353,6.51466608047485,1ecafa05-cde7-4019-a822-a484a40346e7,6
De - Best Barber's Salon,"Ogunnaike St, Dopemu 102212, Lagos, Nigeria, Lagos, Lagos State",3.36883330345154,6.54047727584839,adcb4868-9fb8-4597-9310-c315e410e9aa,3
Royalty's Hair Dressing Salon,"26 Alara Street, Onike, Yaba, Lagos, Nigeria, Lagos, Lagos State",3.38092541694641,6.50608587265015,ce2d3d1d-341b-4b53-ac28-682b15537f48,4
Morufat Abdulraheem Salon,"3 Olaleye St, Ojo 105102, Lagos, Nigeria, Lagos, Lagos State",3.37277793884277,6.53589916229248,7162a5f1-8f3d-4f36-ac4c-b9871f62dcd3,3
FUAD Barbershop,"BARRACKS B/STOP, 60 Tejuosho Rd, Surulere 101241, Lagos, Nigeria, Lagos, Lagos State",3.36951661109924,6.50406742095947,6aa74463-8c1c-42e8-95c0-80d7d73f44d8,4
LEX BARBER SHOP,"32 Diya St, Gbagada 100242, Lagos, Nigeria, Lagos, Lagos State",3.3950879573822,6.54734802246094,2889a8cf-c1c7-4ccf-865b-fa204c13ed4e,6
Ogunwe Hair Salon,"1 SHOLADEMI STREET, Alimosho 102213, Lagos, Nigeria, Lagos, Lagos State",3.40629816055298,6.55196142196655,d032efa8-24e3-436d-8332-b8ff234d61be,5
Seyi Bakare Styles,"31 APENA STR S/LERE, Ojo, Lagos, Nigeria, Lagos, Lagos State",3.36176347732544,6.51425313949585,f8d78585-d642-4aaa-b300-5eeaa7b676a0,3
UCHE BEST BARBING SALON,"2 , Ikunna Street, off Liasu Rd, Egbe 300001, Lagos, Nigeria, Lagos, Lagos State +234",3.34343028068543,6.49942111968994,c637a295-114e-4014-a5dc-f28b0f7767d1,8
THE PRISTINE BARBERS,"Benson Street, LAGOS, Lagos",3.35908651351929,6.50466728210449,400f8d19-a5e0-4fad-9de5-fb26b02ed0af,7
Autograph Barbing Suite,"No 44 Ikosi road, Ikosi Road Shopping Mall, Ikosi Ketu, Lagos,23401, Lagos, Lagos",3.39582991600037,6.45306015014648,77423a83-2cbc-4ebb-92ce-8551472a9cce,8
Ifeoluwa Barber Shop,"11 Wuraola St, Shogunle 102214, Lagos, Nigeria, Lagos, Lagos State",3.34163498878479,6.51243495941162,c7749044-7be5-40ea-9681-f2555f0528e3,1
Kazeem Mehmud Salon,"128 Agege Motor Rd, Mushin 102215, Lagos, Nigeria, Lagos, Lagos State",3.36000466346741,6.52562093734741,575889a7-1ddf-4362-bdac-ceecce59b407,3
Tosin Olumide Salon,"96 Olateju St, Mushin 102215, Lagos, Nigeria, Mushin, Lagos State",3.36035585403442,6.53180980682373,40f3c470-2ac4-43ec-aa2d-b6607e1e81a0,5
Priscilla Lady's Salon,"MILE 12, 10, OMODUNNI STREET, Ikosi Street, Isheri, Lagos, Nigeria, Lagos, Lagos State +234",3.34265971183777,6.51051330566406,e3886c12-bcda-4629-90c8-686fe93b5a48,1
Phase II Barbing Salon,"47, Meniel Road, Yaba, Lagos., LAGOS",3.38090825080872,6.49295091629028,f94b4434-4169-45d9-89da-701a86bad58a,8
Lukzyhaircut,"block 460(A.O.L.G)., Lagos,+234, Lagos, Lagos",3.31536078453064,6.45991230010986,2b3ebee7-9594-420d-84ec-d3f86c2bca52,1
Mr. Paul Akpobasa Saloon,"23 Ramoni St, Surulere 101241, Lagos, Nigeria, Lagos, Lagos State",3.33930850028992,6.50895404815674,b164bce6-49d7-4cda-b401-2738e910c436,1
Bolakale Cuts,"2 ADEGBITE LANE, Isolo 102215, Lagos, Nigeria, Lagos, Lagos State",3.32844281196594,6.51620388031006,fc5da216-dcdb-4e1f-b382-b1d1d86f6f2a,10
UFS Food store,"32 Abiodun Wright Ave, Ikate 101241, Lagos, Nigeria, Lagos, Lagos State",3.34447240829468,6.50674724578857,8b17f078-4e3f-47db-85e5-e7bee8b7eedc,8
Victor Barbing Salon,"Ilasa, 82 Akanro St, Mushin, Lagos, Nigeria, Lagos, Lagos State",3.33589553833008,6.5211706161499,9c501020-ac8b-4eac-8f2b-5f5259c859b8,7
Authentic Barbing Saloon,"27 Princess St, Lagos Island, Lagos 102273, Lagos, Nigeria, Lagos, Lagos State",3.39301228523254,6.46182250976563,10f8c473-2f1b-472e-ad7a-fac762049b8e,2
Sakiru Hairdresser,"3 AKENELALE, Isolo, Lagos, Nigeria, Lagos, Lagos State",3.39529538154602,6.45300817489624,a067f157-e5cf-468d-8ec9-dad012c27bc3,3
Plush Barbers Shop,"16 Oduduwa St, Ikate 101241, Lagos, Nigeria, Lagos, Lagos State",3.35614252090454,6.57273149490356,0ac19245-85bc-438e-9bbb-971672650fb2,9
P4 BARBER'S SHOP,"95 Igbosere Road, LAGOS, Lagos",3.39899826049805,6.45073461532593,b7bbf53e-0c14-444f-a2e6-633a53f9b343,4
Hair Craft,"142, Bode Thomas Street, Surulere,, Lagos, Lagos",3.35442709922791,6.49013900756836,cfafd155-c16e-441b-be55-b25bee790d06,1
Tope Top Barber Shop,"4 Taiwo Akinsanya St, Ejigbo 102214, Lagos, Nigeria, Lagos, Lagos State",3.31405425071716,6.53901147842407,0ae3ed7e-b8b0-4828-a41d-697a56bfb3cd,1
Olpet Barbing Salon,"6,rufai Apena Street,alagbada B/stop ,ijegun Road ,ikotun ,lagos., Lagos, Lagos 01",3.3228063583374,6.52701950073242,af0db734-979c-4c11-a203-9eeb8a0a7309,1
International Barging Salon,"1 Kuffo St, Ayobo 300001, Lagos, Nigeria, Lagos, Lagos State",3.41520071029663,6.44475507736206,18052a18-fe91-4af4-af3e-e9edbe8c9de4,5
Barbers shop,"Lagos State,iyana ipaja,mosan, DE Sopas bus stop, Lagos",3.3063542842865,6.62084245681763,6d913661-857b-4b29-95a6-f788793f9907,8
Abu Oluwaseyi Salon,"Ibiye, 2nd St, Alimosho, Lagos, Nigeria, Lagos, Lagos State",3.42077732086182,6.46576642990112,334208ac-f62e-43da-b1ad-94bd57be0de5,7
Momohdu Barbing Salon,"Alapere, 6 Ibefun St, Ketu, Lagos, Nigeria, Lagos, Lagos State",3.33107614517212,6.4451060295105,7851735e-bac2-492c-a3cd-90694d011cdb,7
Exclusive Barbers,"64 Eleshin St, Ikoyi 106104, Lagos, Nigeria, Lagos, Lagos State",3.41086053848267,6.44848346710205,7b11ce6b-3566-4c57-b015-cac2fc89a94e,7
SAMMY'S BARBERS SHOP & ACCESSORIES LTD,"Baale Street, LAGOS, Lagos",3.32522392272949,6.52684831619263,12a6458a-03a4-43b6-b02f-ccb2fa7cfda5,3
Jivamo Barber Salon,"15 Musa Yar' Adua St, Victoria Island 106104, Lagos, Nigeria, Lagos, Lagos State",3.41650104522705,6.43318223953247,57ca4b57-a638-4d15-afa5-2880257e2593,3
IKUT BARBERS,"Canal West Mall Island Ikoyi, LAGOS, Lagos",3.4272449016571,6.45033025741577,a6538cb8-e2ac-463c-9662-8ed8dade6f2f,3
Kabiru Barbing Salon,"Oshodi, Ladipo, Arowojobe Street, Lagos, Nigeria, Lagos, Lagos State",3.34189796447754,6.56221961975098,0b953247-1046-460d-82cc-7cc74a355cf5,9
Greatness Barbers by Niki'O Beauty Salon,"31 Victoria Ariobeke, Off Admiralty Way, Lekki, Lagos,23401, Lagos, Lagos",3.45544481277466,6.43631267547607,55f7e109-e184-4c52-a562-b786d030170e,8
Eric Barber Shop,"15A, Admiralty way, beside kfc restaurant, lekki phase 1, Lagos,105102, Lagos, Lagos",3.46789503097534,6.44253015518189,04dc6936-073e-4cf2-9ee1-2040f721cb06,6
MR. SMALL Barber's SHOP,"NO 21, ADIMULA STREET, OFF LIASU ROAD, COUNCIL BUS STOP, 300001, IKOTUN, Lagos,23401, Lagos, Lagos",3.28018546104431,6.62607479095459,5890cfb9-dcbe-47e3-b466-28da985f4695,6
Rebel's Cut,"59, Ogudu Road, Opposite (Farm City Ogudu), Ogudu, Lagos",3.38937783241272,6.5768256187439,5d2bd5cc-da3f-4ca1-bc84-737531bf3b72,1
Rehoboth Barbing Salon,"25 Eyinogun St, Orile Oshodi 102214, Lagos, Nigeria, Lagos, Lagos State",3.33533906936646,6.55080413818359,d58c9e91-33be-47a4-a117-6fe7d42ccdeb,5
Benatural Hair Salon,"22A Lateef Salami St, Ajao Estate 102214, Lagos, Nigeria, Lagos, Lagos State",3.33781886100769,6.55230188369751,de4cc545-d9f9-4289-b17b-05f4ac56d121,9
Bello Hair Antidote,"16 Oshodi St, Lagos Island 102273, Lagos, Nigeria, Lagos, Lagos State",3.3983588218689,6.4549765586853,930273e1-75a6-4d9c-9f93-c7c6e4ad28e5,5
Yemi Salon,"No. 13 Kokumo St, Orile Agege, Lagos 102212, Lagos, Nigeria, Lagos, Lagos State",3.4331591129303,6.43548250198364,6201a046-76d4-4b79-878d-4f6e3356b833,9
Paradise Barbing Saloon,"Flat No. 2 Block, God Mon Estate, 2 Okota Rd, Lagos, Nigeria, Lagos, Lagos State",3.30798172950745,6.52369356155396,bdc655bd-9984-4d0f-9a65-23de6ef5e88f,2
The Barbershop,"Babatunde Anjose Avenue Studio 24 Lekki, Lagos, Nigeria, Lagos, Lagos State",3.47768545150757,6.449622631073,dec928d3-5f89-41d6-a0d7-cdad73eff8a8,1
Groomed By Elereka,"7-12 Rumens Road, Ikoyi, Lagos,101233",3.42045950889587,6.42527437210083,06bbeb75-5337-4d5a-a301-17c89cbeec5f,2
Tunde the barber,"69 Victoria Arobieke, Admiralty Way, Lekki Phase 1, Lagos, Nigeria, Lagos, Lagos State",3.45444750785828,6.44318580627441,75fd6503-52c6-4188-9f01-66a63fb3f1ca,8
Kayzplace Barbershop,"25a Admiralty Way, E, Lekki, Nigeria, Lagos, Lagos State",3.45569944381714,6.43660926818848,f61f897d-0e03-4ba9-b5dd-22c1cdec8be1,9
SJ Barbers Shop,"17 Mogidi Street, Off Toyin St, near Presken Hotel, 100001, Ikeja, Nigeria, Ikeja, Lagos State",3.34934020042419,6.59626865386963,51c76c90-5932-45dc-a146-a5e42e94da07,8
Shagdizy barbers,"No 1 Joshua oke-owo street, unity bustop, ikotun igando road, Alimosho, Lagos, Nigeria, Lagos, Lagos State",3.32543802261353,6.61162519454956,dc04e87c-d093-4ff7-a152-3b1fb32933ca,6
Kilo Barber Shop,"17,Kwaru street,off custom busstop, Abaranje Rd, Ikotun 300001, Ikotun, Nigeria, Ikotun, Lagos State",3.26120924949646,6.54291248321533,78695ca6-27d8-438d-ad67-092b76087f6a,9
HI-CUT BARBER SHOP,"1 Olugbede Street, Egbeda, Idimu Road, 1 Olugbede St, 100276, Lagos, Nigeria, Lagos, Lagos State",3.29597640037537,6.61509466171265,6c2549d1-67ce-4dd5-aae2-32c36fbddcb0,7
LushTrends Barbershop,"18 Kudirat Abiola Way Alausa, Lagos, Ogun",3.36908507347107,6.59724998474121,36eda893-4287-4149-8d5c-960d6b4bd6bb,3
Barbing Salon,"3 Ikosi Road, Ketu, Lagos 105102, Lagos, Nigeria, Lagos, Lagos State",3.3868100643158,6.60003614425659,2489d2c6-0a10-44dd-8007-c169ad61a8ca,10
Cheveux Beauty Salon,"2 Raymond Njoku Street, off Awolowo Rd, Ikoyi, Lagos, Nigeria, Lagos, Lagos State",3.42510771751404,6.44272327423096,080410c8-5a5a-45f5-9720-cd9035bb4ce3,4
SKYWARD UNISEX SALON,"34 Governor's Rd, Ikotun 300001, IKOTUN, Nigeria, Ikotun, Lagos State",3.35809826850891,6.61600017547607,3256cfb8-9ba8-4f2d-a6a0-fbc6625bc0b2,9
Adeola Hair Salon,"39 Olaiya St, Oshodi-Isolo 102214, Lagos, Nigeria, Lagos, Lagos State",3.33413243293762,6.55677270889282,f6e6f394-1c29-4391-abee-15382c001c82,1
Lot Hair Doctor,"6 Alhaji Orire St, Lagos 101241, Epe, Nigeria, Lagos, Lagos State",3.3147406578064,6.61740016937256,f5950c9b-86b4-4521-ae98-901bfa985e83,6
Abdur-raheem Comb Together,"21 Ligali Ayorinde St, Apese 106104, Lagos, Nigeria, Lagos, Lagos State",3.44108009338379,6.43014526367188,693939ff-ef0d-434e-832b-fd5b6f739c6e,1
Vicente Barbing Saloon,"24 Olorunlogbon St, Anthony 105102, Ikeja, Nigeria, Lagos, Lagos State",3.33258748054504,6.62379169464111,e8e543ce-342b-4940-bf33-e88b98f56a1d,3
Seths Barber's Shop,"No 6 Olamiko St, Dopemu 100273, Lagos, Nigeria, Lagos, Lagos State",3.30973052978516,6.61546802520752,96ee2502-8517-493e-9a25-445dbca36a2c,4
Radiant Touch Beauty Saloon,"10, Orelope Street Egbeda Lagos State, Lagos, Lagos Nigeria 23401",3.29131889343262,6.5921835899353,3a98428b-a6ff-40c9-a2bf-480af4f1dc3f,2
AbbeyMattheWorks Hair Lounge,"12b Emma Abimbola Cole, Lekki Phase I, Street 106104, Lagos, Nigeria, Lagos, Lagos State",3.47672867774963,6.44261980056763,b29deed2-f89a-438f-96b1-10facf3ce551,9
Bello Oluwaseun Salon,"6 Adegbite St, Mushin 102215, Lagos, Nigeria, Lagos, Lagos State",3.32450866699219,6.60966062545776,b13aaa5e-3e97-49a3-a3f0-f7a4b87d7f49,6
Hammed Hairdresser,"25, HAMMED, Ahmed Fashola St, Ijegun, Lagos, Nigeria, Lagos, Lagos State",3.30933618545532,6.62399339675903,71a3a4ee-092b-4669-9853-dd2f282ddb07,4
Kadija Issa Saloon,"28 Jejelaye St, Ojo 102103, Lagos, Nigeria, Lagos, Lagos State",3.33433175086975,6.62348365783691,1ba4a1d8-87cc-4383-8b2e-50c3495a1146,8
THE LOUD BARBERS SHOP,"19 B Rahman Adeboyejo Street, Lekki, Lagos",3.46880888938904,6.43475389480591,0a13f377-bce8-4cbe-9125-ac17d14f5b58,5
V.JâS Barbing & Male Grooming,"28B Admiralty Way, Lekki",3.47258639335632,6.4512095451355,b56746f1-7cd6-47c4-9f78-668a3fbe69df,4
D1 Barber Shop,"Fagbola St, Agege 102212, Lagos, Nigeria, Agege, Lagos State",3.31989622116089,6.63094043731689,b77e034b-d0d7-415a-ba60-c705cb2a0464,8
NICE TOUCH SALON,"268 Ikotun Road, Idimu 300001, Lagos, Nigeria, Lagos, Lagos State",3.27962517738342,6.56800699234009,b96c84f6-cc5c-4946-bfc8-a9e7713163a1,9
REAL MEN BARBERS AND TRIPLE CHIS STORES,"2 Osho-Ashafa Street, Ikorodu, Lagos",3.26608490943909,6.54222822189331,30ee2aa9-8377-4dd5-8aab-e65406ac48b1,8
Kehinde Akanbi Salon,"4 Adam Crescent, Alimosho 102213, Lagos, Nigeria, Lagos, Lagos State",3.30083179473877,6.61153364181519,cc588de5-9b90-4f7e-98e2-fc9b2daecbba,5
Adedotun Barbers Shop,"Opposite Post Office, Road 45 Shokunbi St, Mushin, Lagos, Nigeria, Lagos, Lagos State 100253",3.28963899612427,6.67218017578125,92a371a1-7242-4311-a3c8-6d95142220ba,10
Destiny Barbing Salon,"Iyana Ipaja, 24 Raji Oba St, Alimosho, Lagos, Nigeria, Lagos, Lagos State",3.29526329040527,6.61133718490601,d0a65c04-8d65-4168-a666-cf4023dde5d3,6
Kezo Barbing Saloon,"Off Agunbiade Street, 13 Amoo St, Agege, Lagos, Nigeria, Agege, Lagos State",3.32019829750061,6.62556171417236,0f3b1f84-16c6-42a9-98e3-c673c8b8bde2,10
REFLEX HAIRCUT,"NO. 2 OYIOLA OLAWALE STREET PAKO BUS-STOP, AKOKA YABA LOCAL GOVERNMENT, Yaba 100001, Lagos, Nigeria, Lagos, Lagos State",3.34134602546692,6.63981008529663,2daddddb-c7b6-476b-946f-b3f13f7030fd,5
Sulaimon Shears,"Igando, Obadore Rd, Ikotun 102213, Lagos, Nigeria, Lagos, Lagos State",3.22540616989136,6.53829336166382,9d7fac06-fba8-4d38-a6b0-06fdf7fac6b4,8
Hair Solutions Salon,"No 1, Dami Hair Solutions, Sigbnboard bus stop, Addo Road, Ajah, Lagos, Lekki",3.58226823806763,6.49293994903564,0dece2a4-46ab-4924-8ccc-15b39756fd94,6
AJAZA HAIR DESIGN,"21,Gospel Crusader Street,Haruna inside Transformer B/stop, Ifako-Ijaiye 300001, Lagos, Nigeria, Lagos, Lagos State",3.33563542366028,6.64559030532837,1874df41-f575-4497-a88b-0931073cb191,5
G-bliss barbing saloon,"Badore Rd, Lambasa 106104, Lagos, Nigeria, Lagos, Lagos State",3.60628485679626,6.50751256942749,4f301c8f-77c1-403e-abe7-66e6c14de83d,2
Mr Soft Barbings Salon,"Ikota Villa Estate, Rd 1, Eti-Osa, Lekki, Nigeria, Lagos, Lagos State",3.56452417373657,6.44059133529663,2b414fe7-5b36-4ba9-85a5-16bbae8c6e19,1
Emmanuel Hair Salon,"No Powerline St, Alimosho 102213, Lagos, Nigeria, Lagos, Lagos State 234",3.25501585006714,6.65481519699097,41fa8d77-3551-4dfb-a7f7-1d1afc2cc1e5,6
FACIAL BAR,"1A Ozumba Mbadiwe Street, V.I, LAGOS, Lagos",3.41659998893738,6.43629932403564,9c7cc36d-00f0-4905-bf15-cf78f06acd2c,4
Hair Art Studio,"190 Awolowo Road, Ikoyi, Lagos, Lagos, Lagos",3.41164994239807,6.44437694549561,ef2101bc-4cbd-4307-80c7-38277e64968c,4
Adlines Unisex & Salon,"Shop 5 & 6, Ultima Shopping Cmplx, Opp J Close 21, Festac, Lagos, LAGOS",3.28953981399536,6.45726346969605,9e1f5dee-efc2-49f9-8add-565a1f089139,2
SONAFA SIGNATURE (BEAUTY & BARBERS SHOP),"4 Kolawole Adekunle Street, Lekki, Lagos",3.56485199928284,6.47485065460205,cc76b8f5-9f49-416f-8280-03f2053709f8,4
House of Tor-Tor,"Shop 206, Ochowas Plaza, Badore Rd, opposite Simply Delicious, Aja 100245, Lagos, Nigeria, Lagos, Lagos State",3.5947322845459,6.49979782104492,1904e1e9-aa51-4fba-9fb5-ff9cf0d69e95,2
Awesome Unisex Barbers SHOP,"32 Oloke Street Ibara Opposite Fowotade guest house, Abeokuta,Ogun state,NIGERIA., Abeokuta,23401, Abeokuta, Ogun",3.34250855445862,7.11940670013428,6a558c06-8740-4ce9-8cc1-3133fec875ba,7
DORIS BEAUTY LOUGE & NATURAL HAIR SALON,"25 Igbogbo Road, LAGOS, Lagos",3.50596165657043,6.59389114379883,df056199-216e-494e-b42d-ea52758fe5d4,8
Manspace Barbershop & CafÃ©,"101, Obafemi Awolowo Rd, Beside Nigerian Postal Service, Panseke, Abeokuta, Ogun",3.33236408233643,7.13591194152832,d01638d8-6224-4d69-bd91-35bb7e628570,8
Jimmy Salon International Ltd,"Napex omplex,3, Farakahan Crescent, Victoria Island, Lagos, LAGOS",3.44556212425232,6.43601560592651,ae2cc31d-f38f-4c51-bbd3-15cf9c18a545,10
Saloon Dufacess,"12, Idowu Taylor Street, Victoria Island, Lagos, Lagos, Lagos",3.42705011367798,6.4332799911499,48efb57a-36eb-49e4-a7d5-fba13269f003,8
DOWNTOWN BEAUTY ACADEMY,"248A Muri Okuola Street, V.I, LAGOS, Lagos",3.27914500236511,6.55339908599854,54380e41-2e0e-410b-935c-b74058a7744c,7
Golden Touch,"42, Lewis Street, Lagos, Lagos, Ogun",3.31173205375671,6.60336685180664,6b5332e8-8507-4ce1-847d-a33e28bf6868,5
Emporium Total Look Salon,"19, Allen Avenue, Ikeja, Lagos., Lagos, Ogun",3.26746010780334,6.44989013671875,c2198d39-524a-46bb-acaa-819c50362d5b,3
Feelings Ochestration,"20 Palace Road, Apapa, Lagos, Lagos",3.32330989837647,6.4471697807312,255c39f5-f57f-4a96-b3d2-1360050d0931,4
UNCLE B.TAILORS NIGERIA,"Olaitan Odularu Street, Ikate",3.34237051010132,6.50262069702148,7c15ee4a-9559-44cb-a525-747e8be7371e,9
Alterations By Olaide,"18 Ajasa St, Lagos Island 900001, Lagos, Nigeria, Lagos, Lagos State 101001",3.40587329864502,6.55211019515991,6c3a58e8-4fe3-49be-a417-68996e2a1e1c,6
LAWAL OKLAND TAILORS,"19 A Lafia Street, Okene, Kogi",3.33587431907654,6.50281667709351,8da21c4c-5a1b-46d5-8d27-7c9b315e82f1,8
Maomay Sewing Machines,"29 Abioye gbadamusi street , Musibau bus stop, Ago Palace way, Lagos,08029728552, Lagos, Lagos",3.3090500831604,6.46352434158325,acb84d40-75e1-42d1-846c-96c0d525d9ba,2
"ROYAL KLASSIC KOUTURE: Bespoke tailoring/couture for men. ""Creative tailors and designers in Ojodu Berger and its environs"".","26 Ogo Oluwa St, Ojodu 100213, Berger, Ogun State, Nigeria, Lagos, Lagos State",3.40508913993835,6.552809715271,97b5db58-bbce-4471-a6cc-2395cd4afb04,9
Amalgamated Tailors,"26, Ado Bayero Rd., Lagos, Lagos",3.36278009414673,6.45058012008667,4cb53b94-7895-4309-9eaf-cc7a37de43a8,4
TAILORS ARENA LIMITED,"2, Yemi Braimoh Street, LAGOS 104101",3.33584952354431,6.5113582611084,d831d102-6340-4741-8a05-101e3565f7f4,10
Jay Jay Designs & Tailors,"67 Sholanke Street Akoka, Yaba, Lagos., Lagos, Ogun",3.39582991600037,6.45306015014648,ae6aaaf8-6b96-4305-8d2c-c23800783e56,3
"MyjobberPlus - Nigeria Fashion Market, Tailors Hub and More","1, Akinsanya Street, Ajao Estate, Lagos,100263, Lagos, Lagos",3.34035992622376,6.44283008575439,0ba60dd6-c034-40f3-9f18-a9e5c6f0de6f,2
"Ese Tafri Collections Best Men Tailors, Gorgeous Luxury Clothing / Fashion Industry in Nigeria","No 6 Ola Ayinde Street, Off Mobolaji Bank Anthony Way, Opposite ECO Bank, Toyin St, Ikeja, Nigeria, Ikeja, Lagos State",3.36261653900147,6.57382011413574,77ae8186-285d-43e7-9ade-2feb847d35fc,9
Dis&Dat Fashion,"Surulere, Lagos, Lagos, Lagos",3.40509724617004,6.54820823669434,899b8dfd-8704-4445-a456-407ee9074573,9
Olatunes Stitches,"132 Itire St, Mushin 101241, Lagos, Nigeria, Lagos, Lagos State",3.35872340202332,6.51182222366333,690266d5-6625-4591-ac22-20d95e863f4a,5
DEMIZU TAILORS,"Ilesanmi Street, LAGOS, Lagos",3.32401442527771,6.52988052368164,af89b2c8-6277-4d0a-9368-b88fd8c99bd7,5
"TAILORING AND APPAREL SERVICES (AT 218 IDEWU STREET, KIRIKIRI ROAD)","218, IDEWU STREET, KIRIKIRI ROAD, OLODI APAPA., OLODI-APAPA 102241, Lagos, Nigeria, Lagos, Lagos State",3.33957004547119,6.44782447814941,ddf451a8-f07f-4691-a43b-40db16d4b4f8,5
Cranesoft Tailor,"Techdroid Systems Ltd 4, Irewole Street, Off Agbaoku St, Opebi 101233, Ikeja, Nigeria, Ikeja, Lagos State",3.3597629070282,6.59257650375366,e8cb60a4-dc27-47c1-ad67-1c78f4045611,1
Atunnise clothiers,"Surulere, Lagos, Lagos State",3.3072874546051,6.46637010574341,7890fb98-aa5a-418c-9474-423574b2c7c8,6
King's Body&Fit,"34 Araromi St, Somolu, Lagos 102216, Lagos, Nigeria, Lagos, Lagos State",3.37774991989136,6.53316450119019,a28808af-a605-4ecb-b68b-e66c1988140a,6
TAILOR-MADE,"Adeniyi Jones Lagos, 101233, Ikeja, Nigeria, Ikeja, Lagos State",3.34604096412659,6.61506700515747,6badea89-ecc9-410c-8f70-cb0b11f59548,6
HIPHE DAVIDS Chartered Tailors,"Bashiru Shittu Ave, Magodo, Lagos, Nigeria, Lagos, Lagos State",3.37283110618591,6.62227153778076,cfd573ad-160a-47b0-bf7b-b5882677e38b,6
Poshqwin's Fashion,"42 Park Ln, Apapa Quays 102211, Lagos, Nigeria, Lagos, Lagos State",3.35404515266418,6.45039844512939,ac8d87dd-c762-4e52-9246-23f4fae4ee32,3
Magnum Stitches Africa,"Ilupeju Road, Lagos, Lagos State",3.35758233070374,6.53922176361084,b2bf57f3-ef1c-4b4d-855f-7d6d4724c40b,5
Chioma Christianah,"51A Oroyinyin St, ISALE, Lagos 102273, Lagos, Nigeria, Lagos, Lagos State",3.39265322685242,6.46122884750366,90746916-bd7a-4220-81b1-cb0bf56949d5,3
KCLAN,"31C Mobolaji Bank Anthony Way, Ikeja, Nigeria Ikeja, 101233, Lagos, Nigeria, Ikeja, Lagos State",3.35702157020569,6.5876145362854,a78bd501-7999-444c-846e-035ac8975e5e,4
MD. Embellish,"opposite food city, 35 Ikotun - Idimu Rd, Ikotun 102213, Lagos, Nigeria, Ikotun, Lagos State",3.2741904258728,6.56259489059448,3c763add-f6ca-4c5b-bc23-12a7a7de4cff,5
Temitope Jaiyeola,"Lawanson Bus Stop, 16 Lawanson Rd, Surulere, Lagos, Nigeria, Lagos, Lagos State",3.34668159484863,6.512038230896,f29a0a22-2050-46be-a9d4-b3f42685f252,1
Deji & Kola,"Ikeja Town Sqaure Mall, Obafemi Awolowo Way Shop F12 Ikeja, Alausa 234001, Lagos, Nigeria, Lagos, Lagos State",3.34555745124817,6.60364103317261,b7da8f94-a209-444d-b582-6d4b8a1f9b2c,7
CleanAce Drycleaners & Launderers,"5, Ikorodu Road, Maryland, Lagos, Lagos State 2341",3.36829042434692,6.54807281494141,6e7256d5-31a8-48f4-ab4b-f973d055b43e,1
GRACE ADEDARA XLS FASHION DESIGNERS & SIGNATURES,"ikorodu road owode elede mile 12, Lagos, Lagos, Ogun",3.38378405570984,6.60090684890747,cd43f55c-b9bb-484b-900f-d509a4917c2f,1
Mend Alterations Lagos,"Local Government, Amodu Ojikutu Street, Off Saka Tinubu St, Eti-Osa 101242, Lagos, Nigeria, Lagos, Lagos State",3.41925191879272,6.42706918716431,ea9c8f87-b247-4c92-808b-ec949d16578a,7
Busy Starrie Clothiers,"No,2 Ogun St, Allen 300001, Ikeja, Nigeria, Lagos, Lagos State",3.35182309150696,6.60209846496582,9bcc1ed4-43d6-4ed7-bc08-6c66a7aa0f36,2
VIC HENY Nigeria Limited,"119 Nnamdi Azikwe St, Idumota 102273, Lagos, Nigeria, Lagos, Lagos State",3.38877010345459,6.45472621917725,6c7fa130-6412-4b2e-af5b-e07421389f53,4
Dallars Fashion,"2E, 4E Ligali Ayorinde St, Victoria Island 106104, Lagos, Nigeria, Lagos, Lagos State",3.44049334526062,6.43543434143066,9663ea47-2a36-4c71-b221-ebe1848cf07a,8
TDA Couture,"7a Wole Ariyo St, Lekki Phase I, Lekki, Nigeria, Lagos, Lagos State",3.45872950553894,6.44589710235596,80706d50-b303-44d5-b86e-044fe7dc5f60,7
J.K AYOMIDE NIG.ENTERPRISE,"31 Idumagbo Avenue, LAGOS, Lagos",3.39405298233032,6.45951366424561,7134edae-1917-4dbc-8962-b80203b38163,4
Mace Tailors,"27 Christ Ave, Lekki Phase 1 106104, Lagos, Nigeria, Lagos, Lagos State 106104",3.47622203826904,6.45454072952271,9e504eae-b609-4198-9169-3e0af08da585,4
OS Benjamin Menswear,"off Prince Bode Adebowale Cres, Lekki Phase 1 106104, Lagos, Nigeria, Lagos, Lagos State",3.47908449172974,6.44253778457642,6fbd048d-c6c6-4358-bc52-d1d1449f4ac3,1
elvcombswears,"30 Bishop Oluwole St, Victoria Island 101241, Lagos, Nigeria, Lagos, Lagos State",3.41684293746948,6.42368030548096,499f270d-fe46-4f03-bc42-6f043d9d723e,6
KIMONO KOLLECTION,"18B Fola Osibo Rd, Street, Lagos, Nigeria, Lagos, Lagos State",3.47135806083679,6.4426417350769,7421ec91-d7d6-4e65-8fd1-ec5ea97c0568,4
tWIF,"Suite 5, 8 adewunmi adebimpe drive lekki, 8 Adewunmi Adebimpe Dr, Lekki Phase 1, Lagos, Nigeria, Lagos, Lagos State",3.46877217292786,6.43605613708496,985f5d3e-4537-4bfe-bd2c-ef870f0f0d00,2
By Cawbid,"5 Social Club Road, Abule Egba 101232, Lagos, Nigeria, Abule Egba, Lagos State",3.30462241172791,6.64789438247681,ea983dd3-78bb-4910-b635-21ea5fcbdd98,4
EKO MSME FASHION HUB COMPANY LIMITED,"Ministry Of, Industry And Co-Operatives, Alausa, Lagos",3.35657954216003,6.60961484909058,56259644-eb74-45ed-89f1-a6fb4a98e763,7
Easy Fashion Designer,"2, Sagamu Road,Itaoluwo,Ikorodu,Lagos Ikorodu, 300001, Lagos, Nigeria, Ikorodu, Lagos State",3.50395011901855,6.62120199203491,f31878c0-c999-45d9-8b40-3ee408b88414,8
OAK EXCLUSIVE DESIGNS LTD,"Plot 55, Block 3 Fatai Idowu Arobieke Street, Lagos, Lagos",3.47684502601624,6.45655488967896,b5d936c1-5d30-4b38-9be6-e7f43c476d70,1
Qt Concepts,"Ikorodu Road, Ikorodu, Lagos",3.49453663825989,6.62415981292725,ea6eb83a-a039-4fbb-8707-af98ba435bd7,9
Dream world unisex fashion industry,"6 Sunday Fadipe St, Ifako-Ijaiye 221167, Lagos, Nigeria, Ijaiye, Lagos State",3.28020429611206,6.67510747909546,7c326291-eea4-47e8-b413-3ac0ace0bf5b,6
DÃ© & Fer,"La Galiote, 83310 Cogolin, France",1.64009702205658,5.3634672164917,bec4aeef-7350-43f9-8475-1854ff25d3a7,7
TailoredByFada,"Abadina road, 200132, Ibadan, Oyo, Nigeria, Ibadan, Oyo State",3.90696454048157,7.45359659194946,1b5b56ce-68c9-410e-83ce-0e1f396f21a5,8
2024 KAY EFF Olayinka Nigeria Limited,"7, Docemo Street, Lagos, Lagos",3.38866400718689,6.46189498901367,4ccea213-ac3e-4ddb-956f-e5641ff5c854,9
Successful Electric,"aleshe close igbogbo ikorodu igbogbo, Ikorodu, Lagos, Nigeria, Igbogbo, Lagos State",3.49453663825989,6.62415981292725,97ea4fb7-0bef-467c-a719-7edbdadfd26b,6
"Certified Electrician, Ajah,lekki,abraham adesanya,shangtedo,awoyaya,ikota,ogombo,ado,chevron,newroad,ikate,oniru,agungi","Abraham Adesanya Estate Ajah Shangotedo Awoyaya, Lekki, Eti-Osa, Lekki, Lagos, Nigeria, Lekki, Lagos State",3.56393361091614,6.44785070419312,d7655085-35d6-40ca-9f00-cd13427115b3,6
Faith Electrical,"15 Kusenla Rd, Lekki Penninsula II, Lekki 106104, Lagos, Nigeria, Lagos, Lagos State",3.49081206321716,6.44406366348267,5db17c11-ffb1-4d03-b974-d517d9f264b3,6
Chisco Electrical Engineering Company,"Osapa, 17 Prince Ademola Eletu Wy, Lekki Penninsula II 106104, Lekki, Nigeria, Lagos, Lagos State",3.50974416732788,6.44077396392822,9663a41c-9a24-4c35-80f4-9aa5b7153fdd,2
Watt Electrical Technology,"Agungi Ajiran road Agungi Bus stop, Lekki - Epe Expy, Eti-Osa 104106, Lagos, Nigeria, Lagos, Lagos State",3.51629972457886,6.43812322616577,c8e94ac3-e1c5-41dc-855c-0aee722b80fb,7
Anjolaoluwa Electrical Lightings Agency.co,"12 olutosin street katola parafa ikorodu lagos nigeria, Ikorodu, Lagos",3.56152296066284,6.64491510391235,73b85d65-37b1-423e-bb7b-9127d9a3d896,6
IMERC ENERGY LIMITED,"Plot 2, Block 105, Lekki-Epe Expressway, Lagos, Ogun",3.65186500549316,6.46987819671631,76f29a3d-897a-4146-b9cc-df0bc1cde6e3,8
"Sonak Electric, Inc.","2 Agbaoku St, Opebi, Ikeja 101233, Lagos, Nigeria, Lagos, Lagos State",3.35736608505249,6.59402704238892,f13ce148-07a9-4d85-a745-2ac2404713b8,8
Tundexlight Electrcal Engr contractors,"17 The Providence St, Maruwa 106104, Lagos, Nigeria, Lagos, Lagos State",3.46027016639709,6.43190765380859,930d64e8-bdab-4d93-8631-5c08852e23e1,4
ENGRIYKE. ELECTRICAL WORKS,"No 2 SALVATION ROAD OPEBI IKEJA, LAGOS IKEJA, 100001, Lagos, Nigeria, Ikeja, Lagos State",3.36168813705444,6.58962392807007,8d30dd5c-2501-4a5f-a440-8a071367c650,5
El-Harcon Limited,"45 Opebi Rd, Opebi 300001, Ikeja, Nigeria, Ikeja, Lagos State 300001",3.35536289215088,6.59552478790283,4d7ad3c2-cbad-4288-8bca-6687358c6d03,3
General Electric Nigeria Limited,"11C Agodogbo Avenue, Parkview, Ikoyi Lagos., LAGOS",3.43676447868347,6.46247434616089,5077bfed-8715-4d32-ade3-21ee5c4317e2,3
Fabraz Electrical & Technical Services,"No Allen Avenue, Lagos, Lagos State",3.3543848991394,6.60313606262207,636063d9-b241-49ba-9a1c-75d44d061e31,10
Ronnie electrician,"Owutu ikd, 7 Imodi Ijasi St, Ikorodu 234101, Ikorodu, Nigeria, Ikorodu, Lagos State",3.38676333427429,6.53939342498779,1a0e99d3-df58-4372-b9f2-ca8836ebb6da,5
QUAINT POWER INFRASTRUCTURE LIMITED,"17b, Emmanuel Abimbola Cole Street, Lekki Phase1, Lagos, Ogun",3.48098993301392,6.44359016418457,1085c895-401e-4cf2-aa0c-6213726a884d,1
Yolawa Electrical works,"136 Awolowo Rd, Ikoyi 110001, Lagos, Nigeria, Lagos, Lagos State",3.41962456703186,6.44225168228149,48a8623e-7890-490f-bb3b-f2153c25e158,6
DE PRINCE ELECTRICAL CO.,"Ikoyi Dolphin Estate, 15 Awori Rd, Ikoyi 101222, Lagos, Nigeria, Lagos, Lagos State",3.41269683837891,6.45713043212891,f3dc7c72-1b98-456a-8a5a-cb289a13aaa5,3
Lawrence Energy Services Limited,"79 Opebi Road, Ikeja, Lagos State",3.36050009727478,6.59039306640625,fa8ed0f6-9228-41ff-8e29-f55d9bb8a029,3
Ayelaba Electrical and Mechanical Engineering Service,"Saka Street, Lagos, Lagos",3.34594988822937,6.53192186355591,978242d1-1d1c-4b96-ba35-c98d0bb6da9b,4
NEON ELECTRIC POWER LIMITED,"58, Femi Ayantuga Street, Lagos, Lagos",3.35874199867249,6.53464078903198,5a4f5f63-a87c-463c-adc6-f7c430275ff2,1
Infinity Electrical Services,"1 Odunlade St, Somolu 102216, Lagos, Nigeria, Lagos, Lagos State",3.37598276138306,6.53571462631226,1455ad26-5397-4142-ae9c-77e988884e36,10
B.k Electrical installation work,"66 Adebola St, off Adeniran Ogunsanya, Surulere, Lagos 101283, Lagos, Nigeria",3.35728049278259,6.49435615539551,4f1d79ce-6267-4c5b-82f1-64d176de9d78,9
KANDELITE ENG CO LTD,"6/8, Kayode Street, off Oloto Ring Road, Lagos State, Lagos",3.36400008201599,6.53244018554688,883c223a-ff75-4154-a043-95799c22a53a,10
ARREVA WORLDWIDE LIMITED,"1, Sunmola Street, Lagos, Lagos",3.36486291885376,6.5467848777771,061b386f-ad60-46a7-8798-e9f317f13c6d,10
Remeno Systems Ltd,"10 Coker Road, Lagos, Lagos State",3.36197304725647,6.54697704315186,cba93d99-7501-45eb-b88b-ac1286a8e0b1,9
HITECH ELECTRO MECHANICAL COMPANY LIMITED,"11 Little Road, Lagos, Lagos 1012012",3.37674999237061,6.51046705245972,4223e2f4-86cf-4505-939b-095ef49a1932,10
THREE E. ENERGY LIMITED,"Plot 1221, Ahmadu Bello Way, Victoria Island, Lagos",3.3609778881073,6.51490688323975,6422717b-ebbf-4b5e-9007-ac7920a12eec,9
Elektrint (Nig.) Ltd,"Plot 11 Gbagada Indl. Estate,Gbagada-Oworonshoki Exp-Way, LAGOS",3.36832308769226,6.51110935211182,4c0fd005-47e5-4a06-8c7c-7a1d05821e91,8
Bairstows Energy Limited (0700Inverters),"Anthony 105102, Ikeja, Nigeria, Ikeja, Lagos State",3.36755728721619,6.55932188034058,087c01b9-77b0-4219-82f7-4b4620d9848d,4
WC NIG LTD,"12 Taiwo Street, Lagos, Lagos State",3.3302435874939,6.51957273483276,2af17637-26a9-4ebf-8d5e-40b51a4e9ce1,2
ZAAPTRON LIMITED,"3, Aderibigbe Street, Lagos, Ogun",3.34600210189819,6.50411796569824,5cc2271e-fbbc-4f90-b8f0-a28ee1d57030,4
CCL,"73, Oshodi Street, Oshodi, Lagos",3.34134292602539,6.55658006668091,a3b4bf27-28db-4dd8-b082-9058b11e4843,9
ARIES,"2, Dalgo Drive, Awuse Estate, LAGOS, Oyo 100281",3.34144139289856,6.53280019760132,5f9922d8-ea36-4de0-9a51-1ed2ea5fe29d,4
SCANPOWER LIMITED,"12, Obanikoro Street, Lagos, Lagos",3.36930394172668,6.54792499542236,297b9b02-3734-4a46-a263-f61c6af7ed16,2
ISOLO POWER GENERATION LIMITED,"110/114, Apapa Oshodi Expressway, Lagos, Lagos",3.34267997741699,6.55629014968872,3cd8aa14-6128-4bf4-b57e-57a4444ff078,7
SYSTEMS INTELLIGENZ,"35B Shittu Animashaun Street, LAGOS, Lagos",3.38347816467285,6.54474639892578,216f4f53-2ea8-4fe5-a501-74e83fe4309d,10
Quintus Projects Ltd,"20 Agberinstreet, Oworoshoki, 101001, Lagos, Nigeria, Lagos, Lagos State 101001",3.39921975135803,6.55695533752441,8197d88c-7c81-41f2-9a22-ef9ca26f0f39,10
Rotary Engineering Nigeria Ltd.,"6 Karimu Ikotun St., Victoria Island Lagos, Lagos, Lagos",3.38138508796692,6.50442600250244,b667620d-f013-43eb-a38a-2ab8db318afd,7
Latson Azeez Technical Supply Company Ltd.,"Plot 10 Onipetesi Ind. Est., Mangoro Bus-stop, Agege Lagos, LAGOS",3.36226081848145,6.52388000488281,e56fe6dd-2c82-4b36-b5bd-0b1ca3751c1c,2
Ani-one electrical enterprises,"24B Isaac okommor street ogudu Lagos 63 Agboyi Road,Alapere Ketu Head office: 24b Isaac okommor street ogudu ,Lagos ,Nigeria Kosofe local government lagos, Lagos, Nigeria, Lagos, Lagos State",3.39052677154541,6.57500076293945,97df8903-07ac-4d64-bc6e-0becf6ec3314,8
DISL,"18A Cooper Road, LAGOS, Lagos 106104",3.36173462867737,6.54921531677246,0d492426-e813-4534-a720-02aa8203fb0f,5
LFTZ MAYOK ENGINEERING LTD,"16/18, Alufa Aminu Street, Lagos, Lagos",3.37019991874695,6.54445600509644,02482166-11de-49f6-8c7e-72ba40ce746f,4
CHRONICLES INTEGRATED SERVICES LIMITED,"8 Ajayi Street, Maryland, Lagos, Ogun",3.37676000595093,6.57036018371582,c217b76e-f03b-4ac6-a3a1-1013c73cdf7b,7
Lord mart Nigeria Ltd.,"9A Karimu Ikotun St., Victoria Island Lagos., Lagos, Lagos",3.38138508796692,6.50442600250244,fc060874-0ba3-4a50-9810-fea1969d123a,10
Mic Bab Nig.Ltd,"9 ILUDUN STREET' AMUKOKO APAPA LAGOS NIGERIA., Lagos, Lagos",3.39505195617676,6.54901218414307,a630c6aa-cd26-4236-85de-516681070287,10
DC CONTROL LIMITED,"350/360 Ikoro Suite Bc12, LAGOS",3.36682939529419,6.56735181808472,30e61752-54a6-439b-810d-a1bae2b7d253,7
SOLOGENTLE ELECTRICAL WORKS Â®,"22 Akinola St, Bariga, Lagos, Nigeria, Lagos, Lagos State",3.38783955574036,6.5387544631958,0049ed10-7755-40b9-aed9-e581501b7e5a,6
EGBIN,"Egbin Power Station, LAGOS, Lagos",3.3866229057312,6.53572988510132,e2894258-7e19-4884-b9b5-bd352b071cdc,3
GOtech electrical engineering,"Yaba Local government, 75 Queen street alogomeji sabo yaba, Yaba, Lagos, Nigeria, Lagos, Lagos State",3.3817834854126,6.49078226089478,8f5f65a8-707d-4da9-a025-4b3ccf771107,6
Transez Nigeria Limited,"Chief Sunday Ogunyade Street 5, Lagos, On 100234",3.39091897010803,6.54788494110107,f26fe66b-57f1-4cb5-b074-b79c408671c7,4
ENGINEERING & TECHNICAL COMPANY LIMITED,"14 Creek Road, Lagos, Lagos",3.38381099700928,6.53524017333984,e7a90b67-2629-4f6f-bc5c-49b99e778447,8
STARSIGHT POWER UTILITY LIMITED,"9 Ondo Street, Ikoyi, Lagos",3.42837595939636,6.46347570419312,ec3f745b-fa72-4b48-b950-e670b84600da,2
Eletrik Planet Limited,"17 Basheer Augusto St, Surulere 101241, Lagos, Nigeria, Lagos, Lagos State",3.3589391708374,6.49052715301514,d6b345d2-8ba3-414d-810d-16305a53d1a4,9
3Akt Communication And Security System,"Arab Rd, Abule ijesha 101245, Lagos, Nigeria, Lagos, Lagos State",3.37939453125,6.52364349365234,50a220dd-3671-44a3-acac-f08fb5d648b5,9
EASTMAN POWER SOLUTIONS LIMITED,"Carter street, LAGOS, Lagos",3.38332509994507,6.49122476577759,6e6f6437-a49a-4315-890f-63a6faaa9d99,6
BFJX General Contract,"New Makoko, Sabo, 24 Falodu St, Lagos Mainland 101245, Lagos, Nigeria, Lagos, Lagos State",3.38671398162842,6.50162649154663,5b1d88bc-133e-410d-b330-bb2a5aa34e58,4
EAI ENGINEERING SERVICES LIMITED,"12 Oweh Street, Lagos, Lagos",3.37069606781006,6.5217170715332,52c11c78-0658-4a30-a0f7-995842fa4b17,8
BATUL ELECTRIC ENERGY LTD,"Lekki Phase1 Omorinre Johnson street, Lekki, Lagos",3.39581036567688,6.45300769805908,e2240bf6-43d6-41cf-b84f-4f21c628b823,1
Bashiru Plumbing & Electrical Engineering Services,"Lagos 82, GLOVER STREET EBUTE-METTA LAGOS Nigeria, Lagos,100001, Lagos, Lagos",3.39722681045532,6.45205116271973,0d2d80c9-fc8e-4ead-8b70-a5fa5c898786,8
Leventis Power Systems,"8 Ijora Causeway, Ijora, Ijora Lagos., Lagos, Lagos",3.37073802947998,6.46897697448731,a3a03208-b13c-4917-8b26-a5d508e80c51,10
KENILY SERVICES LIMITED,"911 Sunday Ogunyade Street, Gbagada, Lagos",3.38989591598511,6.54754257202148,616540d3-56c5-41c2-bad9-c23942555b39,4
GODSPOWER ELECTRICAL,"1 Chief Natufe Street, Iganmu 101241, Lagos, Nigeria, Lagos, Lagos State",3.34623265266418,6.48736572265625,abb1f012-219b-493a-9d0f-5a120fa11f74,9
BOAB ENGINEERING SERVICES LIMITED,"17 Little Road, Yaba, Lagos",3.38151931762695,6.49141263961792,6ad4e812-ffdc-4331-9a81-59436fbfa8e5,7
TESLA,"10A Fatai Anjorin Street, LAGOS, Lagos",3.3824200630188,6.54569005966187,053f7217-6a20-4191-8e7a-e1d7a41c5d2f,7
Niyibram Communication Servicers,"NO 35 TURNER STREET MOSAFEJO AMUKOKO APAPA LAGOS STATE NIGERIA, Lagos, Lagos",3.38619995117188,6.51218986511231,2c1af28f-dae3-4ed1-be0c-e2b2c9bf20d7,2
Bodge Limited,"64 Falolu Rd, Surulere, Lagos 101241, Lagos, Nigeria, Lagos, Lagos State",3.35406541824341,6.50818204879761,45608ab7-1d5f-42cd-82bb-cd59949b9969,4
FEGMATECH COMMUNICATIONS LTD,"94 Shyllon Street, Lagos, Lagos",3.36505508422852,6.53958511352539,3215b90b-0908-4b95-8ca0-07a67cf48fb4,5
Kontri Limited,"17, Association Avenue, Ilupeju, Lagos",3.36324167251587,6.54781723022461,768901b6-cc8f-4bad-8db8-3f79aa9533bf,3
Mane Ltd.,"Plot 5 Block K, Oshodi Expressway Opp African Concord,, LAGOS",3.34339904785156,6.51250791549683,355fb118-825e-4952-8b85-c71891a2bafe,4
URBANELECTRICFIX CONSTRUCTION POWER ENGINEERING ENTREPRISE,"2 Basheer Augusto Street, LAGOS, Lagos",3.36005687713623,6.4898362159729,871da3c3-6980-43d3-b914-810a64f225b5,9
Power Systems Techno. Ltd,"148/150. Bode Thomas Street, Eric Manuel Bus Stop, Lagos",3.35442709922791,6.49013900756836,fb129353-ae54-4338-bcd5-5a470d97b368,10
Dtech Nigeria limited,"10 temidere street, Oko-Oba Rd, Agege, Lagos, Nigeria, Lagos, Lagos State",3.34144258499146,6.51062536239624,da89410d-3a6e-4d24-8473-967610aa18e7,6
Lightietech Limited,"4a Abule Nla Rd, Ebute Metta 100211, Lagos, Nigeria, Lagos, Lagos State",3.37004399299622,6.48490333557129,171bc6d2-fef6-4d83-a7dc-0b5f3ce163e1,3
Rewinding & Technical Services Ltd,"2/3 Eric Moore Rd., Iganmu Lagos., Lagos, Lagos",3.35534000396729,6.48648500442505,ddfe0ba1-6e42-43e1-856c-b1a6900fdabc,10
Mayoks Integrated Engineering Services,"15 Makurdi Street, off Ojoniyun Street, Lagos, Lagos 101211",3.37419700622559,6.48841619491577,85b860d7-8247-492f-9db2-0481719f1c49,7
AETI POWER SYSTEMS AND CONTROLS LIMITED,"Bode Thomas Street, Surulere, Lagos",3.35443544387817,6.49011516571045,138f9369-9b55-42a3-a07d-e33ebcac1635,3
SCHNEIDER ELECTRIC,"3A Cocoa Industrial Road, LAGOS, Lagos 101233",3.32430744171143,6.44611263275147,ef9a471f-466d-4972-bed1-cbf6f0bddf25,7
ADISCO NIGERIA ENTERPRISES LIMITED,"79, Sari-Iganmu Road, Lagos, Lagos",3.34598898887634,6.47763395309448,b7b76117-b51f-47fb-8f6f-d0c2cf25d019,1
WELBECK ELECTRICITY DISTRIBUTION LIMITED,"Plot 9 Gabriel Olusanya Street, Lagos, Lagos",3.30069804191589,6.5366849899292,6c6ea44b-f60d-4c18-b47b-0990c9fd4adf,10
GRACEAFRIC ENGINEERING NIG LTD,"44 Godwin Omoruo Way, Isolo, Lagos",3.32504200935364,6.52125835418701,8a0ade94-bcc9-47b3-8b00-59760f1750a5,10
SAFEWEST ELECTRICALSERVICES,"No. 7 Oriyomi street ikeja Second Floor IKEJA LGA, 100212, Lagos, Nigeria, Lagos, Lagos State",3.34630584716797,6.5963249206543,1d846a42-a490-45fa-90d3-80a316f6bc12,10
Stepheria Electrical/ Plumbing Limited,"29 Jamiu Eletu St, Awoyaya 105101, Lagos, Nigeria, Dongo, Lagos State",3.30627369880676,6.49475860595703,a4672711-950b-41c2-8ee5-a6804ba559dc,1
BABO Smart Solar system,"20 Atiba Osborne St, Mende 100011, Lagos, Nigeria, Lagos, Lagos State",3.37474203109741,6.57168960571289,36195b66-c9c4-4df6-a28d-4fa807706ba1,7
Mane Limited,"Plot 4, Block K, Apapa Oshodi Expressway, Lagos, Lagos, Lagos",3.32565069198608,6.48735427856445,9f32ae6f-1af7-490c-a5f9-f45e4a32a09a,1
JPC SAT COMMS,"Ago- Owu St, Fadeyi 102215, Lagos, Nigeria, Lagos, Lagos State",3.34236216545105,6.5761284828186,7c4270fa-f2dc-4100-ae0e-0bc082600193,4
SKEIN NIGERIA LIMITED,"2 Amosu Street Boda, Lagos, Lagos",3.35108995437622,6.48803997039795,22ec71a9-b338-45d0-9630-6b3a0326bbe8,9
E. O. A Technical Works,"18 Aina Rd, Oshodi-Isolo, Lagos 102214, Lagos, Nigeria, Lagos, Lagos State",3.32280611991882,6.52605152130127,828ba2ee-b177-4962-b549-94453a4b34f0,2
MOJEC METER COMPANY,"244-246, Oshodi-Apapa, Expressway, LAGOS, Lagos 100001",3.32567000389099,6.48733997344971,9785f9dd-5a78-4c48-8d18-0ac52a62b6a0,8
RIGGER VICNK LIMITED,"16 Rafiu Shittu Street, Lagos, Lagos",3.32507991790772,6.50137996673584,b7c366d3-7dfb-4af0-93f9-ea9253a8d866,7
EKEDP,"24/25 Marina Road, LAGOS, Lagos",3.38295102119446,6.45524311065674,627eb9b1-4261-4299-af98-55e7afd3361f,8
BOT ENGINEERING CO LTD,"435/437 Herbert Macaulay Street, Lagos, Lagos",3.38662004470825,6.48143005371094,879f53b4-ea2e-4564-8018-cea114a600e1,5
GENESIS ENERGY HOLDING,"Plot 9, Layi Ajayi Bembe Street, LAGOS, Lagos",3.38984799385071,6.46179914474487,e7e2374d-cf9d-473a-b4a5-65ef7b67d248,5
TNL,"45A, Campbell Street, Lagos, Lagos",3.39314889907837,6.45187616348267,cd63b13a-7607-4c04-90af-e180b54cbdd9,2
A-N Nnamani Enterprises Co. Ltd.,"Block 19, 35 Ojo Alaba International Market, Lagos State, Lagos",3.41507649421692,6.45699119567871,9f21bcfc-3999-47a0-9e38-f212f27c5566,1
TOPDEL ENGINEERING LIMITED,"35A, Adebayo Doherty Street, Lekki",3.46411633491516,6.44216442108154,f41ba6ac-1bba-43ba-baee-8b0b1bc7deb9,10
BID-PO,"Plot 27B, Block 68 Bisola Durosinmi-Etti Drive, LAGOS",3.47457432746887,6.43707180023193,a6188f9c-e1d8-427a-b801-52caf1795f85,10
AITEO,"1 Admiralty way,, Lekki, Lagos 105102",3.46174478530884,6.44688415527344,25b4b66f-a7b6-4da6-9a0c-17e513499969,7
CHRISTOJAS NIGERIA LIMITED,"No 5, Emma Abimbola Street, LAGOS, Lagos 234001",3.47369337081909,6.44263029098511,0d8c2fae-008c-47ea-b52d-85a9ba9a7efc,7
ACCELERATED COMPACT ENERGY SOLUTIONS LIMITED,"24b Babatunde Anjous Street Off Admiralty Way, Lagos, Lagos",3.45536494255066,6.43639516830444,3c3fa0f4-dd93-4c25-ba51-5db598cf8bda,3
STRATAGEM ENERGY MANAGEMENT LIMITED,"NIGERIA, Lagos, Lagos",3.44272494316101,6.45934295654297,07169b29-85d1-4cfc-a8a7-24a5bcce0229,5
CBC,"CBC Towers 10/11 Olubunmi Owa Street, LAGOS, Lagos 105102",3.47103500366211,6.44766521453857,a5e345ec-e998-4673-8f5e-f9d5999cb0ce,3
RICH KAY INVESTMENT SERVICES LIMITED,"Block 3 Flat 2 Sotubo Estate, Ogun State 220101",3.45594382286072,6.43934297561646,13223df6-2f61-488d-a9b1-c5dde8a6b903,2
PETROFAC ENERGY SERVICES NIGERIA LIMITED,"Muri Okunola Street, Plot. 252E, Lagos, Lagos",3.44158697128296,6.4343409538269,d9e359d0-0bd2-4a0b-a80d-3c532621a265,10
PRIVIDA,"Lekki Phase I 7, TF Kuboye Street, LAGOS, Lagos",3.45998001098633,6.43483018875122,c9043b3b-ea31-4bcc-b1cf-f14561d2e3ed,2
Fredd Ogbe Electrical Works,"13/14, Karimu Kotun Street, Victoria Island, Lagos., Lagos, Lagos",3.42563009262085,6.42899990081787,d40cd22f-c45a-4aa3-8421-babc878c69fa,3
CRESTFLOW ENERGY LTD,"B1, Silicone Estate, Admiralty Home, Tourism Road, LAGOS",3.4701099395752,6.44904565811157,e2b8f48f-22ad-4160-b860-8c1b0be45cb2,8
KLARTEK NIGERIA LIMITED,"19 Adeola Hopewell Street, Victoria Island, Lagos",3.42649507522583,6.43758296966553,8afc56e0-3c86-41ca-9a8a-2f1efea7ce7c,1
EnergyAfric,"39 Alfred Rewane Road, Lagos, Lagos State",3.42978096008301,6.45138692855835,8c85fbdc-6faa-43d6-a035-94ac315c1f9a,9
METRIX,"PLOT 323 Akin Ogunlewe Rd, Victoria Island 106104, Lagos, Nigeria, Lagos, Lagos State",3.43771743774414,6.42594528198242,36c7e368-cc08-4b96-8147-f2ccd56ecbe6,3
Benel Energy Resources,"Plot 6b, Olajide George Street, Lekki Phase 1, Lagos 105102",3.46142530441284,6.44576072692871,443071ef-3edc-44e1-978c-7af4931d46f8,3
Halliburton Energy Services Nig. Ltd.,"Plot 90, Ajose Adeogun Street, LAGOS, Lagos 101241",3.43755698204041,6.43089008331299,82eacc03-27d2-440d-a6ed-f2a9a0ef736c,9
MAIN ONE,"Ligali Ayorinde Street 3b, Lagos, Lagos State 23401",3.43944358825684,6.43452405929565,4a101690-4571-4e06-8e36-128eefaf50e9,3
AIPEC OIL AND GAS LIMITED,"Nigerian Law School Lagos , 10Th Floor, The King'S Court,Off Ad, LAGOS",3.48520398139954,6.4495644569397,429f4274-348a-4da8-8a43-1fc37baf9129,5
SAHARA GROUP,"7a Fowler Road, Ikoyi, Lagos, Lagos",3.43096303939819,6.45176410675049,d76b1b98-e63c-41d7-8c62-951a7643ef04,7
QUI VENTURES LIMITED,"Plot 8, Qmb Building Block 138 Lekki Expressway Phase 1, LAGOS",3.4612090587616,6.4313063621521,6a6798fd-2e2f-4368-b68b-ba4174d3d9ff,8
SERL,"7A, Oluwa Road, LAGOS, Lagos",3.43087792396545,6.4515380859375,4635d6e6-b0d5-4284-ba29-6a143114b002,7
DESICON ENGINEERING LIMITED,"6B Oko-Awo Street, LAGOS, Lagos",3.42771601676941,6.42859506607056,d89abafa-9ce7-4994-a84d-0f52802389c2,6
DALEX NIGERIA ENTERPRISES,"Opposite Forever Living Produc, 26, Aromire, LAGOS",3.43179249763489,6.45296669006348,96e69750-8ecb-4cb4-be9a-8ac25cbb40f9,5
RENNICS TECHNO LTD,"85, TRANSIT VILLAGE, 5, Adetokunbo Ademola Street, Victoria Island, Lagos, Nigeria, Lagos, Lagos State",3.4295916557312,6.42769622802734,9701f15a-8f3e-41e4-9afd-68ac1ab30fea,2
Mason Generators Ltd.,"269A Jide Oki St., V/I Annex, Victoria Island Lagos, Lagos, Lagos",3.43935489654541,6.42677879333496,3fe069a8-64b3-4f0d-ac2a-0cefdc5c3cb1,5
WEST POWER & GAS LIMITED,"15 Adetokunbo Ademola Street, Lagos, Lagos",3.42994499206543,6.42987012863159,2e7750f9-39fb-4d1a-a8c4-eada876d7990,3
SOLAD INTEGRATED POWER SOLUTIONS LIMITED,"21A, Olosa Street, Victoria Island, Lagos, Lagos, Lagos, Lagos",3.42887997627258,6.42760515213013,2e38ed11-1e00-4803-9aeb-bc53374c249a,1
DCC SATELLITE SERVICES LIMITED,"Castle Building (DCC) Adebayo Doherty Road, Off Admiralty Way, Lekki, Lagos 23401",3.45544481277466,6.43631267547607,b726c00e-273d-476c-92ed-7bf19e1ce6b7,3
ELECTRIC SHACK LIMITED,"Sleek Studio Shop 2,141 Ahmadu Bello Way,, Victoria Island, Lagos",3.40932607650757,6.42825889587402,f234e708-03d5-4b86-8a7d-c2f7c433af21,10
Proton Energy Limited,"Lekki - Ikoyi Toll Bridge, 24 Idejo Street, Victoria Island, Lagos 101241",3.41302919387817,6.42626571655273,75d07c67-9227-499f-b23d-dd123e1d30ee,5
Elektron Energy,"8 A Gabaro Close, LAGOS, Lagos",3.41876888275147,6.42610216140747,22a46ef3-02eb-46b1-8ce7-4dfa745d5d3f,5
ARNERGY SOLAR LIMITED,"22a Adeleke Adedoyin St, Victoria Island, Lagos, Nigeria, Lagos, Lagos State 101241",3.41777610778809,6.43337821960449,8630c683-af7c-4b4f-8829-a0c8e7f9c090,5
Geregu,"13 Walter Carrington Crescent, LAGOS, Lagos 1024",3.40833401679993,6.44008111953735,25cb6132-0a19-4f79-b030-957ab5252157,4
TELVIDA INTERNATIONAL SYSTEMS LTD,"PC 12 Churchgate St, Victoria Island 106104, Lagos, Nigeria, Lagos, Lagos State",3.41585803031921,6.4312858581543,c5e2f8fd-e22c-490b-8b87-5c7d59b4e9bc,7
OANDO CLEAN ENERGY,"Wings Office Complex 17A, Ozumba Mbadiwe Avenue, Victoria Island, Lagos",3.40920233726501,6.43801975250244,0b59918c-2f88-4bec-8602-ea8e1751c8da,2
Powercrest Nigeria Limited,"South West, 15 Keffi St, Ikoyi, Lagos, Nigeria, Lagos, Lagos State",3.41506433486938,6.44845104217529,6b5b1c66-8a4f-474e-97e2-a0b336df2f99,7
TOPSTORES ELECTRONIC CO LTD,"P O Box 4170, Marina 3rd Floor, Lagos, Lagos",3.40568995475769,6.45120000839233,c54087a7-11c3-43b8-9986-097c53c634a5,5
SUB-SAHARA GAS AND ELECTRICITY CORPORATION LTD,"St Nicolas House 6, Catholic Mission Street, Lagos, Lagos",3.39842009544373,6.44949007034302,b8742fc1-25d0-42dc-b633-2536b5b8e159,5
DOCTOR VOLKS AUTO ELECTRICIAN,"Association Avenue, Odo, Lagos",3.31191062927246,6.53738451004028,4dd1284f-4a2f-4f0b-a5f4-be5c35039777,8
WESTERNEDGE,"Monarch Plaza 65C Opebi road, Lagos, Ogun",3.35536289215088,6.59552478790283,424e52ca-81b4-43ae-936b-4b9ee3335f7d,2
POWERWORX LIMITED,"27, Ladoke Akintola Street, LAGOS, Lagos",3.35152006149292,6.58372211456299,24d3b520-4eb2-4668-9c36-e62b4dc60fc5,1
Jonac Engineering Plant Nigeria,"Plot 24 Kudirat Abiola Way Former Oregun Road, Oregun, Lagos, Ogun",3.37330794334412,6.59198808670044,7fbccb7b-bc74-4f0b-86f6-6d1232888d1e,8
D Law Auto Electrician,"Plot 10,Oluwa Akerele street off Obafemi awolowo way balogun b/stop Ikeja, Ikeja 300001, Nigeria, Ikeja, Lagos State",3.33997917175293,6.59647989273071,a1e36d31-d1bc-412c-b27a-76739e5a7942,10
DELAW AUTOMOBILE ELECTRICIAN,"Obafemi Awolowoway, Ikeja, Lagos",3.3405978679657,6.59685659408569,736b5fb5-f2ac-4fdf-85d3-bb2fda97c282,2
Jubaili Bros Engineering,"Ikosi Road 2, Ikeja, Lagos State 101233",3.37496495246887,6.59946823120117,e784c712-7f8f-4d07-a0db-8d143e15bd8e,9
ARIUS INTEGRATED ENERGY SERVICES LTD,"N0 2 Allen Avenue, Opposite Toyin, Lagos",3.35213994979858,6.60143995285034,832c6b9d-66dc-42e8-b815-122d6129a29a,8
EDUBEKE ELECTRICAL CONTRACTOR,"5 Asejere St, Ijegun 102213, Lagos, Nigeria, Lagos, Lagos State",3.32994055747986,6.62281131744385,0e189ead-c443-4d9b-beba-64618f540200,9
AGGREKO PROJECTS LIMITED,"No. 8 Tokunbo Alli, off Toyin Street, Ikeja, Lagos., Ikeja",3.37244892120361,6.6034951210022,827a8a93-9d05-48d5-a669-0bd1f8f0014e,8
KABITEX INDUSTRIES LTD,"P O Box 2149, Re-insurance, 9th Floor, LAGOS",3.36544179916382,6.56796073913574,66611bff-8706-4715-9f11-39f125ff9c28,4
Schneider Electric,"Adeniyi Jones, Tunde Gafar Close 1, Lagos, Ogun",3.34550905227661,6.61202716827393,713da6db-9a9b-4845-9884-94e71945d5db,5
HTIL,"Ajao Estate, 24 Olakunle Selesi Cresent, LAGOS, Lagos",3.38931608200073,6.6323299407959,94a4da86-364f-44dc-8000-054292e7e0b6,2
DEXTER GLOBAL PROJECTS LTD,"House 2, Abiola Court 5, Chevron Drive, LAGOS, Lagos 23401",3.35511994361877,6.61377000808716,875c7e25-2159-4868-a5db-e0efa81d941c,6
Saheed Electrical Engineer,"7 Akilo Rd, Ogba 102212, Lagos, Nigeria, Lagos, Lagos State",3.33499503135681,6.62451648712158,434d251e-7637-4970-9a08-a8e0b15f1784,2
ASHIPA ELECTRIC LIMITED,"30 Oremeji Street, Off Coker Rd, Ilupeju, Lagos, Nigeria, Lagos, Lagos State",3.33421039581299,6.62350988388062,b6e409da-dc56-4903-8f35-56131fb588eb,9
ABB,"4 Metalbox Rd, Ogba 101233, Ikeja, Lagos, Nigeria, Ikeja, Lagos State",3.34222984313965,6.62514925003052,d2f43e92-799e-4339-8ff6-a8fdb2ce8d20,5
Sollatek Nigeria Ltd.,"Jagal House, Jagal Rd., Oregun Ind. Estate, Oregun - Ikeja Lagos, Lagos, Ogun",3.35480809211731,6.61583995819092,a398f8c9-39c5-4ceb-8566-91fd7930791d,10
SENL,"1, Tunde Gafar Close, Ikeja, Lagos",3.34550905227661,6.61202716827393,7f6063e6-8936-4762-a99d-5f341509716f,10
Hicon Global Projects Ltd,"18 Thomas Salako Street, Lagos, Lagos State",3.33923649787903,6.6341872215271,38fcead2-4345-40e7-b253-4a31fb08d27b,4
Seacof Engineering Service,"2, Muyiwa Close, Lagos, Ogun",3.34256601333618,6.63666820526123,9ab79742-0dc6-4ef0-8c3d-5c27381abedd,7
CEN Corustar Limited,"8 Alade Ave, Allen 101233, Ikeja, Nigeria, Ikeja, Lagos State",3.34744501113892,6.60509252548218,3b594fcd-2d77-4418-bddd-5c3bc36af75e,7
ADID ELECTRICAL ENGINEERING COMPANY LIMITED,"94, Palm Avenue, Lagos, Ogun",3.36103200912476,6.62443590164185,e859dd0c-9d5b-41ed-95ad-194a91cdb7e3,9
Pivot Engineering Company Ltd.,"Pivot House, 6A Acme Rd., Ogba, Ikeja Lagos., LAGOS",3.34415078163147,6.62522649765015,d69b7c35-5875-4324-8bce-f008c682ab10,4
EIYE JERRYS (NIGERIA) LIMITED,"8, Alade Avenue, Ikeja, Lagos",3.34744000434876,6.60510587692261,faf62a71-3749-4d46-8075-28f6b2218a3d,3
TEMPLE TELECOMMUNICATIONS LTD,"115,Adeniyi Jone Avenue, Lagos, Ogun 23401",3.34412598609924,6.60965490341187,e2113547-f915-4547-975c-5d9f3522503f,3
KANFE OLUWANISOLA & COMPANY LIMITED,"2, Lekan Solanke Close, Lagos, Ogun",3.34940004348755,6.6108889579773,9a46ff49-6448-4ba3-a31a-124b5c33e39e,6
NIGERCHIN ELECTRICAL DEVELOPMENT COMPANY,"Plot 1 Ayodele Diyan Road, Lagos, Ogun",3.38690495491028,6.6054801940918,e3c4dbe0-d304-4942-88da-74b44d5e5762,3
ESE-TECH NIGERIA LIMITED,"18, Alhaji Kosoko Street, Lagos, Ogun 100213",3.36910510063171,6.64452981948853,caac2b9e-503c-45c1-9f45-ed96504783d3,1
SULECTRICS ENGINEERING LIMITED,"No.9 Solomon Avenue, Lagos, Ogun",3.37686896324158,6.6344780921936,59214b7e-0324-4dd6-b525-60cf039f4ab7,3
POWEREX LTD,"Elephant Cement House Assbifi Road, Lagos, Ogun",3.35707497596741,6.61540508270264,966a5ce7-ae32-4541-b658-5450f3888c6e,5
Eoladele Designs & company Engineering/construction,"santos avenue, Lagos,23401, Lagos, Ogun",3.30611348152161,6.65349817276001,05111e0e-c006-4d20-a5b4-96c94410adec,7
Dawnlight electrical services,"112 Nureni Yusuf Rd, Alakuko 101232, Lagos, Nigeria, Lagos, Lagos State",3.2798764705658,6.67967796325684,5abc17a3-bc6a-43f0-9b90-f9587e1707e1,6
Accretive Technology,"154 Iju Ishaga Rd, Ifako Agege 101232, Lagos, Nigeria, Iju, Ogun State",3.30831599235535,6.68304586410523,93e02328-e27a-4249-8950-ece52695899a,8
INTERLINK,"50B, Oladipo Bateye Street, LAGOS, Lagos",3.31447792053223,6.64162492752075,c74c73f0-7ec9-468d-a237-0fb24ec8a6fb,9
Clarke Energy (Nigeria) Limited,"Joel Ogunnaike Street, Ikeja, Lagos State",3.31108403205872,6.61447811126709,fbfc97c1-48ca-49d7-93ce-71a96b8e3f33,4
MBH POWER & GAS LTD,"Opp. Boulos Nig Enterprise, No. 12, Acme Road, LAGOS, Lagos",3.34988212585449,6.62770509719849,33f545fb-3dd5-467a-a8be-5d209b03ebb1,6
LE CHRIS DEVINE ELECTRICAL NIGERIA LIMITED,"48, Victor Fagbemi, off Aboru - Abesan Link Brg, Street, Lagos, Nigeria, Lagos, Lagos State",3.28588342666626,6.62698936462402,7fae5580-da79-4a2f-90e8-33ee3d953069,4
Lowa Electrical&Engineering works.,"Along lasu iyanaiba way,igando Lagos., Lagos,+2348134794137, Lagos, Lagos",3.26255011558533,6.61420726776123,c542997a-d673-408b-9319-e529b46f7db4,8
Horeb High Endeavours Generator Services,"28, Olaniyi Street, Ladikai, Somolu, Lagos, Lagos, Ogun",3.30591011047363,6.67273378372192,343407ec-f05e-498b-92b2-bd120d267f7c,3
SOLAR ENERGY AND POWER TRANSFORMERS NIGERIA LIMITED,"Igboko-Nla, Pipeline Road, OGUN STATE",3.29640889167786,6.6427001953125,700c7e30-86b0-47db-9816-815c14bec416,3
ELTEM SUPPORT & SERVICES LIMITED,"Suite 310, Betta Building No 9-11, Coker Street, Lagos State, Lagos",3.30908894538879,6.6268482208252,9cf70fcc-f525-429b-8bd8-7db95b99efa2,1
K.C Kandy Enterprises,"1, Anuoluwapo Street, Ilasamaja, Lagos, Lagos, Ogun",3.31563997268677,6.62762689590454,45860867-2f89-4148-9fea-ba40430c811d,9
Distinctlink Electric Ltd,"8 Madorf Court, Agodogba Ave, Parkview Estate 101233, Lagos, Nigeria, Lagos, Lagos State 101233",3.43786644935608,6.45857000350952,9de74ec8-ac6c-43ea-b773-186be46c317f,7
Electrician,"Nigeria, Ibadan, Oyo 20002",3.896399974823,7.38780021667481,296052b3-64b0-4e69-affa-585dc6533d49,3
Excellent electrical engineering,"28, lolubank street,Anisere ipamesan,joju bus stop, Sango 112242, Ogun State, Nigeria, Sango Otta, Ogun State 112261",3.43892931938171,6.97885799407959,357d1978-de1f-4020-a2fa-d3df5bea9b3a,3
STEPHEN SPARK ELECTRICIAN,"Agbowo Shopping Complex, Ibadan, Oyo",3.91714596748352,7.3960747718811,40e33eda-64a9-43b7-b5e7-6e547ede8312,1
IBADAN ELECTRICITY DISTRIBUTION COMPANY (IBEDC) PLC,"Capital Bulding, 115 Ring Road, Ibadan, Oyo 200273",3.87104392051697,7.35961723327637,6b0905e3-e860-47d7-b7ce-0d175689573f,8
Nice Touch Dry Cleaners,"Lateef Jakande Road, Lagos, Ogun",3.35414290428162,6.63062381744385,d1557d41-81f4-4074-aea7-8abb49dbfcd3,6
Biskayne Cleaners,"2 Lateef Jakande Road, Lagos, Lagos State",3.35347652435303,6.62707424163818,6f8e99cc-6bcf-4a57-9590-53f6ab63f8ac,7
Clean N Classy,"116 Lagos Street, Lagos, Lagos State",3.33182716369629,6.62334251403809,dda9863e-de40-498c-94d2-12187edc532e,9
EXCELLENTOUCH LAUNDRY AND DRY CLEANING,"1 Folagoro Street, Shomolu, Lagos",3.35971903800964,6.63711166381836,dc6fe935-210f-43f4-94e3-dca81437397a,9
Tunisky Integrated Drycleaners,"4, Ijewere Street off Odogbolu Street, via Adetola Street, Aguda, Surulere, Lagos,234, Lagos, Lagos",3.33421039581299,6.62350988388062,a5aa516c-ed48-4656-a14b-0cda84983e04,6
Magson Dry Cleaners,"Adeniyi Jones Avenue, Lagos, Ogun",3.34567403793335,6.61324882507324,9b4db989-78a9-45a3-99f7-2699a26df97d,4
KE-TE LAUNDRY AND DRY CLEANING SERVICES,"20, Oluwakemi Street, Alapere, Lagos, Ogun",3.33422994613647,6.62360000610352,3f136afc-6180-432d-a2a2-00b2a9af1c1d,9
Henry Sweet Laundry & Dry Cleaner,"38 Sijuwola St, Ilasamaja 102214, Lagos, Nigeria, Lagos, Lagos State",3.32783579826355,6.63369798660278,2bf3d166-50db-4320-9f9c-4ca61cc1d555,5
Astra Cleaners LTD,"Lagos NG, 82 Allen Ave, Allen, Ikeja 100001, Nigeria, Lagos, Lagos State",3.35246658325195,6.60051441192627,9405af9b-a311-4453-997b-5ea4ff29a442,3
Apostolos,"28 Ayo Alabi Street, Oke-Ira, Ogba, Lagos,100215, Lagos, Ogun",3.33421039581299,6.62350988388062,fd34de54-fb72-4d19-9c15-691c350aeec7,3
Emanet Professional Drycleaners,"15B Ojodu Abiodun road, Ojodu Berger, Lagos, Lagos, Lagos",3.37000036239624,6.65164995193481,9bea2dec-ba99-411e-904e-aa27f41e4e6d,10
Branetips Laundry,"Ibukun Oluwa Street, Lagos, Lagos State",3.33688735961914,6.64144515991211,3229d74a-3428-49e7-86b9-2eb1b0d33c1e,1
Above Global Cleaning Service,"HEAD OFFICE : 4 IBIDO STREET, OKE - KOTO, TOTAL CAPITOL ROAD, AGEGE, LAGOS NIGERIA, Lagos, Lagos, Lagos",3.32359433174133,6.61548757553101,0ab91765-783c-4e79-9eab-fe9576d9c82d,5
Izode Laundry and dry cleaning services.,"1A Olubisi street off bishop hughes street, Ogba, Iju Ishaga Rd, Ifako-Ijaiye 100215, Lagos, Nigeria, Lagos, Lagos State",3.33404350280762,6.63899040222168,16661d70-ff2a-4afe-ba1c-741acf416dfa,10
COZIKS LAUNDRY AND DRY CLEANING SERVICES LIMITED,"No. 82 Yaya Abatan Street, Ogba, Lagos",3.336665391922,6.63602447509766,84c46615-4201-4f82-b218-11f1666a2895,1
Laundry and Dry Cleaning Consultant,"No 5 salvation street, Opebi Road, Ikeja Lagos, Lagos",3.3632071018219,6.59471797943115,5928cbda-60a6-4b87-b991-24a66910154d,6
PUREX KRYSTAL DRY CLEANING SERVICES,"17 B Abeokuta Street, Agege, Lagos",3.33137822151184,6.62210893630981,e4500089-332b-454f-b75d-493d0cb2aafb,2
JONATHANA A UNIQUE DRY CLEANING AND LAUNDRY SERVICES,"15 Ifelodun Street, Ado, Ekiti",3.33304166793823,6.61934423446655,15ef36f1-d81e-49cc-a290-25403f68242b,8
DECENTLY WEAR CLOTHING /DRY CLEANING HOME,"12 College-Road, Iju, Ondo",3.33437895774841,6.64397716522217,d1fd7570-35bf-4c20-870e-41e49aea3f5c,5
Beazyhands Drycleaners,"Dopemu, Lagos, Lagos, Lagos",3.31288623809814,6.6241340637207,4ca52045-9ff3-4cd3-a1cb-155034015cc5,1
Kleen Culture Drycleaners,"133,Iju Road, Lagos, Ogun",3.32317209243774,6.65033102035523,c8b5e61c-1afe-43ca-a84a-c42632fe94aa,5
Visadam Laundry and Dry Cleaning,"Diya Street, Lagos, Lagos",3.39163494110107,6.55226516723633,0afca021-2111-4925-8771-3085ce02478b,5
Spincity Dry Cleaners & Launderers,"48 Akerele St, Surulere 101241, Lagos, Nigeria, Lagos, Lagos State",3.40541291236877,6.548903465271,90fd669f-8397-4feb-8fce-f4e4d5310564,3
THE LAUNDRYMANN,"18 Akabueze St, Eti-Osa 106104, Lagos, Nigeria, Lagos, Lagos State",3.40559816360474,6.55188751220703,587477f3-46e6-4661-9f7d-cf09d5f45172,7
Pat Dry - Cleaning & Laundry Service & Barbing Saloon,"Ketu, Alapere, 35 Kazeem St, Kosofe, Lagos, Nigeria, Lagos, Lagos State",3.39681148529053,6.58812570571899,e9b7b1ce-bc76-476d-9ba4-5d18ac0af308,10
Clean Clutter Laundromat Drycleaning,"Agbaje, Lagos, Lagos",3.39379096031189,6.59350490570068,c65e046e-2650-45de-bfe3-397e84a06bbf,7
Clean Rite Dry Cleaning & Laundry Services,"Tiamiyu Olushile St, Kosofe 105102, Lagos, Nigeria, Lagos, Lagos State",3.37273406982422,6.56955909729004,afa16880-b32e-4008-8baf-afc270fedbc9,2
Topwash Home,"Akerele Street, Lagos, Lagos State",3.40533471107483,6.55036687850952,5d13ad67-88fa-4e3d-bcaf-3b008f2665a5,1
MasterCare Laundry & Drycleaning,"95, Ogudu Road, Ogudu, Lagos,23401, Lagos, Lagos",3.38496923446655,6.58158779144287,07eafdca-20e6-4334-a1f2-b8add861b8f2,2
Clean Ace,"Ogudu Road 149, Lagos, Lagos State 100242",3.39334583282471,6.57443714141846,dc9eaaa9-dd1f-426d-b777-7d237dc4dbe7,10
WQ Dry Cleaning,"40 Diya St, Gbagada 100242, Lagos, Nigeria, Lagos, Lagos State",3.38879060745239,6.55537080764771,eb281776-1706-4e85-91cd-18c8c986d6d2,6
Clean Care Dry Cleaners,"Okesuna Busstop, 17 Oluwalogbon St, Somolu 102216, Lagos, Nigeria, Lagos, Lagos State",3.37802410125732,6.53572750091553,68143b69-853b-4b70-bbc4-10478f50356a,6
Clothesline drycleaners,"9 akanni sowunmi st. mafoluku, Lagos, Lagos State 234",3.38321328163147,6.53854608535767,80a9aaef-8df6-4a8b-a2de-daa9d2cb4925,2
WhiteIce Laundry and dry cleaning,"1 Thomas Laniyan St, Anthony 105102, Lagos, Nigeria, Lagos, Lagos State",3.36839056015015,6.56369352340698,fc222d8f-243d-400a-b50c-937ed0e18523,6
LAUNDROBOT LAUNDRY AND DRY CLEANING SERVICES,"Cmd Road, Shangisha",3.38705587387085,6.59881687164307,b028b62f-a382-4b84-9c78-f8da208bfdb5,4
Citylight Dry Cleaners,"14 Bode Thomas St, Surulere, Lagos 101241, Lagos, Nigeria, Lagos, Lagos State",3.38374876976013,6.5352053642273,63c20812-ae34-446f-8417-e6f1f90f17e8,9
AMAZING LAUNDRY AND DRY CLEANING SERVICES,"Sovs Plaza Adewale Street, Adewale, Lagos",3.38379454612732,6.54126882553101,8888f465-9c1f-4acc-a588-44c1d217041a,10
Doctor Laundry and Dry Cleaning service,"15,Obanikoro Street Lagos., Lagos,01, Lagos, Lagos",3.37653207778931,6.53514337539673,c55a6238-21e6-4a99-90ea-4444bae5045f,5
Teeflourish Laundry and Dry Cleanining Services,"1,Wahab Odewale drive, Baruwa Inside, Ipaja, Lagos, Lagos,234, Lagos, Lagos",3.39469504356384,6.53149175643921,ef511f5e-dc04-4cd7-bf51-e41bf6f1d85f,7
Dryclean4u,"91, St Finbarrs Road, Akoka, Lagos, Lagos, Lagos",3.38598203659058,6.52280616760254,8eabb031-6a28-4da1-818c-43c820188fe7,1
PYRAMID LAUNDRY & DRY CLEANING SERVICES,"17 ANUOLUWAPO STREET ORILOWO, Ejigbo, Lagos 100264, Nigeria, Lagos, Lagos State",3.37698340415955,6.53089475631714,056b3675-d914-4659-92f7-3448999c9081,8
"Skywhite Drycleaners, Laundry and Cleaning Services","2 Ogabi Street, Abule Ijesha Rd, Yaba 100001, Lagos, Nigeria, Lagos, Lagos State",3.37867522239685,6.52351760864258,bbbd1020-4586-4fc3-86ad-43c5ab5c53b4,2
FastWash Laundromat,"12, Abudu street, off University Rd, Yaba 101241, Lagos, Nigeria, Lagos, Lagos State",3.38982605934143,6.51828622817993,1ef1e86c-5460-49c9-b6a2-ab0889e2c1c7,10
A & I Laundry & Drycleaning Limited,"228, Herbert Maculay Way, Lagos",3.37834692001343,6.50898838043213,11166bf9-c64f-42a7-af7d-12bd2518e929,9
Paragon Drycleaners,"91, St Finbars College Rd, Akoka, Yaba, Lagos, Nigeria, Lagos, Lagos State",3.38451600074768,6.52263116836548,8ad799c4-3ba8-449e-8bee-4b32d05c761b,7
Joyclean Laundry and Dry Cleaning Services,"10 Tayo Bello Ave, Agric 104101, Ikorodu, Nigeria, Lagos, Lagos State",3.36953949928284,6.52115345001221,cc7fb9f4-5255-4e41-b77e-3daba42cf5b9,9
HAWLEY'S LAUNDRY AND DRY CLEANING SERVICES,"Joseph Harrison Street, Onike, Lagos",3.3881311416626,6.50444316864014,fc4f607d-407d-4668-abf0-115c35520db9,9
Pillar's Drycleaners Services,"6 ADEBISI AWOSHOGA STREET,OPP. ONIWAYA HIGH SCHOOL, CEMENT BUS STOP CEMENT, AGEGE, Agege,1, Lagos, Ogun",3.38141942024231,6.5006422996521,00f805c8-58d9-4828-94c2-99d89c95016b,8
SHINE WASH DRY CLEANER'S ENTERPRISES,"Asubiaro Street, LAGOS, Lagos",3.37558674812317,6.52705430984497,cb43ca8d-036a-4f19-9a04-9b4c71a71c70,7
Lynx Laundromat,"37 Iwaya Rd, Iwaya 100213, Lagos, Nigeria, Lagos, Lagos State",3.38921737670898,6.50169277191162,94dc66f5-fcfc-4ed4-984e-1a19dea5dc0b,1
Aduragbemi international dry cleaning.,"Private Address in Lagos, Lagos State",3.38382530212402,6.48803377151489,15860237-488a-47c7-8df0-ea484ff1f489,7
H & M LAUNDRY & DRY-CLEANING SERVICES,"Mojoyinola St, Bariga 100242, Lagos, Nigeria, Lagos, Lagos State",3.38848400115967,6.49014616012573,6c329e0e-5c6e-4eb7-a8a9-0275e084b6b6,5
Snowyclean Laundromat,"31 Rd, Festac Town 102102, Lagos, Nigeria, Lagos, Lagos State",3.36704397201538,6.50901746749878,788cffd4-3a31-406c-af9a-f8ac4ce8af47,6
MIGHTY ADENUGA LAUNDRY & DRY CLEANING SERVICES,"Market Street, Shomolu, Lagos",3.37489700317383,6.53374624252319,6a00b15a-3feb-4b1f-a3a3-0e57822311c5,9
TEXTILE REVIVE LAUNDRY & DRY-CLEANING SERVICES,"44 Bajulaye Road, Shomolu, Lagos",3.37215828895569,6.5251898765564,2b3c1df5-1868-499c-8e87-6b90e82ebe40,8
Wasobia cleaning services,"68 wharf road ikorodu ikorodu, 306 Borno Way, Alagomeji-Yaba, Lagos, Nigeria, Lagos, Lagos State",3.37575912475586,6.5020866394043,1abae83b-14d3-41ac-b59e-8f18af1f2e78,5
Clothexpert laundry and drycleaning services,"109 Awolowo Rd, Ikoyi 101233, Lagos, Nigeria, Lagos, Lagos State",3.37231183052063,6.49541711807251,7ea19f3c-4a93-4376-b72d-9817d1099793,6
WHITE MAGIKWASH LAUNDRY,"23 barikisu iyede, onike, Yaba 101212, Lagos, Nigeria, Lagos, Lagos State",3.36834287643433,6.51112699508667,14bfca6f-f80d-4d37-bc96-787cd179eab8,7
Clean Rite,"14 Lanre Awolokun St, Bariga 102216, Lagos, Nigeria, Lagos, Lagos State",3.38311719894409,6.54733991622925,2f22e805-214f-4300-9064-0054d7253e67,10
Seal Dry Cleaner,"Shipeolu Street, Lagos, Lagos",3.36847996711731,6.53625202178955,1d78b5fd-d33d-4ad2-8d46-e69ac0cd40cd,6
Stylish laundromat ltd,"Plot 2120 Akin Mateola St, Amuwo Odofin Estate 102102, Lagos, Nigeria, Lagos, Lagos State",3.38310813903809,6.48774814605713,7c957005-7dfa-43dd-9f1c-153f6973cc7b,2
Changers Dry Cleaners,"261 muritala mohamed way alagomeji yaba, Yaba 100001, Lagos, Nigeria, Lagos, Lagos State",3.3817834854126,6.49078226089478,94f1016f-789b-40e6-b47f-0851476389dd,5
Kleenwash laundry and Dry cleaning,"30 Iletunmi St, behind Stadium Hotel, Surulere, Lagos 101241, Lagos, Nigeria, Lagos, Lagos State",3.36596584320068,6.50269937515259,64dad868-ae6c-4d07-a9e6-b65d076e2afd,10
Markleen Dry Cleaners & Launderers,"9 Ishaga Rd, Surulere 101241, Lagos, Nigeria, Lagos, Lagos State",3.35794734954834,6.51345109939575,701f54dd-8f39-465b-82df-0dfccd965948,6
Topiyke laundry,"local government, 9B Badaru St, Eti-Osa 106104, Lagos, Nigeria, Lagos, Lagos State",3.34977960586548,6.50511932373047,5c4a1251-5cfa-4065-a017-db784d486b95,4
Maven Clean,"62 Ahmadu Bello Rd, Ebute Metta 101245, Lagos, Nigeria, Lagos, Lagos State",3.37299180030823,6.49139261245728,9337d9ec-1816-4a0e-bf76-72b209b6d0b1,9
Spincity Drycleaners,"Akerele Road, Lagos, Lagos State",3.3550329208374,6.50507402420044,ffa24db3-70fa-439d-8c35-7b7fda659cd1,6
Perfect Wash Dry Cleaning and Laundry Services,"#38 Jebba St, Ebute Metta 900001, Lagos, Nigeria, Lagos, Lagos State",3.38741517066956,6.48546314239502,84eac05d-7d58-41d7-915c-9bbce861718c,10
CLEAN ANGELS DRY CLEANING,"10 Bola Shadipe Street, Bola",3.38867402076721,6.48159837722778,72784e10-ef56-407c-a52a-32ea518289ca,3
Mega Wash Dry Cleaning,"Adeniran Ogunsanya Street, Lagos, Lagos",3.35757303237915,6.49489688873291,01b49863-12e9-4d46-9b81-6bb4f53d2216,2
MeeCare,"42 Falolu Rd, Surulere 100001, Lagos, Nigeria, Lagos, Lagos State",3.35411977767944,6.50874757766724,2e3e7fc7-3080-44bf-bfc6-ba63f04fe0e0,3
Tbs Laundry Services,"House 7 Adedeji Street, Itire,, Suru Lere, Lagos, Lagos",3.33487987518311,6.5093846321106,5e88439a-1ade-4996-bf0e-69b059a25d74,8
"TheWash Depot Laundromat, Laundry & Dry Cleaning","17b Imam Dauda Street, Off Eric Moore Rd, Surulere, Lagos, Nigeria, Lagos, Lagos State",3.35102438926697,6.48188638687134,62dd3135-45c3-4a45-8a46-f3f347875530,1
HALAMCY DRY CLEANERS,"No. 17 Bal Ogun Alanamu Street, Ilorin, Kwara",3.36113929748535,6.49417448043823,e81a83d1-ca60-4370-9065-3f8b624efdbc,2
ADROLLY LAUNDRY AND DRY CLEANING SERVICES,"Aiyetoro Street, Aiyetoro, Lagos",3.34415888786316,6.49218702316284,1df9d311-1264-4880-bdf9-87e31cbdf840,10
Happy Smart Drycleaning & Laundry Services,"11, Bode Thomas Street, Off Johnson Bus Stop Surulere Local Government Surulere, Bode Thomas St, Alaka 100001, Lagos, Nigeria, Lagos, Lagos State",3.35929584503174,6.48895835876465,03d3457e-8759-4e51-a29e-2b9449cddb2b,5
Playright Laundromat,"14,ilorin street surulere lagos, Lagos, Lagos State +23401",3.34914445877075,6.49619340896606,c7b3ef7e-3f45-4f17-bd6c-9cc1dd6f6239,7
The Laundry Box,"19 Bode Thomas St, Surulere, Lagos, Nigeria, Lagos, Lagos State",3.34962010383606,6.48888111114502,5535ba85-0374-4c2f-8fb4-64540b64a227,4
LAVIDA'S WASH LAUNDRY AND DRY CLEANING SERVICES,"30 Karimu Street, Ojuelegba, Lagos",3.35936427116394,6.50781011581421,d68e4419-61db-485c-b68f-b9a5ba014bfa,3
Dry Cleaning Supplies Nigeria,"By Zenith Bank, No 23 Lawanson Rd, Surulere 101241, Lagos, Nigeria, Lagos, Lagos State",3.35091876983643,6.5127215385437,c6f76572-7768-45c2-9554-5d6b10ee27a5,3
Wq Dry Cleaning,"33,Ire Akari Estate Road, Lagos, Lagos",3.32225894927979,6.5257511138916,8b24f88a-6c5d-4b9b-9f36-06a2f1d95b5f,7
Omega Wash (dry-Cleaning and Laundry Services),"4, Okeho Street off Ire-Akari Estate Road, Isolo, Lagos,234, Lagos, Lagos",3.32696485519409,6.52754831314087,25e5fd6f-aa85-4511-9a83-6d1dadab6dd3,5
Laundry and dry cleaning services,"12 Panada St, Isolo 102214, Lagos, Nigeria, Lagos, Lagos State",3.32171010971069,6.52928781509399,5502f000-9653-4ccc-a3b7-3747df0bb7f8,10
G & A Dry Cleaning Services,"Igbo Efon, Lekki, 8 Baale St, Lekki, Nigeria, Lagos, Lagos State",3.32475757598877,6.52651929855347,b728b2c1-91da-458f-a8c2-675d24684af7,9
JCLEAN LAUNDRY&DRY CLEANING SERVICE,"Agility Estate Mile 12, Aina Road, Ketu",3.32280278205872,6.526526927948,5214c340-6e5d-4519-aa7c-c5a1b75b2e07,9
GUSTAVO LAUNDRY & DRY CLEANING SERVICES,"Okanlawon Street, Mafoluku",3.31852006912231,6.51150512695313,49f4939d-612e-4346-9dce-c447a4cede7a,8
ANU-OLUWAPO LAUNDRY AND DRY CLEANING,"10 Olufinmilayo Agboola Street, Tanke",3.3248016834259,6.51188802719116,afcf7e15-6b9c-46de-9189-68874f3ce534,2
Clean Image Laundry Service,"Kolawole Shonibare St, Isolo 102214, Lagos, Nigeria, Lagos, Lagos State",3.32652521133423,6.54560136795044,9a76196d-29a8-4021-baa1-62bed72e45bf,7
Embassy Laundry And Dry Cleaning Services,"121 Okota Rd, opp. UBA Plc, Ilasamaja 100263, Lagos, Nigeria, Lagos, Lagos State +234",3.32205104827881,6.51077699661255,e41d2d42-2718-4fdc-ab8d-36a479ae45a1,1
Laundry Hub,"Peter Agha St, Isolo 102214, Lagos, Nigeria, Lagos, Lagos State",3.31698536872864,6.53487682342529,3d1589e6-dc7e-4bcb-8b03-e522ca220d84,2
Royal Dry cleaning services,"2 Joel dunmade Street, Off Adefimihan St, Surulere 103251, Lagos, Nigeria, Lagos, Lagos State +234",3.34017205238342,6.51560878753662,020e8580-7aa2-4af3-b752-c29a0e82c469,6
Hephzibah Laundry Services,"Off Lawanson Road, 55 Abayomi St, Surulere, Lagos, Nigeria, Lagos, Lagos State",3.34305691719055,6.51172876358032,9749d649-d071-41cd-ba6d-1552d554e5e0,5
CleanAce Drycleaners & Launderers,"Plot 130, Amuwo Odofin, Festac Access Rd, Festac Town, Lagos, Nigeria, Lagos, Lagos State",3.30313229560852,6.48541879653931,6e3d4bea-8195-4d2b-a7f6-b4628b122379,7
HB SERVICES- LAUNDRY & DRY CLEANING,"72 Kajola Road, Obawole, Lagos",3.36286187171936,6.46886873245239,23088cfc-8e91-44ba-a2a0-ef5b4919cdcd,4
GHC Drycleaners,"103 Muyibi street, Olodi Apapa, Lagos., Lagos, Lagos, Lagos",3.33876156806946,6.44834995269775,9b5309cc-21ed-42cc-a60d-691fd0a8c14c,5
Egc Dry Cleaners,"7,Adele Road, Lagos, Lagos",3.36994504928589,6.44053411483765,f3af8bcf-146e-4d1f-9624-55b773419dbd,10
F & M ADROIT LAUNDRY AND DRYING CLEANING,"Megba Street, LAGOS, Lagos",3.33489942550659,6.45531892776489,8d2258e8-d720-4325-a87b-060380e47eda,5
CLEAN OUTFIT LAUNDRY AND DRY CLEANING SERVICES,"46 Sanusi Street, Sanusi",3.34565091133118,6.47695255279541,f47f0601-7bce-4cc0-be5a-5eefb7c8e8f3,2
Weezley Classic Barbing Saloon and Dry-Cleaning Services.,"Head Office: No 2 Okanlami Oguntola Street Inside Agbele Grammer Skool After Baba Olomi House Ikorodu Lagos, Branch Office: No 3 Poro Imope Village cele bus-stop Along Ijede Road Ikorodu Lagos., Lagos, Nigeria Ikorodu, Lagos, Lagos",3.39582991600037,6.45306015014648,6cac467f-b803-4f7c-951e-68795f46eb8f,10
Excelsior Laundry & Property Solution Services,"3, Gov. Raji Fashola road, Diversion bus-stop, Odogbonle-Noforija, Eredo-Epe, Lagos state",3.39879941940308,6.4558310508728,ead28dc6-2c5b-41d2-8afd-bb9dcd03dcbe,1
WASH A WASH Laundry Service,"29, Beecroft Street, Lagos - Island, Lagos,234, Lagos, Lagos",3.40093874931335,6.45251131057739,7d16730d-70d6-4eab-8e23-43797f99f994,6
GROSSVENOR LAUNDRY AND DRY CLEANERS,"18 Ajibade Street, Ibadan, Oyo",3.39582920074463,6.45300769805908,3e4c4350-785e-4d5f-ba9f-4c222cb7d800,10
Scott Laundry & Dry Cleaning Service,"Peace Estate, House 40,4th Avenue, Nosiru Baruwa Cl, Ipaja 100278, Lagos, Nigeria, Lagos, Lagos State",3.44621324539185,6.4672064781189,abf25574-1f34-483b-a7c6-d12234410058,4
CleanAce Drycleaners & Launderers,"15 Wole Olateju Cres, Lekki Phase 1 106104, Lagos, Nigeria, Lagos, Lagos State",3.45747900009155,6.44827079772949,f17253fa-ffee-408f-abfe-6f6ef64c942c,1
Alpha Laundry and Dry Cleaners,"11a Wole Ariyo Street, Off Admiralty Way, Lekki Phase 1, Lagos, Nigeria, Lagos, Lagos State",3.45878839492798,6.44203948974609,656a499a-b6d0-411f-91ad-e98e0d5b6d10,9
Astra Cleaners LTD,"29 Fola Osibo Rd, Lekki Phase I 105102, Lekki, Lagos, Nigeria, Lagos, Lagos State",3.46783900260925,6.44264316558838,ec2ee8f5-9425-48a3-9aa8-a8f687c3ffc3,1
C&I Laundry and Dry Cleaning,"39 Onikoyi Rd, Ikoyi 101233, Lagos, Nigeria, Lagos, Lagos State",3.44768905639648,6.45580720901489,8ce037e5-25e3-446d-8246-bb4c2ad5fb0a,4
Garment Care,"Otunba Adedoyin Ogungbe Street, Lagos, Lagos",3.45737099647522,6.43494701385498,1809cf22-c920-4a0b-b2da-b966a88cd015,6
Skip Your Laundry,"17J Admiral Ayinla Way, Freedom Way, Lekki Phase 1, Lagos, Nigeria, Lagos, Lagos State 101222",3.4814727306366,6.44103002548218,53ea3f59-1773-4a56-ae17-c0984a204ccb,8
Kendux Laundry and Dry Cleaning Service,"44 Ikate Elegushi Rd, Ikate Elegushi, Lekki 101245, Lagos, Nigeria, Lagos, Lagos State",3.48587107658386,6.43361139297485,c3689e04-a38b-4af5-82db-68184518877b,9
RockWater DryCleaning + Laundromat,"37b Freedom Way, Lekki Phase 1, Lagos, Nigeria, Lagos, Lagos State",3.48166060447693,6.43741178512573,b1e00088-f0c0-45d6-bfa7-dabb151438a9,2
PREMIER LAUNDRY AND DRY CLEANING SERVICES,"Westend Estate 2A House 42, Road 4, Lekki Country Homes, Lekki",3.47633099555969,6.45040225982666,f61db796-b533-428e-9a9d-645408a1e205,1
WASHSPOT LAUNDRY AND DRY CLEANING,"House 8 Rosbank Court, Lekki, Lagos",3.46880030632019,6.43109798431397,85b87aff-1c61-404c-95ca-74f085df391b,3
SatorialÃ© Leisure and Tourism Limited,"31 Admiralty Way, Lekki Phase 1 106104, Lagos, Nigeria, Lagos, Lagos State",3.45593643188477,6.43687582015991,3034720a-d066-4a52-9b85-aacc0ab87af3,6
Snowflakes Drycleaners,"Ajose Adeogun St, Victoria Island, Lagos 106104, Lagos, Nigeria, Lagos, Lagos State",3.4343855381012,6.43067407608032,093ce6c1-8113-4af9-b2b2-c6da7be5ffa1,9
Dryclean4U Limited,"28B Admiralty Wy, Lekki Phase 1, Lekki 106104, Lagos, Nigeria, Lagos, Lagos State",3.48063039779663,6.44790458679199,f67d056e-904e-4b61-ad30-88d853d4205d,5
B&T Laundry Dry Cleaning,"5-13 Adeola Odusanya Cl, Alagbado 102213, Lagos, Nigeria, Lagos, Lagos State",3.41997385025024,6.4327883720398,13770490-3d8b-4ba8-9587-9f52c1fbe2b8,5
Laundry48 Laundromat,"Sunmart Mall, 1 Meadow Hall Way, Eti-Osa 101222, Lekki, Nigeria, Lagos, Lagos State",3.48858380317688,6.43072414398193,8e411d06-f2a7-435e-bd7e-dfe84e88ba43,10
Periti,"26 Karimu Kotun Street, Lagos, Lagos State",3.42561149597168,6.43040323257446,b373e645-65f6-4471-ac50-08573a209a24,6
"Garment Care Limited - Dominion Plaza, Lekki","Level 1, Suite 1B, Igbo-Efon Bus Stop, Dominion Plaza, Along Lekki - Epe Expy, Maroko 106104, Lagos, Nigeria, Lagos, Lagos State",3.45700192451477,6.43462896347046,3faf9d89-4372-49dc-96c9-5632d0f2fb45,2
Laundry DNA,"28, Kusenla Road, Ikate Elegushi Water Front Road, 4th Roundabout, Lekki., Lagos,23401, Lagos, Lagos",3.49077796936035,6.43894910812378,ac1209f9-03de-42e0-b51d-0ff3b9a78aa1,2
The Washroom Laundry & Dry Cleaning,"Km 11 Lekki - Epe Expy, Ikate-Elegushi 105102, Lekki, Lagos, Nigeria, Lagos, Lagos State",3.49238586425781,6.43434858322144,4cb9ab2b-a82d-4c62-bfe2-83face32c749,10
PAYLESS LAUNDRY & DRY CLEANING SERVICES LTD,"No. 1 Lekki Phase 1, Lekki, Lagos",3.49946880340576,6.43445539474487,b7679f23-92aa-40e4-92af-d80f3187fe18,2
Laundry Direct Drycleaners,"2 Ganiu Eletu Way Osapa London Behinde Shoprite Lekki, Lagos, Nigeria, Lagos, Lagos State",3.50966691970825,6.43849182128906,617d4922-00a1-4ff1-8cfb-97f7fd9be24e,8
Alpha Laundry and Dry Cleaners,"No 6 Nonso-Chukwucheben Street, Atlantic View Estate, Alpha Beach, Igbon Efon Chevron, Lekki Lagos, Nigeria, Lagos, Lagos State",3.52190256118774,6.42539834976196,3e05acdb-fabd-4d18-bf82-3844e7daec88,5
MAGICWASH LAUNDRY,"3 aro ologolo road Lekki, Eti-Osa, Lagos 105102, Lagos, Nigeria, Lagos, Lagos State",3.5160973072052,6.43171834945679,9b136af4-f599-4e14-8bf0-37a56ecaea6d,6
Sapphire Laundry,"28 Agungi Ajiran Rd, Lekki Penninsula II 106104, Lekki, Nigeria, Lagos, Lagos State",3.51646852493286,6.44418239593506,65b1af14-817d-4bc2-aeb2-e6b03bf3a886,1
KENDUX LAUNDRY & DRY CLEANING SERVICES,"Road 26 , Ikota Villa Estate, Lekki, Lagos",3.55618000030518,6.44991779327393,d7260b37-b39e-42ce-b48c-509988cee7d5,4
Laundry House Company Limited,"Goldcrest Plaza km 14, Lekki-Epe Expressway, Ajah Lagos, Lagos",3.54093027114868,6.44245958328247,9038e08e-daf5-4fad-addd-83a3e9cdadce,7
Richfred Laundry Care & Drycleaning Services,"Road 2, 34b ikota villa estate, Lekki - Epe Expy, beside the Mega, 105102, Lekki, Nigeria, Lagos, Lagos State",3.55296754837036,6.45043992996216,aeba3923-5123-46f4-8be6-215ecb3e5ab3,10
HNI Laundry and Dry-cleaning Services,"Lagos, Lagos, Ogun",3.57540011405945,6.48450994491577,a6d9d6e9-95fa-4a40-9f29-f962224e0b86,5
U-Wash Laundromat,"Ajah-Lekki Expressway, Lagos Nigeria, Lagos, Lagos, Lagos",3.57112574577332,6.46901845932007,1f4505ae-737c-4983-9410-e56a79b73206,1
Laundry Lord Dry Cleaners,"No 14 abioye akano close off asajon street sangotedo, Lekki - Epe Expy, 100242, Eti osa, Nigeria, Sangotedo, Lagos State",3.62104392051697,6.47436141967773,4c098c5b-1bcb-408c-914b-5f273914e986,4
Laundroshack,"Enyo filling station, No 2 Addo Rd, Aja 106104, Lagos, Nigeria, Lagos, Lagos State",3.57825326919556,6.48722124099731,8637f4a3-0478-4410-bcd4-455327ae4dab,8
Neignbournood Washman Dry Cleaners,"4 Eti Osa Shopping Complex Victory Estate Bus Stop, Langbasa Rd, opp. Catholic Church, Aja, Lagos, Nigeria, Lagos, Lagos State",3.58957457542419,6.50541210174561,14c59129-1bf4-4662-99e7-3377d919d2e3,9
PRESTIGE NEIGHBOURHOOD & DRY CLEANING SERVICES,"Lotto Shopping Mall Lekki -Epe Expressway, Epe, Lagos",3.65723562240601,6.46745109558106,18c3437c-4688-4e84-b7bc-453c857c6a38,5
Habobo's Launderette and drycleaing services,"88, Obafemi Awolowo way, Bayeku road, Igbogbo Igbogbo/Bayeku, 104102, Ikorodu, Nigeria, Igbogbo, Lagos State",3.52346777915955,6.58553266525269,916a4852-d30b-4312-852f-abf397643b9b,6
Digital World,"27 Ikorodu Rd, Ikorodu, Lagos State",3.50252318382263,6.63067817687988,389086cf-8d31-46b8-9904-98210f61a5c3,5
Washaman drycleaners,"20a Sinari Daranijo St, Victoria Island 106104, Lagos, Nigeria, Lagos, Lagos State",3.43152189254761,6.4283652305603,82acf916-0c86-4e15-9d92-5bbde6a9bc53,5
Nathans Superior Dry-Cleaning & Laundry,"56 Adetokunbo Ademola Street, Victoria Island, Lagos,101241, Lagos, Lagos",3.430668592453,6.43194627761841,5c16fab1-9e08-460e-b5e6-20f6efef0fe5,8
KENIMA LAUNDRY AND DRY CLEANING SERVICE LTD,"White House Amusa Alalapa Street, Amusa, Lagos",3.50179028511047,6.62100648880005,d15d3839-fb9b-49ba-bc12-2d3f9751a4a5,9
So Clean laundary and dry cleaning services,"Ladeinde,Igbe, 10 Faith Ave, Igbogbo 104101, Ikorodu, Lagos, Nigeria, Asese, Ogun State",3.41441702842712,6.77606916427612,a4f0396d-e4da-4542-adaf-398deba9ce58,4
Cleanace DryCleaners,"Shopping Strip on Ikeja Way, Off Badagry St, Dolphin Estate 101222, Ikoyi, Lagos, Nigeria, Lagos, Lagos State",3.36107325553894,6.57844114303589,be5148e5-0c73-477f-bdea-5514cb703b69,7
BEST CLOTHES CARE LAUNDRY AND DRY CLEANING SERVICES,"Ogunlana Street, Egbeda, Lagos",3.3846447467804,6.60209608078003,66612728-9511-465e-b3e1-524fe3c96c4b,7
Joyclean Laundry Service,"19 Aladelola Street, Ikosi Ketu 105102, Lagos, Nigeria, Lagos, Lagos State",3.38054966926575,6.60372352600098,0253a91c-ebbf-4307-9e0e-92576db49a42,8
Laundry Box,"90A, Opebi Road, Opebi, Ikeja, Lagos",3.35662031173706,6.59458255767822,8ec8cf82-7185-42e5-8a91-2be1edbcc755,8
Sharonklean Dry Cleaners Limited,"No. 4, Ayinde sanni street, off Oregun, Kudirat Abiola Way, Oregun, Ikeja, Nigeria, Lagos, Lagos State",3.36342096328735,6.60181903839111,ac3a182f-e410-4439-806c-7b195b79e643,10
SE Cleaners,"Igbosere Road, Lagos, Lagos State",3.40458369255066,6.44920635223389,b5f715ac-6d1e-4d7b-90af-d732c4825dab,9
Abundance Drycleaners Limited,"19 Keffi St, Ikoyi 106104, Lagos, Nigeria, Lagos, Lagos State 102241",3.41504001617432,6.44911479949951,f3a61d7b-0b3d-4842-add1-55be309126a1,4
DESMOND-TITTO LIMITED,"Shop 8 Olosun Shoping Complex, Gerewu Road, Off Yebumot Round About, Adewole Estate, Ikotun,0234, Lagos, Lagos",3.40458750724793,6.45481729507446,43f5d378-fc30-4f1f-af0d-38bd9e664420,7
KAZEEM TEMIDIRE AUTO MECHANIC,"Babs Animashaun Road, LAGOS, Lagos",3.34856700897217,6.48258876800537,97316e9f-7a63-4b73-8818-547d721be9fb,5
Janet Mechanic Workshop,"5 Thomas St, Ebute Metta 101245, Lagos, Nigeria, Oyingbo, Lagos State",3.39582920074463,6.45300769805908,4e4c2612-d130-4efe-b53d-1cdee3ddbcec,8
OLASUNKANMI AUTO- MECHANIC WORKSHOP,"Abayomi Street, Lawanson, Lagos",3.34709644317627,6.50755596160889,a250297a-63ae-4243-be0f-7dffd2eff91d,7
Motor mechanic,"91, Ajegunle, Lagos, Nigeria, Lagos, Lagos State",3.3497006893158,6.51956939697266,ceb6d0b9-8926-4dc4-9527-7f5927bbd515,8
THE MECHANIC AUTO CARE,"Elyon Building Plot 85, Iju Ishaga Road, Ifako, Lagos",3.3562343120575,6.5144534111023,764174d6-bcaa-4e23-97e5-ecd9284b1da3,3
GANIYU YAKUB AUTO MECHANIC SHOP,"No. 27 Wright Street, Yaba, Lagos",3.38003063201904,6.49028587341309,c6727aa7-344b-45b0-9fa2-51fc2ceb01a1,1
Mosco Fixers-Automobile Mechanic,"5, Ayenuyo close iyana ejigbo Isolo, 100003, Lagos, Nigeria, Lagos, Lagos State",3.34244680404663,6.53106927871704,04568ec4-1ecd-4a07-a374-d8b730c02a22,6
ISMO AUTOMOBILE MOTOR MECHANIC ENGINEERING WORKS LTD,"Plot 19, Mechanic Village Jimoh Odutola Street, LAGOS, Lagos 101283",3.35542273521423,6.48057842254639,6d6d1edd-3a3d-4a77-aff4-4b75f07ce2ed,1
Usher auto mechanic ltd,"9:Christ avenue off power line road ikola ipaja command secodary school road barrack bus stop lagos., Lagos, Nigeria Post to usher auto mechanic ltd, Lagos, Lagos",3.39582920074463,6.45300769805908,8092bc4a-ad85-4750-9ff3-d2351af88a4c,4
Orilagbeke Auto Mobile Mechanic,"Phase 2, Off Shobukola, 1 Koleade St, Ikotun, Lagos, Nigeria, Lagos, Lagos State",3.38322424888611,6.55380296707153,fce18c6b-1ba5-4e34-a09c-d021f91eb92e,4
Goa Automobile Diagnosis | Automechanic | Mechanic in Lagos,"43 Oremeji St, Mushin 100254, Lagos, Nigeria, Lagos, Lagos State",3.36391687393188,6.55122900009155,024403c5-7f93-4f4a-b868-0a06d2327c84,1
MURAINA AUTO MECHANIC,"Oke Suna Street, LAGOS, Lagos",3.40459847450256,6.45091962814331,c61dac98-23a0-460a-9927-4d8e7328326e,1
REQUEST MECHANIC LTD,"13 Aderupoko Street, LAGOS, Lagos",3.39339733123779,6.50634431838989,62214992-24ad-4b97-8693-4649942114b1,9
Chibuike Volvo Mechanic in Lagos,"Ladipo Volvo Plaza, 15 Alh. Amusa St, Mushin 100254, Lagos, Nigeria, Mushin, Lagos State",3.34524035453796,6.53908586502075,6be79f1b-b22f-4432-a71a-d7a1e2635672,7
FARAK AUTOMOBILE MECHANIC,"Oregun Kosebinu Street, Oregun, Lagos",3.4285581111908,6.46281003952026,10c0d385-3efc-4ac7-93d7-0474bffcefb0,10
DANNYTEE MECHANIC ENGINEERING,"Adeniyi Street, Itire, Lagos",3.33427476882935,6.51528072357178,ec5534d4-405b-4c75-a941-b8cfbf78deab,9
Genais Auto Company..(Auto Mechanic Workshop),"54/56 Opebi Road, by Salvation Traffic Light, Opebi, Ikeja, Nigeria, Ikeja, Lagos State",3.3616259098053,6.58892440795898,0bf86c54-8e81-435c-85df-77c2b2dd9f90,7
RAJI-IDRIS AKINSOLA AUTO MECHANIC WORKS,"Murtala Muhammed Way, Murtala, Lagos",3.41977214813232,6.45222806930542,111582cf-0d91-43e1-8426-a3aa96ac79fa,2
Carmax Autocare Center,"Carmax Autocare Center, Plot A2 Billings Way, Lagos,23401, Lagos, Lagos",3.36855411529541,6.60255193710327,1d12226f-78c1-4327-9292-3a07d4a60b76,6
Hanzola Automobile Mechanic,"58 oremeji street ilasamaja mushin LAGOS nigeria, Lagos, Lagos, Lagos",3.34491491317749,6.53397512435913,b8714f0b-5d0d-4679-991b-9585c5cabc10,2
City Mechanic Service Center,"gate 2, ladipo oluwole street, off oba akran avenue,opp guinness, Nigeria, Ikeja, Lagos State",3.33570408821106,6.61465501785278,5a980ebf-8d74-4727-8a80-03ff0c6834ea,10
ROYAL GEM AUTO CARE NIGERIA LIMITED ( MECHANIC SERVICES ),"320 Ikorodu-Ososun Rd, Anthony 105102, Lagos, Nigeria, Lagos, Lagos State",3.36684918403626,6.56114435195923,a2a52c7b-a985-42cb-9d5b-7a83922afa40,8
KOLAPO AWE ELIAS MECHANIC SERVICES,"Kudirat Abiola Way, Oregun, Lagos",3.36506104469299,6.60007905960083,be7014cc-0e9e-49b2-bf18-83a56d1faf0c,4
Malo Auto Mechanic Workshop,"Orile Ilasan bus stop Beside World Oil Filling Station Oniru VI Lekki, Aja, Lagos, Nigeria, Lekki, Lagos State",3.49858617782593,6.43529176712036,b6ed0cb2-9ab8-4a8e-9f9e-3a4bbeab6f56,5
Lady Mechanic Initiative,"Lekki, Jakande Round About, 4 Lekki Beach Rd, Lagos, Nigeria, Lagos, Lagos State",3.50819611549377,6.43518114089966,515fc2b7-0ade-4cdf-9632-c5903ed4aa72,5
Lady Mechanic Initiative,"Abijo GRA, Commercial City, Lekki - Epe Expy, 106104, Lagos, Nigeria, Lagos, Lagos State",3.54370784759522,6.44651126861572,eccf1688-5fb0-40e0-9a92-b81ddeae1d38,4
Lady Mechanic Initiative,"4, Lekki Beach Road, Jakande Roundabout, Lekki",3.50798201560974,6.43629169464111,1d4312e4-3037-45ae-8278-6179f748d4d9,3
LONEWOLF MECHANICAL SERVICES,"Plot 5 , Lekki Epe Expressway, Km 49, Lekki, Lagos",3.51488280296326,6.43617391586304,bdd61fef-5d55-4474-91b9-8b4d46de8710,2
"MARCO AUTO SERVICES | Mercedes benz mechanic, Car tracking, Auto Elect & Mech Engrs, Bodywork & Painting, mercedes benz workshop, car diagnostic center, Mercedes Benz Diagnostic centre, Mercedes Benz Mechanics in Lagos, Lekki, VGC, Ikoyi, VI","KM 25 Lekki - Epe Expy, Aja 100001, Lagos, Nigeria, Lagos, Lagos State",3.5814642906189,6.46966552734375,3dc3daa4-6a10-4302-9683-2114971c35da,10
LADYBENZ AUTO MECHANIC LTD,"KM 41 Lekki Epe Express Way Abijo Gra, Lekki 105101",3.66790533065796,6.46555185317993,3edb87ab-9138-4e6c-a9f1-cf4778420aff,7
Mechanic On The Go | Auto Repair and Services,"Amara Olu St, Agidingbi 101233, Ikeja, Lagos, Nigeria, Lagos, Lagos State",3.35570669174194,6.62646245956421,bb25ebb7-3e4b-4458-ae4d-f2c25220584e,7
The Mechanic Place,"Ipaja Road, Lagos, Lagos State",3.31955218315125,6.62353420257568,23c135fa-759a-486e-bc55-4e2c8757d0bb,7
Ismailaâs Mechanic Workshop,"4 Oladiti Street, Onipanu, Lagos 102215, Lagos, Nigeria, Lagos, Lagos State",3.33864784240723,6.65351295471191,63ef9969-8b33-4912-ae7a-4e6e2f71cd36,2
Mechanic On the Go,"Ogba Road, Lagos, Lagos State",3.33411693572998,6.61767196655273,06df31d8-ab81-4fcd-a181-ca1cefe1520a,5
Bee Printing Mechanic Co.,"84 Bajulaiye Road, Lagos, Lagos",3.39109992980957,6.55913305282593,02352ab1-c4c6-4329-8e26-3e34823a1fe6,6
Deepwaters Offshore & Energy Consultants Limited,"Yad Prime Shopping Complex, 32, Addo Road, Ajah, Lekki-Ajah 105100",3.56783962249756,6.47476005554199,6022ea96-aa65-4bd8-b523-01923a601ae4,3
The Sex Mechanic,"MKO Abiola Crescent Ikeja, 100001, Lagos, Nigeria, Ikeja, Lagos State",3.35297250747681,6.59517288208008,e5c417d2-c4f2-4d5c-adc5-67448cc27419,7
AutoShop Limited,"Ivory Music House, IPM Avenue, Alausa. Ikeja, Lagos, Lagos State 23401",3.3548743724823,6.61573457717896,d4b20987-15bc-40e8-8f4c-53de7b8bba6e,2
ADE AUTO MECHANIC & SPARE PARTS DEALER,"Road B, Owode Ilesha Road Area, Zone 2, Adeleke, Osun",3.34249877929688,6.62450551986694,544470d6-2242-4b35-8471-fe451a49f359,2
BUKKY AUTOMOBILE MECHANIC NIGERIA ENTERPRISE,"Agagu Powerline, Power line",3.31674671173096,6.63449144363403,7d15fa81-d1a0-4afb-94a3-603e67ec385f,1
Adedoyin Motor Mechanical Works,"Mechanic Village, 1 Oba Ogunji Rd, Ijaiye 102212, Lagos, Nigeria, Lagos, Lagos State",3.33038973808289,6.62826776504517,2890e618-f11b-4b23-9276-2d3cd29571f5,7
Ibitoks Hospital,"Mechanic Village Road, Lagos, Ogun",3.29951596260071,6.63806295394898,81786b99-b0ca-4945-9905-d6edcc935761,7
Platinum Auto Spray And Oven Bake,"11b Oba Ogunji Mechanic Villa, Oba Ogunji Road, Ikeja,100218, Lagos, Ogun",3.32257676124573,6.62741327285767,c9bfe154-a8ec-408c-ab54-2facfa23f7a9,5
MY OGA MECHANIC DIGITAL PLATFORM,"Diamond Estate Road 16 A, Lasu Road, Lasu, Lagos",3.27593398094177,6.57707643508911,ebd9f463-b6bf-493e-8b37-6aa532dc66b7,8
JELILI AUTO SPECIALIST,"Plot 8 Mechanic Village, Ojota, LAGOS, Lagos",3.3757438659668,6.51541709899902,9015d4ec-e58d-486e-b3e5-994b7e171c17,7
Karokome Enterprises,"Local Government, 3 Amodu Tijani Cl, Victoria Island, Lagos 101251, Lagos, Nigeria, Lagos, Lagos State",3.42694973945618,6.4321780204773,f8154c02-6d11-41f2-9ac7-e4cebb04c9b7,5
Hydrogas Inspection Services LTD,"9 Calcutta Cres, Apapa Quays 102272, Lagos, Nigeria, Lagos, Lagos State",3.36539340019226,6.44043207168579,33df3891-4177-4de3-bfa7-896a9ae3c298,9
Ramon Welder,"Ijesha, Babatunde St, Lagos, Nigeria, Lagos, Lagos State",3.34002923965454,6.64096307754517,ca22f3ef-fa59-4489-a514-c1c48fcfea00,7
Femi Welder,"Lasu Bus Stop, Lagos - Badagry Lasu, Lagos, Nigeria, Lagos, Lagos State",3.27746915817261,6.57698059082031,a86cd56a-ea16-4cbe-9b09-13f3651ef3dd,5
Fela Aluminum and welding construction company,"170 Ipaja road Agege, LCDA 100001, Lagos, Nigeria, Agege, Lagos State",3.29775643348694,6.61406087875366,4402a422-aa0a-4797-ae48-1d649e02b2fa,7
GODS FAVIC WELDER,"66 Prince Ajibola Road, Ajibola, Ekiti",3.38304805755615,6.57070779800415,e4742327-f785-4665-831a-442dc8ece8b2,6
Oladeji Akanbi Welder Shop,"Ilasamaja, Oladosu Sanusi St, Lagos, Nigeria, Lagos, Lagos State",3.37630271911621,6.53197193145752,11bc25ad-6adf-4f3e-8efc-60ef307a22c5,9
professional welder,"Private Address in Lagos, Lagos",3.39580011367798,6.45310020446777,ad3f0e4b-cbe6-41de-80c6-5ad80208efdd,10
ASIKO WELDING CONSTRUCTION EKITI,"No. 1, Akeju Street, Oke Ila, Ekiti",3.37781524658203,6.54442119598389,8a15ef84-dbc7-4a51-a8db-cdf6c3bb68d1,7
Olumide Aluminum,"351 Ikotun - Idimu Road, Isheri Rd, Idimu, Lagos, Nigeria, Lagos, Lagos State",3.2741904258728,6.56259489059448,e8b683cd-27cf-4fa8-bebc-13b346e34a29,4
Abel Enterprise,"Oshodi, Agege Motor Rd, Lagos, Nigeria, Lagos, Lagos State",3.34731650352478,6.56645917892456,3b2a2e0f-972b-44f7-91fe-53a492ddf477,6
DONABLESS INVESTMENT COMPANY,"23 Agarawu Street Adeniji, LAGOS, Lagos",3.38919401168823,6.45767402648926,b978918e-2936-4541-8cdc-30544f76d439,9
MALEOH,"Suite C152, Ikota Shopping Complex, LAGOS",3.38527655601501,6.48870992660523,bc0d6b84-73e7-42e2-a99c-9058c1018822,10
SOLIHULLTZ ENERGIES LIMITED,"8 Davies Street, Lagos, Ogun",3.39695405960083,6.60088920593262,d798e36e-80fe-4390-bb52-82a701ca778a,6
DEEFORT ENT. INTER. LTD,"Ikeja Industrial Estate (Ogba Scheme), Lagos, Ogun 22506",3.36578011512756,6.60754919052124,61b9ed04-a3c2-4992-b768-bfc22d99134a,10
OJONLA CONSTRUCTION AND VENTURES,"21 Alhaji Bakare Street Ojodu Berger, Local, Ojodu 100001, Lagos, Nigeria, Lagos, Lagos State 100001",3.36808180809021,6.64109706878662,692b9813-5c9e-432a-93a5-2341e273348a,4
Manpreet Limited,"5 Sanusi Fafunwa Street, Lagos, Lagos State",3.42632007598877,6.42945671081543,f428f6f0-984f-4b72-a9de-65258c0f2b23,7
LES Energy Services,"Block 100 Furo Ezimora Street, LAGOS, Lagos",3.46629929542542,6.43283414840698,d7e40cec-dcf9-40d3-bf62-bbfd7af930c9,9
PEACE GLOBAL SERVICES,"Suite 3b Churub Mall Plaza Lekki- Epe Expressway, Lagos, Ogun",3.53309893608093,6.44217300415039,a351f8cf-49c3-4c6b-9451-8437dca50e83,1
TENAX ENERGY LIMITED,"Africa Lane, Lekki, Lagos",3.47370147705078,6.45653915405273,dd1a0b84-73c2-4e28-a1be-2b703f552b9e,1
OTUAZ TECHNOLOGIES NIG LTD,"5, Edafe Close, LAGOS, Lagos",3.6296079158783,6.47173309326172,97375d19-7eb2-4826-99d3-c7dec63c6e4e,1
ARO WELDER GLOBAL COMPANY LIMITED,"New Site Avenue, Ijebu Ode, Ogun",3.92089200019836,6.82080268859863,da1a9e56-7f4c-40e6-bb39-1b3c3c8afe53,6
"Opeloyeru furniture, carpenter and upholstery works","Oloje estate phase 2, beside Zulu block, Ilorin, Nigeria, Lagos, Lagos State +234",3.4232029914856,6.46008539199829,aa091d3c-65a3-4d02-8802-7fd777b44fd2,5
xilema veneer,"S. W, 1b LALUPON close, off Keffi St, Ikoyi 101233, Lagos, Nigeria, Lagos, Lagos State",3.41506433486938,6.44845104217529,1af66e28-3970-4822-b191-b67e4a4e8ec5,6
Woodpecker Concepts Ltd,"2 Owolewa Street, off Randle Ave, Surulere, Lagos, Nigeria, Lagos, Lagos State",3.35743689537048,6.51181554794312,349593c7-a3dc-4404-a64c-af2371716292,4
Naija Woodshop Limited - NWS,"Lagos Lagos NG, 4a Agunbiade Bankole St, 106104, Lekki, Nigeria, Lagos, Lagos State",3.38365006446838,6.45748710632324,f99306ea-4a03-471a-9fd7-70f96e81cde5,3
Surewoods Nigeria Limited,"Mushin Halt,100253, Lagos, Lagos",3.34539985656738,6.51917219161987,f922f78d-68a8-4eb4-b80a-5c0660612a27,6
RETROP LIMITED,"211 Herbert Macaulay Street, Lagos, Lagos",3.39528298377991,6.45356702804565,f6cd9b5d-117c-4739-97b1-6c04a99cb68b,1
C S L,"Apapa Dockyard Road, Lagos, Lagos",3.365149974823,6.45943880081177,b37955c6-4e95-4c46-a2ef-c62b330c5af7,3
Box And Barrel,"133B ETI OSA AVE DOLPHIN ESTATE IKOYI LAGOS NIGERIA, LAGOS",3.41639184951782,6.45668792724609,8371777e-1498-462e-a004-cf479a8946f9,6
AMACUFF LIMITED,"Block 1, Shop 1, Lsdpc Shopping Complex Esther Oshiyemi Street, LAGOS",3.39582920074463,6.45300769805908,7e28e38e-d4db-4238-b712-0f14ff4bae19,6
OFFICE MIRROR,"Office Mirror, 4C Idowu Martins, Victoria Island Lagos, Lagos,101241, Lagos, Lagos",3.42013502120972,6.43341541290283,bad99119-2247-4cc9-9bf8-ab695c24eb04,6
Workman by PC Ltd.,"No. 4, Yetunde Brown Street, Ifako Gbagada, Lagos, Lagos 100242",3.34812116622925,6.55936288833618,84d5fa1d-9fad-45cf-96d7-2598a7126328,7
IO FURNITURE,"6 / 8 Industrial Street, Off Town Planning Way, Ilupeju Industrial Estate, Ilupeju, Lagos State, Nigeria., Lagos, Lagos, Ogun",3.35032248497009,6.52552509307861,555d58f1-29f1-433a-827d-6a7d4f718eef,8
PAPERLAND INDUSTRIES LIMITED,"NO 7, BADEJO KALESANWO STREET, MATORI INDUSTRIAL ESTATE, MATORI, Mushin,100007, Lagos, Lagos",3.3498055934906,6.53911066055298,34156b48-38e1-4c3c-9e3a-436135bfdf46,6
JOSSY FURNITURE CARPENTER,"9 Oshuuba Street, Alimosho, Lagos",3.305415391922,6.61042451858521,8a44a92d-d5b7-4f1d-b374-d1adb8d3aa17,8
Blam Associates Limited,"18 Adeniyi Adefioye Street, Itire 101241, Lagos, Nigeria, Lagos, Lagos State",3.34237241744995,6.50837850570679,7de2b70c-74ee-4d95-9388-f41e8f15eef9,8
1401 Renovations Andinterior Design,"Block 6 house 9a howson wright housing estate olusosun oregun ikeja, Lagos, Lagos 110102",3.36999988555908,6.59987735748291,03a294f0-074f-4de8-9484-939c0e213b8a,7
Celplas Industries Nig. Ltd,"27/A, FATAI ATERE WAY, OFF LADIPO STREET, MATORI IND. ESTATE, MUSHIN, Lagos, Lagos State 1001",3.34499001502991,6.53948497772217,3800506b-7e92-48b9-9cba-6bcf637ab2b0,3
COSTAIN WEST AFRICA PLC,"Ebute-Metta, Lagos State 174",3.3755099773407,6.50650405883789,84dc160e-4890-4bc6-bc63-7f63ce101e43,9
Champagneandcigar Ltd,"House 12 3 Omole Estate Lola Holloway Street Omole Ikeja Lagos., Lagos, Ogun",3.36012506484985,6.63691997528076,3b1e95a4-3d28-45de-a954-a28dc12e0b8b,10
Svengali Designs Limited,"9 Agoro Odiyan Street, Off Adeola Odeku St, Victoria Island, Lagos, Nigeria, Lagos, Lagos State",3.41867709159851,6.42857980728149,2ef33573-0823-450e-8a54-181ecbb4e3a3,5
AMERICAN FURNITURE GALLERIES LTD,"23 Akin Adesola St, Victoria Island, Lagos, Lagos, Lagos",3.42391490936279,6.42592000961304,0a6a35b8-8cb4-43e5-adfe-b393c9fc53a1,6
Novena Majesty Furniture Industries Ltd,"Plot 141 Ahmadu Bello Way Novena Plaza, Lagos, Lagos",3.4239490032196,6.42259979248047,54af740b-6cc2-44ef-bd5e-70e9fc716972,1
EXECUTIVE ALABI FUNITURE,"Plot 78, Awolowo Road Ikeja, LAGOS, Lagos",3.41164994239807,6.44437694549561,69f0514f-937f-4401-beef-35eaf320d4a4,9
JADAPEARL INTERIOR LIMITED,"4A, Isheri Road, Ojodu Berger., LAGOS, Lagos",3.27096009254456,6.44866991043091,527101fa-7e6e-43b1-bbd9-ae9641fcfb45,5
A&C Manufacturing Company Limited,"SUITE B:164-166 IKOTA SHOPPING COMPLEX BY VGC, LAGOS",3.38527655601501,6.48870992660523,e5d05145-e054-41d1-8a22-824b31ceacd1,3
Olu Balogun Nigeria Enterprises,"No 162 Apapa-Oshodi Expressway Ilasamaja Lagos, Lagos, Lagos",3.31834888458252,6.4646258354187,839ca7e4-8c18-493a-9efd-c0c75e35ed22,6
Maolad Trading Company,"4 Waheed Akanni Street Ago palace Way.Okota Lagos, Lagos, Lagos",3.30459403991699,6.49708890914917,b082db8f-763a-48d0-a93f-cdc5dd364368,7
B.A.S Furniture Ltd,"26 Awanatu st Papa Ajao Mushin Lagos 234-01, Lagos, Lagos",3.33646488189697,6.5051851272583,11d9d344-55ff-4908-8193-d23140052f38,10
THE WARDROPE,"76 Adeniyi Jones, LAGOS, Lagos",3.34489989280701,6.61071014404297,266f09f0-f2ce-4b7b-8ea9-adf3eca2a9ac,3
Builders' Expressions Limited,"41, Osundairo street, Iyana Ipaja, Lagos",3.30550694465637,6.62005186080933,ff3c8ec4-265d-49c4-ae58-e80113a1d75b,9
PUO CONSTRUCTIONS LTD,"Alausa Shopping Mall Obafemi Awolowo Way, Alausa, Lagos",3.35242366790772,6.60952615737915,15239592-3ac8-45cc-9001-927ef37b0a9e,4
UNIVERESAL FURNITURE LIMITED,"Km 16, Ikorodu Road, Lagos State, Lagos",3.36758995056152,6.57140016555786,84c11e91-89f5-43c3-b334-d50f4840d1d1,10
International Metal Products Limited,"Plot 15/16, Block XIII Industrial Estate Ogun State, Ogun",3.37928056716919,6.50537109375,31ca98f0-9c17-4508-9b02-e72c4ac11223,5
TECHNICO LTD,"4B Oyeleke Street, Ikeja, LAGOS, Lagos",3.3589129447937,6.61106681823731,3391b309-e6f7-4bca-956b-e4a982b3e5b2,9
CAPRISAGE (EXPORT) WOOD FURNITURE COMPANY LTD,"1, Bola Ajibola Street, Lagos, Ogun",3.35522508621216,6.60044622421265,cc4e8136-a319-41eb-a59a-c6073cbefc84,2
Blinds Nigeria,"13, Ogundana Street, Ikeja,23401, Lagos, Lagos",3.35775995254517,6.60115003585815,cdc06e0e-7b03-4264-955b-1d291a2441d5,8
M O G Holdings,"103 Allen Avenue, Lagos, Ogun",3.35477495193481,6.6027250289917,0a7374f5-fe9c-4191-b509-24f15887e5cb,7
Sartorious Technical Services,"2 kudirat abiola expressway alausa ikeja lagos, LAGOS",3.35301876068115,6.60963106155396,5868b287-f87b-4b16-9847-11d1fe9cb2b8,10
360furniturehub Ltd,"39 Shasha Rd, Akowonjo 102213, Lagos, Nigeria, Lagos, Lagos State 102213",3.30663299560547,6.58945894241333,e7a900f5-798d-48dd-88fc-c7f41c37804c,6
Cejex Designs Nig Ltd,"Eastline Shopping Cmplx Block C1 ï¿½Shop 8/35 Lekki-Epe Express Rd., Lekki",3.54958820343018,6.44732093811035,08c48fd1-ba0d-4aca-b1a2-ae74a04e0b33,2
Swisstrade Nigeria Limited,"swisstrade House km 14 Lekki Epe Expressway Lekki Lagos, Lagos, Ogun",3.54118394851685,6.44239187240601,f63620a8-6f8a-411c-a405-22ed93697faa,8
Hayeseg Plumbing services,"No 18 Ebunolorun St, Somolu 100001, Lagos, Nigeria, Lagos, Lagos State",3.38290524482727,6.54350280761719,d5bb6184-50e4-45d6-acbe-752ffb7ba675,6
Unique Plumbing And Electrical Services,"Lagos,234, Lagos, Lagos",3.34870576858521,6.55915307998657,91c8289c-570f-4380-a624-642535e50fb2,4
FETTY PLUMBING WORKS,"12 Akinrinlo Street, LAGOS, Lagos",3.38348150253296,6.53099250793457,aac36891-1f90-46c5-9934-d4120143d02c,4
Plumbify,"12 tewogbade street Ikeja, 100213, Ojodu, Nigeria, Lagos, Ogun State 100213",3.42745041847229,6.46599102020264,6c7cc404-6898-418a-9bf4-8b50dbebcde3,9
OGA PLUMBER LIMITED,"9A, Alhaji Adewunmi Fowewe Street, Off Allan Balogun St, Eti-Osa, Lekki, Nigeria, Lagos, Lagos State",3.33918905258179,6.51204586029053,4fb2e0b9-d16a-42ac-9c64-0af37946d5ef,5
Olamide Plumbing Engineering,"72 Olorunsogo St, Mushin 102215, Lagos, Nigeria, Lagos, Lagos State",3.35483717918396,6.53714370727539,2f28a316-0dc4-403b-98be-323aa0b149ad,5
METRINY PLUMBERS,"1 Toluwaloju Olufemi Street, Ipaja, Lagos",3.34922623634338,6.50683212280273,8e61fa81-b1dc-4a84-89dc-c29031cb1b0e,5
Al-Mumini Plumbing and Water Treatmen General Contractor,"unity close off ifesowapo Egan igando LAGOS, Lagos,234, Lagos, Lagos",3.33780002593994,6.47000598907471,32363af7-7c23-400b-8490-04cc7bec0a80,5
MaC CJ England Luxury Bathrooms,"35, Association Road, Ilupeju, Obanikoro, Lagos, Lagos, Lagos",3.3641939163208,6.54738187789917,7115b361-6298-4624-9417-c217f22f8963,8
Payous Plumbing Engineering,"opposite tollgate, Babs Animashaun Rd, Surulere 101241, Lagos, Nigeria, Lagos, Lagos State",3.34856700897217,6.48258876800537,8b061b0a-7a84-4dc8-a285-7c3484918acc,3
Be Plumbing Services,"Abuja St, Banana Island 106104, Lagos, Nigeria, Lagos, Lagos State",3.4516544342041,6.46615886688232,52d57439-a03f-4e71-a48e-a07fdb23a205,3
Kings Home Sanitary Wares,"Divine Plaza, Shop 21, Mosholashi Street. Opp UBA Bank, Odun Ade Market, , Coker, Lagos, Lagos",3.35902810096741,6.50245809555054,d6ab627d-eb3c-4faf-b561-2d48df83e71c,9
Dial A Plumber (PlumberNextDoor),"16 Raymond Njoku St, Ikoyi 106104, Lagos, Nigeria, Lagos, Lagos State",3.42285966873169,6.44239330291748,9c08a975-988c-43e7-ac14-0d9c39b4ccef,9
PURIMATE WATER TECHNOLOGIES LIMITED,"Block 9 Shop 36/37, Lagos, Lagos",3.35297989845276,6.50950002670288,2a16db67-ba39-4d42-ac20-7ee052ba4a93,3
CAMBIELLI NIGERIA LIMITED,"No. 4, D Alberto Road,, LAGOS, Lagos",3.36624002456665,6.54242897033691,9771a851-3081-41e8-91cc-ec0c99de8376,5
Truchoice plumbing service,"7 Adamson St, Agboyi 105102, Lagos, Nigeria, Lagos, Lagos State",3.39104914665222,6.59952974319458,d13ee0ff-61ba-40c1-a328-0838af0b13a0,3
DELNICE NIGERIA LTD,"3 Godwin Okigbo Street, Lagos, Lagos",3.34887599945068,6.50244998931885,845c9e27-5d9e-4d58-88c3-b6e0f63ad059,10
Best Plumber Services.,"12E Admiralty Way Lekki Phase I Lekki, Eti-Osa, Lagos, Nigeria, Lagos, Lagos State",3.47003149986267,6.44791650772095,4dd11578-040c-4a26-8418-77ed0c24ed0d,9
MIZAMI,"Suite 21B West Pavilion, Entrance 1, Lagos Island, Lagos 102273",3.36895728111267,6.53980779647827,4846b82b-e1cf-4ab0-80a8-07e5b4c181c9,9
SEABRIDGE PETROLEUM LIMITED,"12, Obanikoro Street, Lagos, Lagos",3.36930394172668,6.54792499542236,6cb90d67-66c8-48d0-a5e2-71fb982260ae,7
Hizic plumbing engineering,"No2 oloowokere street onikanga Ayobo Lagos 4 oregunwa street oregun ikeja Alimosho,ojodu Lagos NG, Ayobo 100278, Ikeja, Nigeria, Ikeja, Lagos State",3.36700201034546,6.60120058059692,c39b9db9-8aa7-4490-882b-91a8a84a8319,9
ARTHUR ENERGY TECHNOLOGY LIMITED,"73, Okota Road, Lagos, Lagos",3.31880593299866,6.51722097396851,f9a2bc2c-2c36-4026-9707-9d16f7a3775b,6
Opakjephplumbing,"1,Oyetubo street Off Awolowo Way, Ikeja, Lagos Nigeria., Ikeja",3.34025955200195,6.6025857925415,04db733a-e47b-4560-bc7b-384cbcbc9601,9
Jay plumbing services,"8 Tonade St, Opebi 101233, Ikeja, Nigeria, Ikeja, Lagos State",3.32927203178406,6.60569524765015,c5aa4258-e44c-4286-bed0-7ad02e45e0e7,1
POLLUX ENERGY SOLUTIONS LIMITED,"49 Norman Williams Crescent, Lagos, Lagos",3.41806507110596,6.44368982315064,ba77d94d-43fa-40a2-a88b-08c16f20801c,9
PLUMBERS WORLD,"63,Paul avenue, Ojodu, Yakoyo Rd, 271106, Lagos, Nigeria, Lagos",3.3556399345398,6.65458106994629,d7857fa3-6785-4234-b7f4-d73aea5a00d5,10
mka plumbing and electrical services,"29/30 olaleke taiwo street, off Yetunde Morgan Ave, Ojodu Berger 100213, Nigeria, Lagos, Lagos State",3.35924792289734,6.6453332901001,64eb17b9-0143-4e05-bdb0-b431f88fc268,10
MAMAK NIGERIA ENTERPRISES,"12 Agidi Road, Lagos State, Lagos",3.40066409111023,6.59446001052856,ed8c2fb4-34db-4619-b58f-c23c4ce83890,5
PATHOIL LTD,"No 1 Mabinuori Daudu Street, Lagos, Ogun",3.37458610534668,6.61582279205322,f5915595-e59c-4cfd-b9cb-518cc867a4bd,1
RBNG,"2 Soji Adepegba Close, Ikeja, Lagos 101233",3.35183906555176,6.60210704803467,20c37f7f-e1cb-482d-b62e-41b1ba12ad72,2
Ocean Engineering,"13 Alimosho Rd, Alimosho 100275, Lagos, Nigeria, Lagos, Lagos State",3.30054426193237,6.61187171936035,ccb0232c-c9c9-45a8-9d43-60a060017e57,8
Paints,"Sandtex House, 105 Adeniyi Jones Ave, Ogba, Ikeja, Nigeria, Ikeja, Lagos State",3.34262752532959,6.60849666595459,4f257a53-e000-4be7-85e0-87e620dbea2d,2
TOP INLET ENGINEERING LIMITED,"Infinite Grace Plaza Wing A, 09 Oyetubo Street, LAGOS, Lagos",3.34051179885864,6.60193872451782,1233a55e-56f2-4bd7-8107-a153e36ee3b8,7
PAMAK,"12, Adegbola Street, Ikeja, Lagos",3.3259449005127,6.6108250617981,f17bb8d0-26af-4265-8f44-66b84263014b,7
EISNL ENGINEERING SOLUTIONS & DRIVES LTD,"Plot 9 Block A, Ikeja Industrial Estate,, Lagos, Ogun",3.36578011512756,6.60754919052124,1602e633-67ba-473f-a159-af84b89f4392,6
SWEBORG NIGERIA LIMITED,"10 Akinsanya Street, Of FRSC, Lagos State, Lagos",3.33985996246338,6.44285678863525,ead731b7-ef66-4564-999b-f029ffab3962,6
JG OIL FIELD SERVICES LTD,"No.9 Wailliams Close (By Babs Animashaun), Lagos State, Lagos",3.34590530395508,6.49154567718506,b939ac86-a819-41a5-8d44-68aca4992435,3
Gennex Technologies,"Plot 25, Adebisi Ogunnuyi Crescent, LAGOS, Lagos",3.33802008628845,6.46503400802612,b9751655-2369-4d0b-9c12-bb97f0e16ba6,2
DDVL,"Block 3, Shop 21, Awaye House Badagry Road, Lagos State, Lagos",3.32890510559082,6.47087383270264,f0dac30b-dfac-47d9-911e-efb797b3a823,3
BRUKAH GLOBAL SERVICES LIMITED,"Block A1, Cluster A 1004 Housing Estate, Lagos, Lagos",3.43428301811218,6.43945407867432,53b183c0-4367-457d-ba3f-e30c84bafcb1,6
Nagin Nigeria Ltd,"9 Creek Road, Lagos, Lagos",3.47488188743591,6.44023895263672,7db10cc1-1432-45f2-a0b2-91ae4cc9612f,2
MOTHERCAT (OVERSEAS)NIGERIA LIMITED,"13/17, Breadfruit St.,Box 1244, LAGOS, Lagos",3.38794112205505,6.4562554359436,0a9355dc-0a40-440d-8597-3644d73f0e40,9
CHRISSTAHL NIGERIA LIMITED,"02 Willoughby St, Adekunle, Lagos, Nigeria, Lagos, Lagos State 101245",3.38431906700134,6.47870922088623,738b8808-8444-467a-8cdc-80201418d608,9
BATLAN CONCEPT INTERIORS LIMITED,"Queens Shopping Plaza Suite 10/11 Km 45, Lekki Epe - Express Way, LAGOS, Lagos",3.39582991600037,6.45306015014648,3ca613c3-3afc-47c8-ae22-60a22b5c3831,1
STERLING AND WILSON NIGERIA LIMITED,"1435 A, Sanusi Fafunwa Street, Lagos, Lagos",3.42890501022339,6.43113899230957,0f28c223-29f6-4e2e-9ba8-5862a8fee98a,6
Alan Caray Technical and Logistics Limited,"10 A/b Eletu Ogabi Street, Off Adeola Odeku, Lagos, Lagos State 101007",3.41211485862732,6.4304575920105,42588ab0-1e36-4cef-86e2-d46897417249,2
Kingsmat Company Ltd,"30B Babs Animashaun Road, Lagos, Lagos",3.43599009513855,6.43444013595581,aba6bf1a-a7c2-4411-b078-098bb97f3128,7
HPM & ENERGY,"17a Olubunmi Rotimi Off Abike Sulaiman, LAGOS 23401",3.46836853027344,6.43807411193848,8a4c3344-b66e-4dd4-9ea5-c8fa9f20229d,2
GWILL INT MULTIVENTURES (Plumbing and Electrical Engineering),"1004 Estate, Adetokunbo Ademola Street, Victoria Island, Lagos, , Lagos, Lagos, Lagos",3.42940592765808,6.42650127410889,6a1367a7-fda1-4e17-907f-fd67f30f2737,3
MICOPLENIC CONSTRUCTION,"21, Ahmed Onibudo Street, off Adeola Hopewell St, 101241, victoria island, Nigeria, Lagos, Lagos State",3.42831015586853,6.43426942825317,d88276f2-ec97-4c55-8b45-ef844e01803d,5
GEOPELL NIGERIA LIMITED,"16 Omorinre Johnson Street, Lagos, Lagos",3.45996499061584,6.43645477294922,0b23daf0-a27d-4f9e-87ef-af8c0932adff,10
GEBERIT NIGERIA LIMITED,"7, HT Cool World, 307A Adeola Odeku St, Victoria Island, Lagos, Nigeria, Lagos, Lagos State",3.4226610660553,6.42926406860352,6a8458f5-c2cf-4b23-aad4-24889a166d4f,4
Technova Energy,"2A & 2B Abimbola Okulaja Close, Lagos State, Lagos",3.55401086807251,6.44774723052979,2ed99e20-c238-4a1d-98d9-5f3b349bb62c,9
SOLUTION PLUMBING WORKS,"Oremeji estate, Owode, Ibafo, Nigeria, Ibafo, Ogun State",3.42187404632568,6.74244165420532,ae132722-a351-4f8d-bd63-a0b6a82b8c81,6
Fix it Pro,"39 Obafemi Awolowo Way, Lagos, Lagos State",3.35507965087891,6.6137170791626,5e114520-925f-4db6-8d7a-ebff040e23dc,6
FIXMYPC,"13a Oremeji Street, Opposite Skye Bank Computer Village, Lagos, Ogun",3.33923506736755,6.59421110153198,edd43bac-9e9b-4064-b9d8-917b039af93a,1
ALLIED COMPUTERS LIMITED,"Ikorodu Road, Ilupeju, Lagos",3.36665391921997,6.55974006652832,d235505b-d02f-4889-ac44-35da10837d92,6
EXCLUSIVE COMPUTERS,"12, Oremeji Street, Off Medical Road, Ikeja Lagos., Ikeja, Nigeria, Lagos State 234",3.36479187011719,6.55060815811157,56553d1e-93f8-412b-ba48-e2847d98739b,7
ICT. computer repair and installation,"Adeye ni street Computer village ikeja, Lagos, Lagos State 234",3.33569145202637,6.59211874008179,070eab1f-c111-4e59-8371-0ce80e3146d6,7
Best Info Tech Services - Web Design in Lagos Nigeria | Computer repair Services,"8 Ola Ayeni St, Computer Village 101233, Ikeja, Nigeria, Lagos, Lagos State",3.39096117019653,6.5613374710083,0c59c7e6-d39a-42c7-8015-deb9586b9580,6
E-ekesons computer technology,"3b Pepple St, computer village 101233, Ikeja, Lagos, Nigeria, Ikeja, Lagos State 100212",3.36755728721619,6.55932188034058,aeefd999-f2c2-46f9-8563-00870f117f4c,1
Dervac,"76 Shipeolu Street Palmgrove, Lagos,100231, Lagos, Lagos",3.368403673172,6.54248714447022,0a37c9ef-9e77-4a97-b7c8-0a0a4ce77846,7
tech solution,"Lagos NG, 26 Owolowo St, Ikorodu 104211, Nigeria, Lagos, Lagos State",3.38093829154968,6.53736305236816,860cafdd-aa20-41f8-acac-3f2f687cc99b,4
Kes Computers Ltd,"90 Palm Avenue, Mushin, Lagos",3.35194611549377,6.53710794448853,c4b9d7c5-a16f-47ae-8e63-947cfe661e28,4
TECHFASHY,"89 Ilaje Rd, Yaba 102223, Lagos, Nigeria, Lagos, Lagos State",3.39627170562744,6.52960395812988,b3fb8268-e9b7-48b1-8f80-32c32f992abe,6
God's Own Computer Engineering Works,"14,oweh street fadeyi,yaba, Lagos, Lagos, Lagos",3.37069582939148,6.5217170715332,4b40919d-074b-4e27-96c7-bee6c0212faa,1
Laptops repair,"1a simbiat road Ikeja Lagos, Lagos",3.33853602409363,6.59407758712769,12b9bc21-4a28-40c8-a110-705807102c2b,2
OMATEK,"Kudirat Abiola Way, LAGOS, Lagos",3.37486505508423,6.58989095687866,ceac38b8-b01e-404a-911b-80fda7ff5987,6
PINNACLE FIX,"45/47 Diya St, Gbagada 100234, Lagos, Nigeria, Lagos, Lagos State",3.39253282546997,6.55103969573975,e91ada19-00a2-4b58-ae8b-0ba613729dee,4
Repairam,"20 Bisi Ogabi Avenue, Ikeja, Lagos State",3.34741830825806,6.60098505020142,d28075d0-f925-467a-8bee-072458c113a7,1
Data Recovery Nigeria,"58 Ogudu Rd, Ojota 102103, Lagos, Nigeria, Lagos, Lagos State",3.38852667808533,6.57782697677612,dd8ca6c7-02a3-4804-9c7a-5d761febeba4,10
AJE COMPUTER,"NO 1 Otigba street ikeja, Lagos, Lagos, Ogun",3.34006309509277,6.59605550765991,b0d4ff7c-4bd1-403f-b746-959392d4914d,8
HYPER-FIX TECHNOLOGIES| Computer repair shop in Ikeja | Laptop dealers in Ikeja,"4, Idowu Lane, Computer Village Lagos NG, Ikeja, 100212, Nigeria, Ikeja, Lagos State",3.342942237854,6.59162712097168,7b4929fc-0c55-41dc-82f5-0b51e2070625,2
e-Tech Computer Services,"1 Kodesoh St, computer village 101233, Ikeja, Lagos, Nigeria, Ikeja, Lagos State",3.34268307685852,6.59252166748047,6e693e76-4baa-4ab4-9ecd-f6545c2f9ffb,8
CPR Cell Phone Repair Nigeria,"350-360 Ikorodu Road, Lagos",3.36682939529419,6.56735181808472,343b872b-69de-4eb8-a9b8-f8b7eec77965,8
Shopinverse,"Maryland Mall 350-360 Ikorodu Road Anthony Lagos NG, Lagos, Lagos 100231",3.36718392372131,6.56732797622681,d8a25220-3ef5-401c-af14-07d68c8dddb5,5
"Computer, latopts , Desktop,Hp printers","28 Obafemi Awolowo Way, Ikeja 101233, Lagos, Nigeria, Ikeja, Lagos State",3.3405978679657,6.59685659408569,514b4390-095d-422f-a028-d09d252604ee,4
Digital Technologies and Networks Limited,"37 Sunmola Street, Lagos, Lagos State",3.36889839172363,6.56859445571899,fb5b579f-3396-4bb0-b0cf-08aa7e7c0ee1,5
Digital World,"Lagos,+234, Lagos, Lagos",3.34870576858521,6.55915307998657,372add17-fedd-46a1-8cc9-76372996dd05,9
Techpesa,"58b Kudirat Abiola Way, Oregun, Lagos 101233, Lagos, Nigeria, Lagos, Lagos State",3.37390089035034,6.59124231338501,57889ae2-77b9-41b2-ae6a-0648e9e31092,3
Tecres Technologies,"7 Canal Close, Soluyi, Lagos",3.38189339637756,6.56239652633667,7d0c2156-cea1-4fb6-b9e0-2421cdf6b76f,2
"NOR TECHNOLOGIES, Nigeria","15 Church Street, Off Allen Avenue, Ikeja",3.36206603050232,6.59239721298218,48efb8ac-7e49-484f-8b64-da2a2d09c893,4
ATLARGE TECHNOLOGY,"13 Kodesho Street, Ikeja, Lagos",3.34254765510559,6.59283018112183,4d01057b-a592-4ad8-8fed-d86b934f230a,4
Tuned Concepts Solutions,"65B Coker Rd, Ilupeju 100001, Lagos, Nigeria, Lagos, Lagos State",3.36201858520508,6.55224132537842,34f76e66-1713-4c72-a793-a47b9cdc0024,9
FROST MEDIA ENTERPRISES,"No.55, Coker Road, LAGOS, Lagos 100233",3.36198997497559,6.55382013320923,909d2942-ba47-4b35-ae6a-360cf959bec2,5
NEW CREATION COMPUTER TECH,"40,Abiola Way Olorunshogo Abeokuta, Ogun, Ogun",3.36594438552856,6.5993070602417,b1d79144-86f7-4e05-a1e6-7ab8d982cb74,6
AMBITION COMPUTER SERVICE,"18 Ola Ayeni St, Ikeja 101233, Ikeja, Lagos, Nigeria, Ikeja, Lagos State",3.34107160568237,6.5955114364624,e7a8da0d-8a6b-4a83-897d-1c4f64ff3ea9,10
Spectranet Limited,"Opposite Gtb, No 8 Anthony Village Rd, Anthony 105102, Lagos, Nigeria, Lagos, Lagos State",3.3692581653595,6.55934429168701,08462a72-6595-4e11-9383-41059ee625c9,3
9mobile Experience Center,"Adebola Shopping Mall, Isaac John St, Lagos, Nigeria, Lagos, Lagos State",3.36017203330994,6.57706117630005,d1e2d282-57cb-4b51-9903-8a9526be5dd7,2
BenchMark Computer Solution,"8 Edmund Cres, Yaba 100001, Lagos, Nigeria, Lagos, Lagos State",3.37035894393921,6.5167088508606,7fb2ad82-e621-4e5f-a62a-5898a7540862,10
Polituks Enterprises l Best computer Repair centre in Lagos l Top Website Designer in Lagos l Top Content Writer in Lagos,"Adekunle, 221, Herbert Macualey Way, Directly, opposite Rowe Park Sport center, Yaba 101245, Lagos, Nigeria, Lagos, Lagos State",3.37073349952698,6.51745557785034,0aebb835-2e33-45f0-9a1a-98e71927c415,6
Emmy CyberJet,"55 Olusesi, Ile Iwe, Egbe Rd, Ikotun 100001, Lagos, Nigeria, Ikotun, Lagos State",3.38120150566101,6.53277587890625,4b0620fe-745d-4850-b6fe-55dd1467ddad,4
FBTech Solutions,"Oladimeji St, Surulere 101241, Lagos, Nigeria, Lagos, Lagos State",3.4062397480011,6.54681253433228,491972ac-75c1-4f06-9745-b001543a507c,1
ExtremeNet Links & Data Solutions [eLinks Consult],"9 Bariga Rd, Somolu 102216, Lagos, Nigeria, Lagos, Lagos State",3.38608765602112,6.53463315963745,6c41c324-abac-409b-a2a8-6ed936b28f84,7
Oludemi Computer Repairs,"16 LISABI STR PALMGROVE Lagos Mainland, Ebute Metta, Lagos, Nigeria, Lagos, Lagos State",3.36610221862793,6.50802755355835,ca14a7a1-f2a9-42d7-bb2e-74b78d21e482,3
Ples IT Services Ltd,"1 Stax Lane, Off Onikoyi Street, By Cele Bus Stop, Aguda, Surulere 101282, Lagos, Nigeria, Lagos, Lagos State",3.37891268730164,6.54314231872559,a9f97795-d785-4816-a72b-5a0b9b5ccae4,3
B E T A COMPUTERS,"13 Adebola Street, Lagos, Ogun",3.36001992225647,6.49575996398926,9b7e4031-e761-4d90-9382-e5bad5bc5aa3,5
Tech Direct NG,"37 Ogunlana Dr, Surulere 101241, Lagos, Nigeria",3.35278129577637,6.50950002670288,073f6d67-e06e-46b8-a7b5-05ec5e0b3050,5
The Truth Computers (a div. of Ralphlor Nigeria Ventures),"Shop No. 27, Kasummu Taiwo Complex 2, Isolo Rd, off Agege Motor Rd, Mushin, Lagos, Nigeria, Mushin, Lagos State",3.35352492332459,6.52802181243897,3e3543e1-6102-40f3-b88e-f04e88641ea9,5
DijiTech Nigeria,"3, 4 Moloney St, Lagos Island 102273, Lagos, Nigeria, Lagos, Lagos State",3.38206315040588,6.4891471862793,4d96e224-d785-418e-8999-f644364ab429,2
Datacomm Express,"39 Olonode St, Alagomeji-Yaba 100001, Lagos, Nigeria, Lagos, Lagos State",3.37700939178467,6.50071430206299,77ca0117-bfd8-4e62-a3ba-09994fb919af,6
Gkd Systems Enterprises,"104 Western Avenue, Lagos, Lagos State",3.3629949092865,6.50979232788086,5321ba38-b238-4e46-bd22-f8933901afcb,5
IT Support Team,"Tade Aramolate Close, Lagos, Lagos State",3.34585952758789,6.49272203445435,38ad1b1c-673c-44d3-b4dc-4d70bd12f2f0,8
CALADE MOBI CARE,"9 Abisola Olayinka St, Gbagada 234001, Lagos, Nigeria, Lagos, Lagos State",3.37892484664917,6.4929780960083,f2b5920a-3f70-4223-9433-bb1d106fd3f6,4
ICTNG,"14, OSENI STREET, LAWANSON, SURULERE, LAGOS, Lagos,23401, Lagos, Lagos",3.34527468681335,6.51366376876831,5a7d20a8-28d4-4da0-a526-a08db8769a04,6
B M A Computer Services Ltd,"114 Bode Thomas Street, Lagos, Lagos",3.3582808971405,6.48910188674927,fe16228f-6ec1-41c1-a3e5-26a13e307477,7
"OJ.B Engineering world, Phone $ Computers Repairs and furniture works","Badagry,234, Lagos, Lagos",3.34168457984924,6.47630929946899,ef253eec-2530-4a93-86c7-23258a6d9c47,5
Computer Plus Limited,"Bode Thomas Street, Lagos, Lagos State",3.35442709922791,6.49013900756836,bde8d372-16e8-45c7-873c-a6268cd4dcd0,8
Deftjobs Nigeria,"Olufemi Road, Lagos",3.35047268867493,6.50637245178223,642af35a-7282-4a8e-867c-f5ce727f8a52,8
Green Intellects,"House K3, Royal Estate off Eric Moore, Surulere Lagos, Lagos,23401, Lagos, Lagos",3.35624623298645,6.49310970306397,8dbd7274-4996-4e36-86a6-c3fd1999052e,4
Rietech Digital Consulting,"By Kilo Bus Stop, 42 Nnobi St, Surulere, Lagos 101241, Lagos, Nigeria, Lagos, Lagos State",3.34614419937134,6.50089454650879,2efc36b9-6a77-4a5f-aed2-61b3523f313f,10
"FEMS IT Services Laptop, Accessories & Repairs, IKEJA/IPAJA/IGANDO, Lagos","3 Salami Cl, Ipaja, Opesa 102213, Lagos, Nigeria, Lagos, Lagos State",3.34023904800415,6.487464427948,a4b0aeb9-bcc9-4ed2-9ffc-3c57be94b6de,7
WE-FiX Global Computers Limited,"11 Ola-Ayeni Street, Computer Village, Lagos,2341, Lagos, Lagos",3.33202123641968,6.50473070144653,8117d34c-0ff1-47ec-b00b-7cc8892415f9,9
Jeam Mobile's Phone Repair,"4 Lawanson Rd, Surulere 234001, Lagos, Nigeria, Lagos, Lagos State",3.3444561958313,6.51168060302734,6dbc97bf-ee7b-4faf-9c84-c53b87fd43d6,8
Packetclouds Technology,"21 Oyekan Rd, Surulere 101283, Lagos, Nigeria, Lagos, Lagos State",3.35280680656433,6.50124502182007,b4efd33e-469a-4cd0-bd1d-c410c94eb200,2
CYBERPROOF SOLUTIONS,"No 9 Bode Thomas Surulere, LAGOS, Lagos",3.35442709922791,6.49013900756836,bd0fd386-872f-4f7a-8033-346c97661264,10
Textng Communications,"NO 9 Bode Thomas St, Surulere 101212, Lagos, Nigeria, Lagos, Lagos State",3.35564589500427,6.48994159698486,195a1a2e-a393-4725-b8fb-bf668e0c07a4,7
AGIP COMPUTER,"23 Tanimola Street, Ilasamaja, Mushin, LAGOS, Lagos",3.34443402290344,6.52028512954712,207d915c-3582-4985-bac4-8349552ed2de,7
Demacyber Technologies LTD,"Suite 28, Sallyman Plaza, 115 Ago Palace Way, Oshodi-Isolo, Lagos, Nigeria, Lagos, Lagos State",3.3173303604126,6.51476335525513,83b50d1b-9b1e-4531-8548-c156ebf77336,2
DASAT NETWORK SYSTEMS LTD,"67B Itire Road, LAGOS, Lagos",3.35422205924988,6.51267576217651,dd0a6b04-e767-4537-8b5b-31b9a8371e29,2
JTec Solutions,"36/38 Ire Akari Estate Road, Isolo, Lagos, Lagos",3.32276010513306,6.5288200378418,636e6944-cea3-4bca-90c0-d5144cb53faa,1
Laptop & Computer Repair,"11 Folawewo Street, Ejigbo Last Bus Stop, Lagos, Lagos",3.30195999145508,6.55262184143066,6d9faafb-6432-4298-bf2f-6bca8f824323,4
Salcom Technology,"3, Ilori Street, Ire-Akari estate,, Isolo,234, Lagos, Lagos",3.32218408584595,6.52488327026367,a29f7ddf-6aea-4983-a156-5844f64dd71a,9
BAYE NETWORKS LIMITED,"136B ISOLO ROAD ISOLO, MUSHIN, Lagos",3.31711602210999,6.52936887741089,a95cd365-997f-4273-b113-6e925137d38c,8
Lopworks Limited,"29 Ago Palace Way, Ilasamaja 102214, Lagos, Nigeria, Lagos, Lagos State",3.31360578536987,6.51033973693848,fc7a6988-e9f1-464d-a3fc-07f8f3ced865,9
T-technology,"1a Lawanson Rd, Surulere 101241, Lagos, Nigeria, Lagos, Lagos State",3.3453733921051,6.51170587539673,39eb838f-73ab-421f-bc16-cafb927f2311,9
Arichris Tech Limited,"23 Alhaji Agbeke St, Oshodi-Isolo 102214, Lagos, Nigeria, Lagos, Lagos State",3.30369162559509,6.50605440139771,837d209d-15b5-49f7-9b11-e594e82380ff,5
CORRECT FIX COMPUTER ENGINEER,"Irish Garden Plaza, Addo Rd, Aja 106104, Lekki, Lagos, Nigeria, Lagos, Lagos State",3.57771873474121,6.48686456680298,a5cda25d-2cfa-4115-b6f8-d83e32658685,3
Benextech (Certified Apple/PC Expert),"Oke-iranla/bridge Bus-stop, Addo Road,Ajah, Lekki Lekki., Lagos",3.56552362442017,6.4715256690979,4b0b652d-7a19-42e3-85c0-91dcbc525a44,6
SIRPINERY COMPUTERS,"INTERNATIONAL HOTEL, EPE EXPRESSWAY, AJAH, LAGOS, NIGERIA, AJAH., LAGOS",3.5425431728363,6.44630670547485,02c99ace-99b0-473b-ab8b-20cd6931ed6f,9
Computer Laptop and phone shop,"1st Gate by Laspotech Ikorodu Ikorodu, Ikorodu, Lagos, Nigeria, Ikorodu, Lagos State",3.50995469093323,6.6111946105957,bc326fab-9e48-41d6-ae9f-3c040611e0aa,10
GREAT TECH COMPUTER REPAIR AND SERVICES,"16 Essomojumi Street, LAGOS, Lagos",3.46831965446472,6.43194150924683,188e7a6d-ad9a-465f-81ea-3da6961d8fd8,7
The Source Computers Limited,"Block 1, Plot 8 The Rock Dr, Lekki Phase 1 106104, Lekki, Nigeria, Lagos, Lagos State",3.47356009483337,6.43970918655396,55573c68-2647-4380-b071-da599867fbff,9
Systempace Technologies,"Badore Rd, Lambasa 106104, Lekki, Nigeria, Lagos, Lagos State",3.60628485679626,6.50751256942749,c75af614-70fd-49a2-b981-9b17683b02e7,1
D knack computers,"36 Olayinka Street, Itire-Ijeshatedo,surulere, Lagos,23401, Lagos, Lagos",3.39582991600037,6.45306015014648,1a4d3bb6-b5cd-403e-a359-4f7c8069eda8,3
FixTel Phone Repair Centre,"7 Dr Wogu Drive, Chevyview Estate, Chevron, Lekki, Lagos, Lekki, Lagos, Ogun",3.52694964408875,6.44300127029419,60e0bb92-f210-444f-858a-664d90b43283,6
PINE - TECH COMPUTER LIMITED,"248 Ikorodu Road Obikoro, LAGOS",3.4982168674469,6.62285709381104,ff243b1e-eeb4-44b8-b509-a5fdd50e69ab,10
Unlimited Repairs,"69 Victoria arobeke street, Admiralty Wy, Eti-Osa 105102, Lekki, Lagos, Nigeria, Lagos, Lagos State",3.47235417366028,6.44628143310547,0c1adf4d-9977-49ca-88e0-bd20b1fef606,6
Akansunet Computers,"Suite 42 Canaan plaza, 01 adepele street off medical road, Computer Village Ikeja, Lagos, Beside U.B.A bank., Lagos,23401",3.33861541748047,6.59529876708984,21ebd14c-31b9-4700-81e6-b56b97102823,3
Tech Specialists,"24B Akanni Bashorun St, Okusanya Street, Lekki Phase 1, Lekki 100001, Lagos, Nigeria, Lagos, Lagos State",3.46612477302551,6.44433927536011,8349f05a-d729-4e0b-ba4b-dc8cd1b14f53,10
E-Tech Enterprise,"CGVV+W2H, Orchid Rd, Lekki Penninsula II 106104, Lagos, Nigeria, Lagos, Lagos State",3.54246044158936,6.44339179992676,096b6ef7-22e7-4b7f-80ce-148b645633e6,2
ICBComputer Tech,"7, moshalashi Street Akodo Ibeju-Lekki , Lagos Free Trade Zone, Lagos,105101",3.93467569351196,6.43691349029541,ac15f245-185f-4b3e-8f6b-97b0384e86bd,10
Usdon Computers,"3, sawyer street near Tinubu square lagos island, Lagos, Lagos State 101001",3.38953924179077,6.45156669616699,04163ce5-9667-4583-8dd0-8134853f8518,8
MR.PC,"Abayomi Owulade Avenue Phase II, Magodo 100248, Lagos, Nigeria, Lagos, Lagos State",3.38414335250855,6.61410093307495,8ab9a6b8-e2fd-4d60-abac-035bf94119c7,2
OLATECH MOBILE PC,"SHOP 16 JBO PLAZA, ALAKUKO, Alakuko 300001, Nigeria, Iju, Ogun State",3.30218124389648,6.6826376914978,fbca799f-33d1-4d59-9518-4aef1663f15c,2
ANCESTORS COMPUTERS SHOP,"1 Kolawole Street Okelewo, LAGOS, Ogun",3.32775497436523,6.632896900177,52fc7601-943b-48ea-a742-ae8e364ba527,2
Elhadj Computers,"6, Francis Oremeji Street, Computer Village Ikeja, Lagos 100212, Lagos, Nigeria, Lagos, Lagos State",3.33994078636169,6.5937614440918,02d4486f-4606-4116-82ad-3c919ad62b4b,5
Metrofix world technologies,"1 oshitelu str, adejoke plaza bennon suite, computer village ikeja lagos, Lagos State Nigeria, Lagos,+2348028815134, Lagos, Lagos",3.33421039581299,6.62350988388062,7938c8c9-808a-4955-8ca9-d14710089bf0,10
Systematics Computers,"5A Simbiat Abiola Way, Computer Village 101233, Ikeja, Nigeria, Ikeja, Lagos State 100212",3.33859586715698,6.59473133087158,8b9bf738-9ecf-40b3-ae80-eef81d58adb9,1
BENNY-BROWN COMPUTERS,"Shop10, Sonyaolu, Shopping Complex, Lagos-Abeokuta Expy, 112212, Ota, Ogun State, Nigeria, Sango-Otta, Ogun State",3.25856566429138,6.69134902954102,b747d232-0eff-4faa-aea1-a036217f8aeb,2
TREND COMPUTER ENTERPRISES,"23, Hassan Ogunsanya Street Ahmadiyah 435, Lagos Abeokuta Expressway Ile Epo Oke Odo Agbado Oke Odo LCDA, 100001, Lagos, Nigeria, Lagos, Lagos State 234",3.33187603950501,6.60264587402344,fc8b78d0-9e2a-4067-9fb1-5584c4213b9c,4
Computer hardware and software engineering,"Ikota shopping complex, VGC Ajah Road 1. Block A110, Eti-Osa, Lagos, Nigeria, Lagos, Lagos State 101245",3.34110903739929,6.60092878341675,f1a0c434-e0e5-41ff-977a-3555e6c0bf64,7
Hovatek,"B2, Suite 5ff Rauf Aregbesola Mall Pako Bus Stop, Egbeda Alimosho, Lagos, Lagos State 100275",3.28693389892578,6.60947799682617,4a40ce2c-4f92-424e-baec-3142c80059d4,3
SPI-TECH GLOBAL RESOURCES PHONE & LAPTOP ENGINEER AND AGENCY BANKING,"34 ,Mowe Ofada Road, Opp St Paul primary school ,Aseese ,Ogun state Nigeria, Asese",3.28151178359985,6.55920839309692,24eba1a0-71f0-4bdf-8545-a0d1967feaf0,4
Divine Share Computer-Tech,"Ejigbo, Lagos,23401, Lagos, Lagos",3.27602314949036,6.54463195800781,76791fee-c978-4723-818f-71a92bc3c510,9
Omar pentium world of computer com and technology,"19,Ilupeju street isheri oshun, Lagos, Lagos, Ogun",3.30074501037598,6.63407802581787,13d8d058-099d-42b4-a3af-9f401ccac89f,7
Tishri InfoTech Nig Ltd,"83 Ikotun Idimu Road, Ikotun",3.26796746253967,6.54854583740234,f6c0d2cd-ff58-4204-80fd-d334837ecbda,6
EMMABAY ENTERPRISES,"65, New Ipaja Road, Iyana, Ipaja, Lagos, Nigeria, Lagos, Lagos State",3.29855513572693,6.61778450012207,34131acd-f1ee-4952-bf92-853a10c68c36,5
OyaFix,"1 Afari Ogun Street, Lagos, Lagos",3.34030294418335,6.55448198318481,d5af5866-d540-4a7a-9433-aa9c72089f82,10
Reliefsub Telecoms,"22 Ehingbeti St, Isolo 102214, Lagos, Nigeria, Lagos, Lagos State",3.32631492614746,6.53545761108398,5379f45d-bb06-483c-8e40-490f4347672b,4
Chukzie Computeng,"Plot 3 Otunba Jobi Fele Way, felele Street 101233, Ikeja, Nigeria, Lagos, Lagos State",3.35954713821411,6.62315988540649,d27ae825-296d-4d9f-a56f-567e45dc636e,9
C-DIRECT TECHNOLOGY,"31 Ikosi Road, Lagos, Lagos State",3.38289213180542,6.59997129440308,e43ca526-7cfd-4887-bc53-c3b53d8e3e4f,3
SLYCOM NETWORK SERVICES NIGERIA LIMITED,"Magodo Street, 99b Emmanuel Keshi St, Magodo Phase 2 105102, Lagos, Nigeria, Lagos, Lagos State",3.38233089447022,6.61906433105469,86558887-b69b-4a25-8510-49d3ee6fc80f,10
Bitswift Tech Nigeria,"552 Ikorodu Road, Iyana School, Lagos, Ogun",3.3908998966217,6.60349798202515,bab8558a-4f5d-42bd-a534-236cf0ebaca9,8
COMPUTER POWERHOUSE INTERNATIONAL,"80 ALLEN AVENUE IKEJA, Lagos, Ogun",3.35213994979858,6.60143995285034,b01f52ff-cc35-4df1-91c2-4df13ec5bb19,5
BLESSFON WORLD COMPUTERS,"7 Oremeji Street, Ikeja, Lagos",3.33934330940247,6.59367990493774,24c164c5-8c72-442b-ba91-119de77c70fe,8
Tink Media and IT Solutions,"Babatunde Cl, Ifako Agege 101232, Lagos, Nigeria, Lagos, Lagos State",3.32347536087036,6.64598226547241,31e34259-02b4-4cc0-9ed1-00f0be8546aa,4
PARAGONS TECHNOLOGIES LTD,"8, Ola-ayeni str, Computer Village, Ikeja, Lagos., Lagos,23401, Lagos, Ogun",3.34001278877258,6.59505128860474,3a0e1821-5903-49d0-be59-d07c5f923997,3
Dataprosys Technologies and Services Limited,"Number 15, Adepele Street, Computer Village, Ikeja, Lagos, Lagos State 100271",3.33937501907349,6.59559535980225,a4c69566-e804-4351-a476-a552179d4005,4
Gadget Clinic,"40 Yaya Abatan Road Ogba Ikeja, Ikeja,23401, Lagos, Ogun",3.34083104133606,6.63610935211182,3169d2f7-3a52-4eaa-aa41-ca6d45dfe82f,9
BRILLIANT COMPUTER CITADEL AND INFORMATION TECHNOLOGY,"Lagos NG, 14 Ola Ayeni St, Ikeja 100271, Ikeja, Nigeria, Ikeja, Lagos State",3.3389151096344,6.59490060806274,d6549cc1-78a3-4f1f-adce-a92aed590141,2
Gadget Clinic,"1 Akilo Rd, Ogba 101233, Lagos, Nigeria, Lagos, Lagos State",3.33598566055298,6.62076091766357,19b48f2e-7e21-49b9-98f2-bcbc11e68a41,8
Kings Tech.,"Spectrum square plaza 18, Otigba str. Off Olayeni Street, Computer village ikeja, Lagos",3.34046101570129,6.59456443786621,aef3377c-e0c9-4b84-bf36-0e47a6ba6910,6
UCOM Technologies,"Suite 5b LSDPC phase 3 Oba Ogunji road ogba ikeja, Lagos, Lagos, Ogun",3.3310444355011,6.62691450119019,628ed09f-0306-402f-88c5-b58459baf879,7
Micr Hms Computers,"6 Adepele St, Ikeja 101233, Lagos, Nigeria, Ikeja, Lagos State",3.3393919467926,6.59559774398804,412898a7-f408-4856-92f0-32cc0d132513,5
DIRECT ON PC LTD,"Industrial Avenue Ilupeju Industrial Estate, Lagos, Lagos",3.35752105712891,6.54644203186035,a5d60a8f-b588-487b-bab5-9117c1e441b4,8
EXPERTWORLD,"65 Palm Avenue, Mushin 102215, Lagos, Nigeria, Mushin, Lagos State",3.34945011138916,6.53597497940064,c05424d6-209f-4b0a-a21c-f38c49e383c6,7
Swops Ltd,"32, shipeolu street Shomolu, Lagos,234, Lagos, Lagos",3.36858010292053,6.53326988220215,335121b8-b98b-48fe-99aa-0057d8d19470,1
Glotechnic DSE,"suite 28, Ozi-Oyibo Complex Ikorodu North, Ikorodu 104101, Lagos, Nigeria, Lagos, Lagos State",3.36858010292053,6.53324127197266,6df96174-b6e1-41fd-a492-8149f8ab4283,5
TNT-TECHNOLOGY,"Blk C2,Suite 9 Olugbede Model Market Oja bus stop Egbeda-Idimu Isheri, 100276, Lagos, Nigeria, Lagos, Lagos State",3.3788583278656,6.5332088470459,11403b04-d21b-40b6-8dda-53ed4342c016,5
Amics Technologies Ltd,"20 Oguntona Crescent, Gbagada, Phase 1, Lagos",3.37430787086487,6.53675651550293,3b6034dc-83a7-4f45-9568-786c6a655067,5
Carlcare Service,"Block 1, shop 41 7up under bridge, Ijora Market, Apapa, Lagos, Nigeria, Lagos, Lagos State",3.37924194335938,6.533127784729,091609c5-a221-47df-963d-0a90ed677357,5
E - Centre,"E-Centre, 1-11 Commercail Avenue ,Sabo,Yaba, Yaba, Lagos, Nigeria, Lagos, Lagos State 234-01",3.39171290397644,6.51582956314087,85355fc8-8581-401d-9309-a3c539f029cb,2
Full-technology phone repairs and flashing any kinds of phones.,"Fola Agoro St, opposite oando filling station, Somolu 101245, Lagos, Nigeria, Lagos, Lagos State",3.38041424751282,6.52339601516724,fc95001a-1dfb-4179-b6a8-7ac2eb7939cb,10
Bincom - Information Communication Technology Solutions,"21 Araromi St, Lagos Island 102273, Lagos, Nigeria, Lagos, Lagos State",3.38532519340515,6.51276063919067,28abbb09-8d21-47fc-b4fb-3294530b3367,6
CITS (Centre for Information and Technology System),"Kosoko Dr, Yaba, Lagos, Nigeria, Lagos, Lagos State",3.39472913742065,6.51723146438599,0246279f-ca70-41f8-893a-7ebf438992d6,7
Data Recovery Specialist Limited,"3rd Floor, Right Wing, 41 Old Yaba Road By Adekunle, Yaba 000234, Lagos, Nigeria, Lagos, Lagos State",3.38011121749878,6.49501085281372,c547fdd0-695d-4c3a-b819-620f7cc15f44,10
Blueshield Computers Limited,"9/11, alli street, off tinubu square, Lagos",3.3899667263031,6.454017162323,90110d5f-2a55-49ba-978f-1d231ad3ce59,7
Hynet Solutions,"2 Moronfolu St, Yaba 101245, Lagos, Nigeria, Lagos, Lagos State +23401",3.38848400115967,6.49014616012573,9d2c6e6d-d02a-4486-9e6a-8884fc097fa1,1
DOCHASE.COM,"294 Herbert Macauley Way, Lagos, Lagos",3.37732791900635,6.50257110595703,e3bd92cb-9bdf-44a1-acea-9036cb684f14,3
Hoop Telecoms,"11, Afolabi Lesi Street Ilupeju Lagos, Ilupeju",3.38803267478943,6.50853824615479,fd9d1903-f8be-4c12-af6c-91af283564bf,10
Nihmatarg Global Services LTD,"291, Herbert Macaulay way Alagomeji yaba, Yaba 101212, Lagos, Nigeria, Lagos, Lagos State",3.3774905204773,6.50165510177612,8876ebdd-b043-436a-a310-6cbca69298e8,8
Bernolar Unisex Salon,"386 Muritala Mohamed Way, Yaba, LAGOS",3.36864304542542,6.51664590835571,5fa0fcef-2516-4d56-9305-be6026a38d5d,9
Idomac Barbing Salon,"5, Ilupeju Road, Ilupeju,Lagos., Lagos, Lagos",3.36651611328125,6.53978490829468,30db7c51-d55e-4438-a562-447cef24f889,1
ADORABLE HAIR COLLECTION,"182, Broad Street, Balogun, LAGOS, Lagos",3.38037610054016,6.45778179168701,aa425ebc-2a1b-42e0-b509-a9769d31cdb0,3
NATURES GENTLE TOUCH,"Plot3k, Aswani Road, Lagos, Lagos",3.33471703529358,6.54006719589233,7dd3b90c-55f1-499e-a18a-af9064063ca4,7
S. H.E Beauty Salon,"2A osborn Road, Ikoyi, Lagos, LAGOS",3.41539931297302,6.45863056182861,c72f00ca-3ce3-484d-b15c-02303a77c4a0,2
DR THERAPY BEAUTY CLINIC & SPA LIMITED,"48, Babs Animashaun Extension, Surulere, Lagos 101283",3.34862494468689,6.48914480209351,2448c6d7-a28d-49e8-bad7-0ca7512f67a8,9
Kebitol Hair & Beaty Shop,"62, Tokunbo Street, Lagos., Lagos, Lagos",3.34765601158142,6.47721481323242,2e61358a-4ad5-4a35-a88a-2a81b67e1c47,4
De Barbers,"70 Ikorodu Road Fadeyi, Yaba, Lagos, Ikorodu, Lagos",3.36192393302918,6.56610584259033,4e18b310-d902-4e2c-aeff-3469084c3223,2
Cumet Barbing Salon,"10, Akinhanmi Street, Surulere,Lagos, LAGOS",3.3388991355896,6.50556993484497,4a6d09b7-51d8-4539-986b-9deba47b5087,10
Carolad Beauty Salon,"85, Bamgbose Street, Lagos, Lagos, Ogun",3.39582991600037,6.45306015014648,0a8459aa-2a65-42d2-b92b-3f985ed6cc60,5
CUSHYSALONS NIGERIA LIMITED,"63, Ogunlana Drive, Surulere, Lagos",3.35238361358643,6.50667715072632,2cc526bd-72ba-4cf4-8840-38114e3af590,4
Bidson Skin Centre,"368, Muritala Mohammed Way, Yaba, Lagos, LAGOS",3.36911273002625,6.51554727554321,e7794f78-9381-4666-bd91-3957fcde80eb,5
ULTIMATE SALOON,"25,Araromi Street Beside Allahu Samod Mosque Obada Oko Abk., ABEOKUTA, Ogun",3.35826921463013,6.52503442764282,164fdcc5-807d-46c6-9d9e-db07f2b45dae,6
Brabus / Tarca,"22 Adeniran Ogunsanya Street, Surulere, Lagos, Lagos, Lagos",3.35792088508606,6.49795579910278,224fa4a1-6b07-4464-8f51-27cef9de486a,4
Body Alive Nig. Company,"70, Itire Road, Surulere, Lagos, LAGOS",3.35997080802918,6.51112127304077,6857178b-7d09-4121-b4ab-ab45fe396261,7
Double Trust Barbers,"132, Akerele Street, Surulere,Lagos, Lagos, Lagos",3.32958507537842,6.45349502563477,b89c80ae-a1fe-4e65-a110-ab8c62049e99,4
La Chic Beautic,"10, Randle Street, Apapa, lagoS, Lagos, Lagos",3.37063503265381,6.44480609893799,30b84af6-a001-4b52-ab1b-a1f31a284d70,2
Magic Fingers Inter,"33 Payne Crescent, Apapa, Lagos, Lagos, Lagos",3.36946892738342,6.44150876998901,d3bfbc9f-a70a-43cf-8c8e-790e25908d74,7
Ra-yet Beauty Salon,"83, Awolowo Way, Ikeja, Lagos., Lagos, Lagos",3.41164994239807,6.44437694549561,d5da3aa3-0614-42ed-bab9-6e282dcb05e3,10
Lise Beauty Range,"52 Awolowo Road, Ikoyi, LAGOS, Lagos",3.41164994239807,6.44437694549561,39f9a14f-30a3-42c5-883f-d059a34423f5,9
Finishing Touches,"7, Biaduo Street, Ikoyi, Lagos., Lagos, Lagos",3.41464591026306,6.44397020339966,5ebbbdcb-d0a4-4989-8c4d-59948f9b3648,10
Lashade s Unisex Boutique,"8 Biadou Street, Off Keffi Street, Ikoyi, Lagos, LAGOS",3.39582920074463,6.45300769805908,458cebcd-fe88-4e62-b759-45d6322a10b6,9
ENQUIRE BODY SHOP,"4,Segun Osoba Road, Okelewo Abeokuta, ABEOKUTA, Ogun",3.39582920074463,6.45300769805908,2dcf056a-e826-418e-be18-7d78ff715280,10
Slimmer Your Weight Loss Clinic,"31, Biaduo Street, off Keffi Street, Ikoyi, Lagos, Lagos, Lagos",3.41464591026306,6.44397020339966,5c9d734e-1a9a-4f84-8d00-f1de75316c2c,2
Coco Beauty House,"57, Opebi Road, Ikeja, Lagos., Lagos, Ogun",3.35536289215088,6.59552478790283,acd7ce6f-29da-43b5-be99-8dab6f876bcb,8
Top Beauty Centre TBC,"1, Unity Road, Ikeja, Lagos, LAGOS",3.34611010551453,6.599289894104,7fe5e33d-50e5-44cd-9b4f-d7ff76938bd1,7
Alice Dreams Nig Ltd,"32 Ezekiel Street Off Toyin Street, Ikeja, Lagos, Lagos, Ogun",3.34757399559021,6.59632301330566,0bd43c8f-bd57-4677-9801-662f401d41b4,7
Mercy For Ladies With Pride Salon,"73, Okota Road, Isolo,Lagos., Lagos, Lagos",3.31880593299866,6.51722097396851,0fb18667-8d6a-4f8e-8981-218f06962398,3
Andy International Hair & Beauty Studio,"73, Ojuelegba Road, Surulere, Lagos., Lagos, Ogun",3.27605295181274,6.69033479690552,438b1004-fee3-48b3-9075-f2d0f3ea1841,8
ENNY BEAUTY WORLD,"10 Alaji Abiola Street Egbeda, LAGOS, Lagos",3.34261703491211,6.64590883255005,12843634-fcd8-458a-8949-302dfe4dfea8,7
STYL & LABEL BEAUTY PARLOUR,"19 Sanni Jigide Street, Ogudu, LAGOS, Lagos",3.27009296417236,6.64345502853394,5cc55619-222f-43e7-8f8b-db7b62e9441f,10
CASTARIO,"13, Ademola Street, Off Awolowo Road, Ikoyi, Lagos, Lagos, Ogun",3.35757899284363,6.63565492630005,0b23ad93-bfc0-4fb0-87eb-f5cc8aac1ac3,5
FIZZ HERBAL SKINCARE,"12 Okowonjo street, Egbeda, , Lagos",3.30907607078552,6.60240316390991,7be1f3db-40ff-4c59-ba7d-fad4dbed75cd,6
City Boyz Court,"15, Hassan Street, Ilasamaja, Lagos, Lagos, Ogun",3.27134203910828,6.67995500564575,8a56188c-b079-4b45-84c8-3b9b6f40618a,9
New Look & Video Coverage,"81, Eleshin Street Off Keffi Street, Obalende,Lagos., Lagos, Ogun",3.28337788581848,6.66765785217285,a9c07445-848b-4a61-97c2-3da104df50e3,4
D . Johnmary Nig. Ltd,"11, Toyin Street, Ikeja, Lagos, Lagos, Ogun",3.34757399559021,6.59632301330566,57041ae4-4fa4-4734-983e-52d4303919ed,9
Sweet Mary Bee,"34, Queen Street, Yaba, Lagos., Lagos, Lagos",3.38524007797241,6.4887900352478,53251570-bb82-42ed-a482-16f5681fac2b,5
Aibakena Tailoring shop and sewing accessories,"12,John olugbo street, off Unity Rd, 300001, Ikeja, Nigeria, Ikeja, Lagos State",3.3451874256134,6.59943056106567,70b7c42d-1de9-4ad8-baeb-1b31457a8faa,3
Latunde Clothing,"19 Demurin St, Ketu 100243, Lagos, Nigeria, Lagos, Lagos State",3.38810539245605,6.59779787063599,db64edbf-1cab-4827-8bc9-fbae8adc8b9f,6
C & S Uni Tailors Co,"43 Ijesha Rd. Itire S/Lere Lagos, Lagos, Lagos",3.28149604797363,6.56270885467529,5e9fc246-7772-47bf-9d94-7cb37fab4551,5
House Of Desina,"15 Agbaoku St, Allen 101233, Ikeja, Nigeria, Lagos, Lagos State",3.35834908485413,6.59551191329956,a8acc85a-c578-4a3f-8f76-4bd2c5e5f65d,3
Victory fashion,"No 1 Moshood St, ikosi shangisha 300001, Lagos, Nigeria, Lagos, Lagos State",3.37723326683044,6.60798597335815,2a09f5e7-719c-40ec-8efe-e74506583ac0,1
Oversabi Stitches,"18 Dele Adeyemi St, Agungi, Lekki, Nigeria, Lagos, Lagos State",3.51787161827087,6.44263362884522,aa9cf85f-bcb3-46ae-a0c0-e19c91d7e502,5
Vicarol Catering,"Eyo Ita Crescent, University of Lagos, Yaba 100001, Lagos, Nigeria",3.39463329315186,6.51456165313721,68344176-b5a8-45cc-9294-4c1c4bc0bbfd,9
DIVINE CATERING SERVICES NIGERIA LTD,"Off Bass, 29, Chief Natufe Street, Thomas Animashaun Street, Surulere, Lagos, Nigeria, Lagos, Lagos State",3.37644958496094,6.48464488983154,117b2b02-50e8-47a1-9f3a-57b10cd28f5a,2
Le Saffron Catering Services,"No 6/7 Nnobi lane Igbo-efon, Lagos,2348130289586",3.39582920074463,6.45300769805908,22a835e1-28d0-49db-ae41-1b376e3a04d1,7
Umerah Catering,"38 Moshalashi St, Orile Iganmu 101245, Lagos, Nigeria, Lagos, Lagos State",3.39197325706482,6.55554294586182,b04c8a66-d70e-4431-b0f8-3e5e18c31baf,4
Baliz Cakes/Out Door Catering,"Lagos,23401, Lagos, Lagos",3.36832618713379,6.51111221313477,65c54a6d-eee0-463c-8c70-2ac0580d6cde,10
Jefas Catering and Events,"59, Banire B/stop, Idimu rd.,Egbeda., Lagos",3.36090874671936,6.51395702362061,7509fa33-23ff-4c2b-b479-d203995ccdc9,4
Divine Caterer Nigeria,"Suru Lere,101271, Lagos, Lagos",3.40509724617004,6.54820823669434,9493c94f-af71-4c73-b4d5-c5c0556820bf,9
Ivie's Kitchen,"River Valley Estate Ojodu, 100213, Lagos, Nigeria, Lagos, Lagos State 100213",3.36198401451111,6.49102735519409,77d4fadb-f0eb-45ca-be71-5ea72784a25d,10
Haryormidey foodies,"26, Akoka, yaba Yaba, Akoka, Lagos, Nigeria, Lagos, Lagos State",3.38509154319763,6.51910495758057,b34896d7-4ecd-4e10-8a54-1be10de8ff6b,8
"Catering, Event Planner And Decoration","Ilaje Street, JMJ, Tolu Bus Stop, Olodi, 29, Lagos, Nigeria, Lagos, Lagos State",3.36502385139465,6.55525922775269,eaf6938b-d1d6-44dd-9122-9c4ecabe20ef,6
MaaMee Foods Limited,"11 Jibowu St, Jibowu 100001, Lagos, Nigeria, Lagos, Lagos State",3.37115144729614,6.52000379562378,2936a6f6-9d7b-420c-9513-ac9cc3a077c1,3
Sugar's delight,"45, Odunsi street Oworonshoki, Bariga, Lagos, Nigeria, Lagos, Lagos State",3.39837265014648,6.53881597518921,b599552b-1339-4123-afae-23c39949db7c,1
Medley Food and Beverages,"26 Aralile street, off Tejuosho street, Surulere 101241, Lagos, Nigeria, Lagos, Lagos State",3.36659097671509,6.5045599937439,20e8f40e-4f6d-45e4-b3f8-3a0d7592bc26,1
GREENFIELD HOTEL & CATERING SERVICES LIMITED,"26, Tafawa Balewa Crescent, Lagos, Lagos",3.35623502731323,6.49743509292603,b0ce7725-f008-4a4e-b98c-5842d0c33f7b,5
D'POTTERS CATERING SERVICES,"11 Jubril Martins Street, LAGOS, Lagos",3.34858846664429,6.51214075088501,cb397f1e-621b-4cfc-95e0-26a985bd5b51,10
Evelyn catering services,"8,olayemi street off nnobi left,kilo b Kilo bus stop,surulere Itire_ikate, 100001, Lagos, Nigeria, Lagos, Lagos State",3.34549260139465,6.50039052963257,7f82ccc9-e011-4d35-aca4-5a274fbd4a6f,10
Susha Comida/ LAGOS FOOD VENDOR,"29/31 lawani street onitiri, Yaba, Lagos, Nigeria, Lagos, Lagos State",3.38272309303284,6.51689767837524,bf22d590-8773-4834-a50b-a1ba7fabe4cf,10
ENDLICIOUS CATERING SERVICES,"5 Oyenekan Street, LAGOS, Lagos",3.34730672836304,6.51391267776489,484329f4-3a8e-4754-966f-0d796efb3b41,3
Tasty kitchen & events,"11, Folarin Street, off Lawanson Rd, Mushin, Lagos, Nigeria, Lagos, Lagos State",3.34224486351013,6.51251411437988,07abb781-a1ab-4c45-bd35-c263f60af8a0,8
Rosegabriel Institute,"32 Adeshina Street, Lagos 101282",3.33923316001892,6.49896717071533,24024e09-bbcc-4205-96cd-e19c01403e7a,4
RiteTaste Catering Services,"9, Igbosere Lagos Island, Lagos, 104101, Nigeria, Lagos, Lagos 104101",3.40246152877808,6.44982719421387,078c1769-993d-4790-a104-2ad8416e8ced,6
Foodfillment,"51 Olatilewa Street, Ikate, Lagos",3.34766912460327,6.5078444480896,ce752bb7-4bcb-43d0-b18b-55ef599674c7,6
Souper Dishes,"1, Okamba Close, Off Thomas Animashaun Street, Surulere 101283, Lagos, Nigeria, Lagos, Lagos State",3.33832550048828,6.48905420303345,5b6e40bb-3b36-4386-8e7b-cd01bf74003c,6
CATHERINE'S SIGNATURE,"30 Pilot crescent, Off bishop Kale, Bode Thomas St, Surulere 101283, Lagos, Nigeria, Lagos, Lagos State",3.34960579872131,6.48867702484131,0a4747c1-b8c3-427e-b896-3bc6987f8e62,5
Tasty Delight Foods,"37, Ogunsona Magodo, Phase 1, Isheri., Lagos, Lagos, Lagos",3.39582920074463,6.45300769805908,c13c68c1-1ee6-4604-802e-a4870378cfd4,9
Binazon small chops,"50 Babs Animashaun Rd, Surulere, Lagos, Nigeria, Lagos, Lagos State",3.34856700897217,6.48258876800537,a6ae834d-752b-40a0-9ca4-b75719b7c2cb,8
Khaffy Sweet Tooth,"10 Ibiyemi St, Somolu 102216, Lagos, Nigeria, Lagos, Lagos State",3.36956405639648,6.54241132736206,0c8fd76c-8b51-43c1-a4bf-10865b1cf124,10
Landmark Foods & Support Services Limited,"12 Gbaja St, Surulere 101241, Lagos, Nigeria, Lagos, Lagos State",3.35934901237488,6.50422143936157,3df7293e-42ec-4daf-9774-dca97464277c,4
Tunde Kelvin Catering Services,"BLK 2 FLT, 2 Adeniji Adele Rd, JAKANDE EST, Lagos 102273, Lagos, Nigeria, Lagos, Lagos State",3.38252639770508,6.45787858963013,c9b575f3-995c-4c9b-a8a4-5b15f6b0c679,10
Exotic Delite,"House 7, FHA 2 Estate, Satellite Town, Lagos, Lagos State 23401",3.39582920074463,6.45300769805908,33c96ab8-c253-44e7-8480-4f68ab20af41,10
Wall's Street foods,"5 imam sonubi close off, Babatope St, Surulere, Lagos, Nigeria, Lagos, Lagos State",3.33961939811707,6.48658132553101,2eafcce4-4af3-4039-8782-22dd75048789,2
Kadine's Soup Pot,"Ikeja, Lagos,100518, Lagos, Lagos",3.39582991600037,6.45306015014648,117a06f9-6f77-4260-b4e3-e8c77ddffc20,8
1905 Pristine Events,"Adediran Ajao Crescent, Ajao Estate, Anthony ,Lagos, Lagos,2341, Lagos, Lagos",3.36198401451111,6.49102735519409,79c15cc0-6c9f-4455-8cea-06ae14864fd8,1
By His Grace Catering and Services,"41 ilamoye street, surulere, Lagos, Lagos State",3.32964491844177,6.48973941802979,b5ef4299-b251-4e37-94ff-8beb1639de93,7
Saheeto International Limited,"119 Lewis St, Lagos Island, Lagos, Nigeria, Lagos, Lagos State",3.40743803977966,6.44944477081299,d709afbb-15c8-46c7-8f10-0b85a7538503,3
Naddiiee CHOPS & Cocktails,"No 89 ogunlana drive surulere lagos, Lagos,234, Lagos, Lagos",3.35237002372742,6.50668001174927,667b3f95-4173-41df-b2b6-4f137a0e82c5,6
Bankress party world,"40 Randle avenue, surulere, Lagos., 300001, Lagos, Nigeria, Lagos, Lagos State",3.35598707199097,6.50505018234253,d4a3f897-1696-46b4-8f4b-510e943789bc,10
Supreme Chops International,"Phase 1 , Adeniji Adele Estate, LAGOS, Lagos",3.38004922866821,6.45820569992065,cbe5661b-61bf-4485-8a05-6a8e663be477,6
Laredochops - Small Chops | Grills | CanapeÃ¨,"44B, Omididun Street, Adeniji Adele Rd, Lagos Island, Lagos, Nigeria, Lagos, Lagos State",3.38004922866821,6.45820569992065,554f0780-5ae3-4bec-958a-96a9bfe101c9,2
Carpus Kitchen,"Adetokunbo Ademola Street, Victoria Island, Lagos,101001, Lagos, Lagos",3.43065929412842,6.43452787399292,775dd765-e2b8-49b7-9b86-2f6ceb26598c,8
Larry Spice Small Chops,"12, KIng George V Road, suite 38, Onikan, Lagos, Lagos,01, Lagos, Lagos",3.40527987480164,6.44517230987549,1875aadb-a0ca-484b-b255-9c0467ae538c,6
Lolly Kitchen Affairs,"Ahmadu Bello Way, Lagos Island 106104, Lagos, Nigeria, Lagos, Lagos State",3.40647864341736,6.43860912322998,d026933a-3b01-45e5-84b2-89cec2817672,10
Pearlâs Cuisine Lekki,"local government, Osborne foreshore phase 2 ikoyi Lagos, Ikoyi 100001, Lagos, Nigeria, Lagos, Lagos State",3.43126130104065,6.46255350112915,6f29de85-9f19-4814-9ec1-e65f41889f4e,10
The Rustic Cakery,"4 Ondo Street, Osborne Foreshore 1, Ikoyi, Lagos, Nigeria, Lagos, Lagos State",3.42481064796448,6.46481990814209,e773598e-4c7f-47be-bb1b-c80c98c7069c,4
Premier Corporate Forte Nigeria Ltd,"Block-B Suite No, 3 Kofo Abayomi St, Victoria Island 106104, Lagos, Nigeria, Lagos, Lagos State",3.41049146652222,6.43707084655762,ed83671c-f257-4eb9-bf95-72e454e8058a,9
RITA YUM YUM,"32 Odo Street, Obalende, Lagos",3.41260194778442,6.44890022277832,c061b0e4-5265-4f11-9e43-87ad67624275,8
HMC Catering,"Lycee Francais Loius Pasteur, 16 Younis Bashorun Street, Victoria Island 106104, Lagos, Nigeria, Lagos, Lagos State",3.43674087524414,6.42762565612793,45f7556a-c955-4210-82d5-c5e22c36530b,8
Feathers and Pearls Cuisine,"5 Omorinre Johnson street Eti-Osa, 105102, Lekki Phase 1, Lagos, Nigeria, Lagos, Lagos State",3.46631741523743,6.43645477294922,ae6a06f0-30e4-43ac-aab5-5c58a60aec90,10
Creek.Town Flavours,"D1 B.I.S Drive, Abila Abiodun Oniru Rd, Victoria Island 101241, Lagos, Nigeria, Lagos, Lagos State",3.44346165657043,6.43473434448242,82388a70-e438-40cb-84fa-72c9631a4589,4
HMC Catering Services Ltd.,"Carew Court, Plot 33, princely road, oniru estate, Victoria Island, Lagos, Nigeria, Lagos, Lagos State",3.45553016662598,6.42570924758911,cb2ccdf9-677e-4ac4-965e-19ad8cdaea44,4
Texas Overseas Catering Limited,"6 Dele Adedeji Street, Off Durosimi Etti Road Phase 1, Lekki, Lagos State 105102",3.46842503547668,6.43977403640747,87349f46-d069-4211-9260-33ad862c26af,3
Veritas Caterers Ltd,"5 Gbangbala St, Ikate 106104, Lagos, Nigeria, Ikate, Lagos State",3.48823809623718,6.43990898132324,4871db2a-964f-4fd1-9ecf-8c850661c3c3,1
Whassan Nigeria Ltd,"Plot 1054 Abagbon Close, Off Ologun Agbaje St, Victoria Island, Lagos, Nigeria, Lagos, Lagos State",3.4164834022522,6.42856693267822,7c40c4c7-5f1b-40eb-9cc6-ea4d3be29f45,4
Deliciousnessnaija Catering Services,"Ilasan, 30 Silverbird Rd, Eti-Osa 105102, Lekki, Nigeria, Lagos, Lagos State",3.50270628929138,6.43209886550903,4e1cdbdf-911b-4f3a-ace0-23e28c736831,2
